<?xml version="1.0" encoding="UTF-8"?>
<kml xmlns="http://www.opengis.net/kml/2.2">
  <Document>
    <name>eduroam — North Dakota</name>
    <description><![CDATA[9 eduroam service locations in North Dakota.<br><br>Published by <a href="https://scs.nevada.edu/eduroam">NSHE System Computing Services</a>. Learn more about eduroam Support Organizations from <a href="https://incommon.org/eduroam">Internet2</a>, the eduroam National Roaming Operator for the United States.<br>These maps are derived from data published by GÉANT (<a href="https://monitor.eduroam.org/kml/us.kml">monitor.eduroam.org</a>). This is not an official GÉANT or eduroam publication.<br>eduroam is a registered trademark of the GÉANT Association.<br>Region boundaries are derived from US Census Bureau cartographic boundary files, which as works of the US federal government are in the public domain.<br>Maps generated by eduroam-us-regional-maps, which is BSD 3-Clause licensed.]]></description>
    <open>1</open>
    <Placemark>
      <name>Department of Veterans Affairs</name>
      <description><![CDATA[<b>Name:</b> Fargo VA Medical Center<br><b>Address:</b> , <br><b>SSID:</b> eduroam<br><b>Enc:</b> WPA2<br><b>AP:</b> -<br>]]></description>
      <Point>
        <coordinates>-96.77469,46.90612,0</coordinates>
      </Point>
    </Placemark>
    <Placemark>
      <name>North Dakota State University-Main Campus</name>
      <description><![CDATA[<b>Name:</b> Main Campus<br><b>Address:</b> , <br><b>SSID:</b> eduroam<br><b>Enc:</b> WPA2<br><b>AP:</b> 2000<br>]]></description>
      <Point>
        <coordinates>-96.8027733,46.8985587,0</coordinates>
      </Point>
    </Placemark>
    <Placemark>
      <name>North Dakota State University-Main Campus</name>
      <description><![CDATA[<b>Name:</b> NDSU Nursing at Sanford Health<br><b>Address:</b> , <br><b>SSID:</b> eduroam<br><b>Enc:</b> WPA2<br><b>AP:</b> 10<br>]]></description>
      <Point>
        <coordinates>-100.7818843,46.809801,0</coordinates>
      </Point>
    </Placemark>
    <Placemark>
      <name>North Dakota State University-Main Campus</name>
      <description><![CDATA[<b>Name:</b> North Dakota State University - Downtown Campus - Barry Hall<br><b>Address:</b> , <br><b>SSID:</b> eduroam<br><b>Enc:</b> WPA2<br><b>AP:</b> 64<br>]]></description>
      <Point>
        <coordinates>-96.7934204,46.87879,0</coordinates>
      </Point>
    </Placemark>
    <Placemark>
      <name>North Dakota State University-Main Campus</name>
      <description><![CDATA[<b>Name:</b> North Dakota State University - Downtown Campus - Klai Hall<br><b>Address:</b> , <br><b>SSID:</b> eduroam<br><b>Enc:</b> WPA2<br><b>AP:</b> 15<br>]]></description>
      <Point>
        <coordinates>-96.791379,46.8785783,0</coordinates>
      </Point>
    </Placemark>
    <Placemark>
      <name>North Dakota State University-Main Campus</name>
      <description><![CDATA[<b>Name:</b> North Dakota State University - Downtown Campus - Renaissance Hall<br><b>Address:</b> , <br><b>SSID:</b> eduroam<br><b>Enc:</b> WPA2<br><b>AP:</b> 26<br>]]></description>
      <Point>
        <coordinates>-96.790469,46.8756932,0</coordinates>
      </Point>
    </Placemark>
    <Placemark>
      <name>North Dakota University System</name>
      <description><![CDATA[<b>Name:</b> North Dakota State College of Science<br><b>Address:</b> , <br><b>SSID:</b> eduroam<br><b>Enc:</b> WPA2+WPA<br><b>AP:</b> 298<br>]]></description>
      <Point>
        <coordinates>-96.6082342,46.2715363,0</coordinates>
      </Point>
    </Placemark>
    <Placemark>
      <name>North Dakota University System</name>
      <description><![CDATA[<b>Name:</b> University of North Dakota<br><b>Address:</b> , <br><b>SSID:</b> eduroam<br><b>Enc:</b> WPA2+WPA<br><b>AP:</b> 2100<br>]]></description>
      <Point>
        <coordinates>-97.1683543,47.9536762,0</coordinates>
      </Point>
    </Placemark>
    <Placemark>
      <name>Sitting Bull College</name>
      <description><![CDATA[<b>Name:</b> Sitting Bull College<br><b>Address:</b> , <br><b>SSID:</b> eduroam<br><b>Enc:</b> WPA2<br><b>AP:</b> -<br>]]></description>
      <Point>
        <coordinates>-100.6301271,46.0869408,0</coordinates>
      </Point>
    </Placemark>
  </Document>
</kml>
