<?xml version="1.0" encoding="UTF-8"?>
<kml xmlns="http://www.opengis.net/kml/2.2">
  <Document>
    <name>eduroam — Virginia</name>
    <description><![CDATA[110 eduroam service locations in Virginia.<br><br>Published by <a href="https://scs.nevada.edu/eduroam">NSHE System Computing Services</a>. Learn more about eduroam Support Organizations from <a href="https://incommon.org/eduroam">Internet2</a>, the eduroam National Roaming Operator for the United States.<br>These maps are derived from data published by GÉANT (<a href="https://monitor.eduroam.org/kml/us.kml">monitor.eduroam.org</a>). This is not an official GÉANT or eduroam publication.<br>eduroam is a registered trademark of the GÉANT Association.<br>Region boundaries are derived from US Census Bureau cartographic boundary files, which as works of the US federal government are in the public domain.<br>Maps generated by eduroam-us-regional-maps, which is BSD 3-Clause licensed.]]></description>
    <open>1</open>
    <Placemark>
      <name>Carilion Clinic</name>
      <description><![CDATA[<b>Name:</b> Carilion Roanoke Memorial Hospital<br><b>Address:</b> , <br><b>SSID:</b> eduroam<br><b>Enc:</b> WPA2<br><b>AP:</b> 2100<br>]]></description>
      <Point>
        <coordinates>-79.9326588,37.2756465,0</coordinates>
      </Point>
    </Placemark>
    <Placemark>
      <name>Christopher Newport University</name>
      <description><![CDATA[<b>Name:</b> Christopher Newport University<br><b>Address:</b> , <br><b>SSID:</b> eduroam<br><b>Enc:</b> WPA2+WPA<br><b>AP:</b> 2000<br>]]></description>
      <Point>
        <coordinates>-76.4899457,37.0608093,0</coordinates>
      </Point>
    </Placemark>
    <Placemark>
      <name>College of William and Mary</name>
      <description><![CDATA[<b>Name:</b> Williamsburg Campus<br><b>Address:</b> , <br><b>SSID:</b> eduroam<br><b>Enc:</b> WPA2+WPA<br><b>AP:</b> 2700<br>]]></description>
      <Point>
        <coordinates>-76.7074571,37.2707022,0</coordinates>
      </Point>
    </Placemark>
    <Placemark>
      <name>Department of Veterans Affairs</name>
      <description><![CDATA[<b>Name:</b> Hampton VA Medical Center<br><b>Address:</b> , <br><b>SSID:</b> eduroam<br><b>Enc:</b> WPA2<br><b>AP:</b> -<br>]]></description>
      <Point>
        <coordinates>-76.33019,37.01769,0</coordinates>
      </Point>
    </Placemark>
    <Placemark>
      <name>Department of Veterans Affairs</name>
      <description><![CDATA[<b>Name:</b> Peninsula Town Center<br><b>Address:</b> , <br><b>SSID:</b> eduroam<br><b>Enc:</b> WPA2<br><b>AP:</b> -<br>]]></description>
      <Point>
        <coordinates>-76.39126,37.04507,0</coordinates>
      </Point>
    </Placemark>
    <Placemark>
      <name>Department of Veterans Affairs</name>
      <description><![CDATA[<b>Name:</b> Richmond VA Medical Center<br><b>Address:</b> , <br><b>SSID:</b> eduroam<br><b>Enc:</b> WPA2<br><b>AP:</b> -<br>]]></description>
      <Point>
        <coordinates>-77.46878,37.497763,0</coordinates>
      </Point>
    </Placemark>
    <Placemark>
      <name>Department of Veterans Affairs</name>
      <description><![CDATA[<b>Name:</b> Salem VA Medical Center<br><b>Address:</b> , <br><b>SSID:</b> eduroam<br><b>Enc:</b> WPA2<br><b>AP:</b> -<br>]]></description>
      <Point>
        <coordinates>-80.019889,37.274527,0</coordinates>
      </Point>
    </Placemark>
    <Placemark>
      <name>Department of Veterans Affairs</name>
      <description><![CDATA[<b>Name:</b> Test Lab<br><b>Address:</b> , <br><b>SSID:</b> eduroam<br><b>Enc:</b> WPA2+WPA<br><b>AP:</b> -<br>]]></description>
      <Point>
        <coordinates>-77.350686,38.853624,0</coordinates>
      </Point>
    </Placemark>
    <Placemark>
      <name>Enseo</name>
      <description><![CDATA[<b>Name:</b> Virginia Guest House<br><b>Address:</b> , <br><b>SSID:</b> eduroam<br><b>Enc:</b> WPA2<br><b>AP:</b> 291<br>]]></description>
      <Point>
        <coordinates>-78.509498,38.0419207,0</coordinates>
      </Point>
    </Placemark>
    <Placemark>
      <name>George Mason University</name>
      <description><![CDATA[<b>Name:</b> Main Campus<br><b>Address:</b> , <br><b>SSID:</b> eduroam<br><b>Enc:</b> WPA2+WPA<br><b>AP:</b> -<br>]]></description>
      <Point>
        <coordinates>-77.3085758,38.8309885,0</coordinates>
      </Point>
    </Placemark>
    <Placemark>
      <name>George Washington University</name>
      <description><![CDATA[<b>Name:</b> GW Virginia Science &amp; Technology Campus<br><b>Address:</b> , <br><b>SSID:</b> eduroam<br><b>Enc:</b> WPA2+WPA<br><b>AP:</b> 200<br>]]></description>
      <Point>
        <coordinates>-77.4441676,39.054824,0</coordinates>
      </Point>
    </Placemark>
    <Placemark>
      <name>GoGig</name>
      <description><![CDATA[<b>Name:</b> Henderson Lawn<br><b>Address:</b> , <br><b>SSID:</b> eduroam<br><b>Enc:</b> WPA2+WPA<br><b>AP:</b> 2<br>]]></description>
      <Point>
        <coordinates>-80.4153083,37.2306146,0</coordinates>
      </Point>
    </Placemark>
    <Placemark>
      <name>GoGig</name>
      <description><![CDATA[<b>Name:</b> Roanoke Street<br><b>Address:</b> , <br><b>SSID:</b> eduroam<br><b>Enc:</b> WPA2+WPA<br><b>AP:</b> 1<br>]]></description>
      <Point>
        <coordinates>-80.4136722,37.22985,0</coordinates>
      </Point>
    </Placemark>
    <Placemark>
      <name>GoGig</name>
      <description><![CDATA[<b>Name:</b> TechPad coworking space<br><b>Address:</b> , <br><b>SSID:</b> eduroam<br><b>Enc:</b> WPA2+WPA<br><b>AP:</b> 3<br>]]></description>
      <Point>
        <coordinates>-80.4162981,37.2320334,0</coordinates>
      </Point>
    </Placemark>
    <Placemark>
      <name>Howard Hughes Medical Institute</name>
      <description><![CDATA[<b>Name:</b> HHMI Janelia Research Center<br><b>Address:</b> , <br><b>SSID:</b> eduroam<br><b>Enc:</b> WPA3+WPA2+WPA<br><b>AP:</b> 500<br>]]></description>
      <Point>
        <coordinates>-77.4658948,39.0706102,0</coordinates>
      </Point>
    </Placemark>
    <Placemark>
      <name>Information Sciences Institute</name>
      <description><![CDATA[<b>Name:</b> USC - Information Sciences Institute ARL<br><b>Address:</b> , <br><b>SSID:</b> eduroam<br><b>Enc:</b> WPA2<br><b>AP:</b> -<br>]]></description>
      <Point>
        <coordinates>-77.1058355,38.8826665,0</coordinates>
      </Point>
    </Placemark>
    <Placemark>
      <name>James Madison University</name>
      <description><![CDATA[<b>Name:</b> James Madison University<br><b>Address:</b> , <br><b>SSID:</b> eduroam<br><b>Enc:</b> WPA2+WPA<br><b>AP:</b> 2000<br>]]></description>
      <Point>
        <coordinates>-78.8698872,38.4351155,0</coordinates>
      </Point>
    </Placemark>
    <Placemark>
      <name>Jefferson Lab</name>
      <description><![CDATA[<b>Name:</b> Jefferson Lab<br><b>Address:</b> , <br><b>SSID:</b> eduroam<br><b>Enc:</b> WPA2<br><b>AP:</b> 200<br>]]></description>
      <Point>
        <coordinates>-76.4871441,37.0972402,0</coordinates>
      </Point>
    </Placemark>
    <Placemark>
      <name>Kajeet, Inc.</name>
      <description><![CDATA[<b>Name:</b> Kajeet Inc<br><b>Address:</b> , <br><b>SSID:</b> eduroam<br><b>Enc:</b> WPA2<br><b>AP:</b> 1<br>]]></description>
      <Point>
        <coordinates>-77.2189824,38.9260384,0</coordinates>
      </Point>
    </Placemark>
    <Placemark>
      <name>Kimpton The Forum Hotel</name>
      <description><![CDATA[<b>Name:</b> Kimpton The Forum Hotel<br><b>Address:</b> , <br><b>SSID:</b> eduroam<br><b>Enc:</b> WPA2<br><b>AP:</b> 147<br>]]></description>
      <Point>
        <coordinates>-78.4934079,38.0460306,0</coordinates>
      </Point>
    </Placemark>
    <Placemark>
      <name>Liberty University</name>
      <description><![CDATA[<b>Name:</b> LaHaye Ice Center<br><b>Address:</b> , <br><b>SSID:</b> eduroam<br><b>Enc:</b> WPA2<br><b>AP:</b> 44<br>]]></description>
      <Point>
        <coordinates>-79.1724897,37.356565,0</coordinates>
      </Point>
    </Placemark>
    <Placemark>
      <name>Liberty University</name>
      <description><![CDATA[<b>Name:</b> Liberty Mountain Conference Center<br><b>Address:</b> , <br><b>SSID:</b> eduroam<br><b>Enc:</b> WPA2<br><b>AP:</b> 23<br>]]></description>
      <Point>
        <coordinates>-79.1707738,37.3623139,0</coordinates>
      </Point>
    </Placemark>
    <Placemark>
      <name>Liberty University</name>
      <description><![CDATA[<b>Name:</b> Liberty Mountain Snowflex Centre<br><b>Address:</b> , <br><b>SSID:</b> eduroam<br><b>Enc:</b> WPA2<br><b>AP:</b> 4<br>]]></description>
      <Point>
        <coordinates>-79.1667162,37.3527856,0</coordinates>
      </Point>
    </Placemark>
    <Placemark>
      <name>Liberty University</name>
      <description><![CDATA[<b>Name:</b> Liberty University - Airport Campus<br><b>Address:</b> , <br><b>SSID:</b> eduroam<br><b>Enc:</b> WPA2<br><b>AP:</b> 40<br>]]></description>
      <Point>
        <coordinates>-79.2045622,37.3269521,0</coordinates>
      </Point>
    </Placemark>
    <Placemark>
      <name>Liberty University</name>
      <description><![CDATA[<b>Name:</b> Liberty University - Annex Residences<br><b>Address:</b> , <br><b>SSID:</b> eduroam<br><b>Enc:</b> WPA2<br><b>AP:</b> 176<br>]]></description>
      <Point>
        <coordinates>-79.1667552,37.3848486,0</coordinates>
      </Point>
    </Placemark>
    <Placemark>
      <name>Liberty University</name>
      <description><![CDATA[<b>Name:</b> Liberty University - East Residences<br><b>Address:</b> , <br><b>SSID:</b> eduroam<br><b>Enc:</b> WPA2<br><b>AP:</b> 524<br>]]></description>
      <Point>
        <coordinates>-79.1779337,37.3462499,0</coordinates>
      </Point>
    </Placemark>
    <Placemark>
      <name>Liberty University</name>
      <description><![CDATA[<b>Name:</b> Liberty University - Engineering Campus<br><b>Address:</b> , <br><b>SSID:</b> eduroam<br><b>Enc:</b> WPA2<br><b>AP:</b> 2<br>]]></description>
      <Point>
        <coordinates>-79.3406669,37.3017418,0</coordinates>
      </Point>
    </Placemark>
    <Placemark>
      <name>Liberty University</name>
      <description><![CDATA[<b>Name:</b> Liberty University - Main Campus<br><b>Address:</b> , <br><b>SSID:</b> eduroam<br><b>Enc:</b> WPA2<br><b>AP:</b> 2583<br>]]></description>
      <Point>
        <coordinates>-79.176612,37.3527787,0</coordinates>
      </Point>
    </Placemark>
    <Placemark>
      <name>Liberty University</name>
      <description><![CDATA[<b>Name:</b> Liberty University - Medical Campus<br><b>Address:</b> , <br><b>SSID:</b> eduroam<br><b>Enc:</b> WPA2<br><b>AP:</b> 131<br>]]></description>
      <Point>
        <coordinates>-79.1796309,37.3372647,0</coordinates>
      </Point>
    </Placemark>
    <Placemark>
      <name>Liberty University</name>
      <description><![CDATA[<b>Name:</b> Liberty University - North Campus<br><b>Address:</b> , <br><b>SSID:</b> eduroam<br><b>Enc:</b> WPA2<br><b>AP:</b> 356<br>]]></description>
      <Point>
        <coordinates>-79.175021,37.35797,0</coordinates>
      </Point>
    </Placemark>
    <Placemark>
      <name>Liberty University</name>
      <description><![CDATA[<b>Name:</b> Liberty University - Track &amp; Field<br><b>Address:</b> , <br><b>SSID:</b> eduroam<br><b>Enc:</b> WPA2<br><b>AP:</b> 54<br>]]></description>
      <Point>
        <coordinates>-79.1615466,37.3614709,0</coordinates>
      </Point>
    </Placemark>
    <Placemark>
      <name>Liberty University</name>
      <description><![CDATA[<b>Name:</b> Liberty University - Vines Center<br><b>Address:</b> , <br><b>SSID:</b> eduroam<br><b>Enc:</b> WPA2<br><b>AP:</b> 169<br>]]></description>
      <Point>
        <coordinates>-79.1805524,37.3485409,0</coordinates>
      </Point>
    </Placemark>
    <Placemark>
      <name>Liberty University</name>
      <description><![CDATA[<b>Name:</b> Williams Stadium<br><b>Address:</b> , <br><b>SSID:</b> eduroam<br><b>Enc:</b> WPA2<br><b>AP:</b> 725<br>]]></description>
      <Point>
        <coordinates>-79.1751404,37.3542952,0</coordinates>
      </Point>
    </Placemark>
    <Placemark>
      <name>Longwood University</name>
      <description><![CDATA[<b>Name:</b> Longwood University<br><b>Address:</b> , <br><b>SSID:</b> eduroam<br><b>Enc:</b> WPA2+WPA<br><b>AP:</b> -<br>]]></description>
      <Point>
        <coordinates>-78.3944433,37.3011542,0</coordinates>
      </Point>
    </Placemark>
    <Placemark>
      <name>Mary's House</name>
      <description><![CDATA[<b>Name:</b> Test house<br><b>Address:</b> , <br><b>SSID:</b> eduroam<br><b>Enc:</b> WPA2<br><b>AP:</b> 418<br>]]></description>
      <Point>
        <coordinates>-76.7072024,37.2798791,0</coordinates>
      </Point>
    </Placemark>
    <Placemark>
      <name>National Science Foundation</name>
      <description><![CDATA[<b>Name:</b> Arlington<br><b>Address:</b> , <br><b>SSID:</b> eduroam<br><b>Enc:</b> WPA2+WPA<br><b>AP:</b> -<br>]]></description>
      <Point>
        <coordinates>-77.1109343,38.8805037,0</coordinates>
      </Point>
    </Placemark>
    <Placemark>
      <name>Old Dominion University</name>
      <description><![CDATA[<b>Name:</b> ODU Norfolk Main Campus<br><b>Address:</b> , <br><b>SSID:</b> eduroam<br><b>Enc:</b> WPA2+WPA<br><b>AP:</b> 3000<br>]]></description>
      <Point>
        <coordinates>-76.3049635,36.8857957,0</coordinates>
      </Point>
    </Placemark>
    <Placemark>
      <name>Old Dominion University</name>
      <description><![CDATA[<b>Name:</b> ODU Peninsula Center<br><b>Address:</b> , <br><b>SSID:</b> eduroam<br><b>Enc:</b> WPA2+WPA<br><b>AP:</b> 25<br>]]></description>
      <Point>
        <coordinates>-76.4148184,37.0619581,0</coordinates>
      </Point>
    </Placemark>
    <Placemark>
      <name>Old Dominion University</name>
      <description><![CDATA[<b>Name:</b> ODU Tri-Cities Center<br><b>Address:</b> , <br><b>SSID:</b> eduroam<br><b>Enc:</b> WPA2+WPA<br><b>AP:</b> 25<br>]]></description>
      <Point>
        <coordinates>-76.4171794,36.8690701,0</coordinates>
      </Point>
    </Placemark>
    <Placemark>
      <name>Old Dominion University</name>
      <description><![CDATA[<b>Name:</b> Virginia Beach Higher Education Center<br><b>Address:</b> , <br><b>SSID:</b> eduroam<br><b>Enc:</b> WPA2+WPA<br><b>AP:</b> 50<br>]]></description>
      <Point>
        <coordinates>-76.0965667,36.7812624,0</coordinates>
      </Point>
    </Placemark>
    <Placemark>
      <name>Old Dominion University</name>
      <description><![CDATA[<b>Name:</b> Virginia Health Sciences at Eastern Virginia Medical Center<br><b>Address:</b> , <br><b>SSID:</b> eduroam<br><b>Enc:</b> WPA2<br><b>AP:</b> 400<br>]]></description>
      <Point>
        <coordinates>-76.3025754,36.8597566,0</coordinates>
      </Point>
    </Placemark>
    <Placemark>
      <name>Old Dominion University</name>
      <description><![CDATA[<b>Name:</b> Virginia Modeling and Simulation Center<br><b>Address:</b> , <br><b>SSID:</b> eduroam<br><b>Enc:</b> WPA2+WPA<br><b>AP:</b> 30<br>]]></description>
      <Point>
        <coordinates>-76.4182538,36.8693516,0</coordinates>
      </Point>
    </Placemark>
    <Placemark>
      <name>Radford University</name>
      <description><![CDATA[<b>Name:</b> Main Campus<br><b>Address:</b> , <br><b>SSID:</b> eduroam<br><b>Enc:</b> WPA2<br><b>AP:</b> 1800<br>]]></description>
      <Point>
        <coordinates>-80.547192,37.1385348,0</coordinates>
      </Point>
    </Placemark>
    <Placemark>
      <name>Randolph-Macon College</name>
      <description><![CDATA[<b>Name:</b> Randolph-Macon College<br><b>Address:</b> , <br><b>SSID:</b> eduroam<br><b>Enc:</b> WPA2+WPA<br><b>AP:</b> 633<br>]]></description>
      <Point>
        <coordinates>-77.4782744,37.7603608,0</coordinates>
      </Point>
    </Placemark>
    <Placemark>
      <name>Ripley Home</name>
      <description><![CDATA[<b>Name:</b> Ripley Home<br><b>Address:</b> , <br><b>SSID:</b> eduroam<br><b>Enc:</b> WPA2<br><b>AP:</b> 1<br>]]></description>
      <Point>
        <coordinates>-78.8498433,38.4574362,0</coordinates>
      </Point>
    </Placemark>
    <Placemark>
      <name>Roanoke Higher Education Center</name>
      <description><![CDATA[<b>Name:</b> ROANOKE HIGHER EDUCATION CENTER<br><b>Address:</b> , <br><b>SSID:</b> eduroam<br><b>Enc:</b> WPA2+WPA<br><b>AP:</b> -<br>]]></description>
      <Point>
        <coordinates>-79.9410479,37.2747328,0</coordinates>
      </Point>
    </Placemark>
    <Placemark>
      <name>The Hotel Roanoke &amp; Conference Center</name>
      <description><![CDATA[<b>Name:</b> The Hotel Roanoke &amp; Conference Center<br><b>Address:</b> , <br><b>SSID:</b> eduroam<br><b>Enc:</b> WPA2+WPA<br><b>AP:</b> 235<br>]]></description>
      <Point>
        <coordinates>-79.9395185,37.2745685,0</coordinates>
      </Point>
    </Placemark>
    <Placemark>
      <name>University of Mary Washington</name>
      <description><![CDATA[<b>Name:</b> Dahlgren Campus<br><b>Address:</b> , <br><b>SSID:</b> eduroam<br><b>Enc:</b> WPA2+WPA<br><b>AP:</b> -<br>]]></description>
      <Point>
        <coordinates>-77.06074,38.3507138,0</coordinates>
      </Point>
    </Placemark>
    <Placemark>
      <name>University of Mary Washington</name>
      <description><![CDATA[<b>Name:</b> Fredericksburg Campus<br><b>Address:</b> , <br><b>SSID:</b> eduroam<br><b>Enc:</b> WPA2+WPA<br><b>AP:</b> -<br>]]></description>
      <Point>
        <coordinates>-77.4740397,38.3007673,0</coordinates>
      </Point>
    </Placemark>
    <Placemark>
      <name>University of Mary Washington</name>
      <description><![CDATA[<b>Name:</b> Stafford Campus<br><b>Address:</b> , <br><b>SSID:</b> eduroam<br><b>Enc:</b> WPA2+WPA<br><b>AP:</b> -<br>]]></description>
      <Point>
        <coordinates>-77.5316395,38.3705197,0</coordinates>
      </Point>
    </Placemark>
    <Placemark>
      <name>University of Richmond</name>
      <description><![CDATA[<b>Name:</b> University of Richmond<br><b>Address:</b> , <br><b>SSID:</b> eduroam<br><b>Enc:</b> WPA2+WPA<br><b>AP:</b> 2647<br>]]></description>
      <Point>
        <coordinates>-77.5427156,37.5739911,0</coordinates>
      </Point>
    </Placemark>
    <Placemark>
      <name>University of Virginia-Main Campus</name>
      <description><![CDATA[<b>Name:</b> Main Campus<br><b>Address:</b> , <br><b>SSID:</b> eduroam<br><b>Enc:</b> WPA2+WPA<br><b>AP:</b> -<br>]]></description>
      <Point>
        <coordinates>-78.5042027,38.0349762,0</coordinates>
      </Point>
    </Placemark>
    <Placemark>
      <name>VCOM</name>
      <description><![CDATA[<b>Name:</b> VCOM-VC<br><b>Address:</b> , <br><b>SSID:</b> eduroam<br><b>Enc:</b> WPA2<br><b>AP:</b> 50<br>]]></description>
      <Point>
        <coordinates>-80.4060554,37.1996852,0</coordinates>
      </Point>
    </Placemark>
    <Placemark>
      <name>Virginia Commonwealth University</name>
      <description><![CDATA[<b>Name:</b> MCV Campus<br><b>Address:</b> , <br><b>SSID:</b> eduroam<br><b>Enc:</b> WPA2+WPA<br><b>AP:</b> -<br>]]></description>
      <Point>
        <coordinates>-77.4293114,37.5430751,0</coordinates>
      </Point>
    </Placemark>
    <Placemark>
      <name>Virginia Commonwealth University</name>
      <description><![CDATA[<b>Name:</b> Monroe Park Campus<br><b>Address:</b> , <br><b>SSID:</b> eduroam<br><b>Enc:</b> WPA2+WPA<br><b>AP:</b> -<br>]]></description>
      <Point>
        <coordinates>-77.451829,37.5485,0</coordinates>
      </Point>
    </Placemark>
    <Placemark>
      <name>Virginia Commonwealth University</name>
      <description><![CDATA[<b>Name:</b> VCU School of Pharmacy - INOVA<br><b>Address:</b> , <br><b>SSID:</b> eduroam<br><b>Enc:</b> WPA2+WPA<br><b>AP:</b> -<br>]]></description>
      <Point>
        <coordinates>-77.2286078,38.8581894,0</coordinates>
      </Point>
    </Placemark>
    <Placemark>
      <name>Virginia Community College System</name>
      <description><![CDATA[<b>Name:</b> Blue Ridge Community College<br><b>Address:</b> , <br><b>SSID:</b> eduroam<br><b>Enc:</b> WPA2<br><b>AP:</b> -<br>]]></description>
      <Point>
        <coordinates>-78.9390334,38.2781364,0</coordinates>
      </Point>
    </Placemark>
    <Placemark>
      <name>Virginia Community College System</name>
      <description><![CDATA[<b>Name:</b> Brightpoint Community College - Chester Campus<br><b>Address:</b> , <br><b>SSID:</b> eduroam<br><b>Enc:</b> WPA2<br><b>AP:</b> -<br>]]></description>
      <Point>
        <coordinates>-77.4079141,37.3459689,0</coordinates>
      </Point>
    </Placemark>
    <Placemark>
      <name>Virginia Community College System</name>
      <description><![CDATA[<b>Name:</b> Brightpoint Community College - Midlothian Campus<br><b>Address:</b> , <br><b>SSID:</b> eduroam<br><b>Enc:</b> WPA2<br><b>AP:</b> -<br>]]></description>
      <Point>
        <coordinates>-77.6646634,37.4904391,0</coordinates>
      </Point>
    </Placemark>
    <Placemark>
      <name>Virginia Community College System</name>
      <description><![CDATA[<b>Name:</b> Camp Community College - Franklin Campus<br><b>Address:</b> , <br><b>SSID:</b> eduroam<br><b>Enc:</b> WPA2<br><b>AP:</b> -<br>]]></description>
      <Point>
        <coordinates>-76.9375687,36.6744791,0</coordinates>
      </Point>
    </Placemark>
    <Placemark>
      <name>Virginia Community College System</name>
      <description><![CDATA[<b>Name:</b> Camp Community College - Smithfield Campus<br><b>Address:</b> , <br><b>SSID:</b> eduroam<br><b>Enc:</b> WPA2<br><b>AP:</b> -<br>]]></description>
      <Point>
        <coordinates>-76.6383361,36.9830961,0</coordinates>
      </Point>
    </Placemark>
    <Placemark>
      <name>Virginia Community College System</name>
      <description><![CDATA[<b>Name:</b> Camp Community College - Suffolk Campus<br><b>Address:</b> , <br><b>SSID:</b> eduroam<br><b>Enc:</b> WPA2<br><b>AP:</b> -<br>]]></description>
      <Point>
        <coordinates>-76.6552139,36.7253209,0</coordinates>
      </Point>
    </Placemark>
    <Placemark>
      <name>Virginia Community College System</name>
      <description><![CDATA[<b>Name:</b> Central Virginia Community College<br><b>Address:</b> , <br><b>SSID:</b> eduroam<br><b>Enc:</b> WPA2<br><b>AP:</b> -<br>]]></description>
      <Point>
        <coordinates>-79.183912,37.3593436,0</coordinates>
      </Point>
    </Placemark>
    <Placemark>
      <name>Virginia Community College System</name>
      <description><![CDATA[<b>Name:</b> Danville Community College<br><b>Address:</b> , <br><b>SSID:</b> eduroam<br><b>Enc:</b> WPA2<br><b>AP:</b> -<br>]]></description>
      <Point>
        <coordinates>-79.4091964,36.5644841,0</coordinates>
      </Point>
    </Placemark>
    <Placemark>
      <name>Virginia Community College System</name>
      <description><![CDATA[<b>Name:</b> Eastern Shore Community College<br><b>Address:</b> , <br><b>SSID:</b> eduroam<br><b>Enc:</b> WPA2<br><b>AP:</b> -<br>]]></description>
      <Point>
        <coordinates>-75.7506611,37.6401213,0</coordinates>
      </Point>
    </Placemark>
    <Placemark>
      <name>Virginia Community College System</name>
      <description><![CDATA[<b>Name:</b> Germanna Community College - Barbara J Fried Center<br><b>Address:</b> , <br><b>SSID:</b> eduroam<br><b>Enc:</b> WPA2<br><b>AP:</b> -<br>]]></description>
      <Point>
        <coordinates>-77.4082458,38.4089712,0</coordinates>
      </Point>
    </Placemark>
    <Placemark>
      <name>Virginia Community College System</name>
      <description><![CDATA[<b>Name:</b> Germanna Community College - Daniel Technology Center<br><b>Address:</b> , <br><b>SSID:</b> eduroam<br><b>Enc:</b> WPA2<br><b>AP:</b> -<br>]]></description>
      <Point>
        <coordinates>-77.9741048,38.4564851,0</coordinates>
      </Point>
    </Placemark>
    <Placemark>
      <name>Virginia Community College System</name>
      <description><![CDATA[<b>Name:</b> Germanna Community College - Fredericksburg Campus<br><b>Address:</b> , <br><b>SSID:</b> eduroam<br><b>Enc:</b> WPA2<br><b>AP:</b> -<br>]]></description>
      <Point>
        <coordinates>-77.4929822,38.2317463,0</coordinates>
      </Point>
    </Placemark>
    <Placemark>
      <name>Virginia Community College System</name>
      <description><![CDATA[<b>Name:</b> Germanna Community College - Fredericksburg Center for Advanced Technology<br><b>Address:</b> , <br><b>SSID:</b> eduroam<br><b>Enc:</b> WPA2<br><b>AP:</b> -<br>]]></description>
      <Point>
        <coordinates>-77.5124009,38.301222,0</coordinates>
      </Point>
    </Placemark>
    <Placemark>
      <name>Virginia Community College System</name>
      <description><![CDATA[<b>Name:</b> Germanna Community College - Locust Grove Campus<br><b>Address:</b> , <br><b>SSID:</b> eduroam<br><b>Enc:</b> WPA2<br><b>AP:</b> -<br>]]></description>
      <Point>
        <coordinates>-77.7795147,38.3748331,0</coordinates>
      </Point>
    </Placemark>
    <Placemark>
      <name>Virginia Community College System</name>
      <description><![CDATA[<b>Name:</b> Laurel Ridge Community College - Fauquier Campus<br><b>Address:</b> , <br><b>SSID:</b> eduroam<br><b>Enc:</b> WPA2<br><b>AP:</b> -<br>]]></description>
      <Point>
        <coordinates>-77.7824881,38.68206,0</coordinates>
      </Point>
    </Placemark>
    <Placemark>
      <name>Virginia Community College System</name>
      <description><![CDATA[<b>Name:</b> Laurel Ridge Community College - Middletown Campus<br><b>Address:</b> , <br><b>SSID:</b> eduroam<br><b>Enc:</b> WPA2<br><b>AP:</b> -<br>]]></description>
      <Point>
        <coordinates>-78.2668526,39.0351031,0</coordinates>
      </Point>
    </Placemark>
    <Placemark>
      <name>Virginia Community College System</name>
      <description><![CDATA[<b>Name:</b> Mountain Empire Community College<br><b>Address:</b> , <br><b>SSID:</b> eduroam<br><b>Enc:</b> WPA2<br><b>AP:</b> -<br>]]></description>
      <Point>
        <coordinates>-82.75966,36.853859,0</coordinates>
      </Point>
    </Placemark>
    <Placemark>
      <name>Virginia Community College System</name>
      <description><![CDATA[<b>Name:</b> Mountain Gateway Community College<br><b>Address:</b> , <br><b>SSID:</b> eduroam<br><b>Enc:</b> WPA2<br><b>AP:</b> -<br>]]></description>
      <Point>
        <coordinates>-79.8525631,37.8111984,0</coordinates>
      </Point>
    </Placemark>
    <Placemark>
      <name>Virginia Community College System</name>
      <description><![CDATA[<b>Name:</b> New River Community College<br><b>Address:</b> , <br><b>SSID:</b> eduroam<br><b>Enc:</b> WPA2<br><b>AP:</b> -<br>]]></description>
      <Point>
        <coordinates>-80.695875,37.1053143,0</coordinates>
      </Point>
    </Placemark>
    <Placemark>
      <name>Virginia Community College System</name>
      <description><![CDATA[<b>Name:</b> Northern Virginia Community College - Alexandria Campus<br><b>Address:</b> , <br><b>SSID:</b> eduroam<br><b>Enc:</b> WPA2<br><b>AP:</b> -<br>]]></description>
      <Point>
        <coordinates>-77.1132792,38.8410612,0</coordinates>
      </Point>
    </Placemark>
    <Placemark>
      <name>Virginia Community College System</name>
      <description><![CDATA[<b>Name:</b> Northern Virginia Community College - Annandale Campus<br><b>Address:</b> , <br><b>SSID:</b> eduroam<br><b>Enc:</b> WPA2<br><b>AP:</b> -<br>]]></description>
      <Point>
        <coordinates>-77.2366535,38.834126,0</coordinates>
      </Point>
    </Placemark>
    <Placemark>
      <name>Virginia Community College System</name>
      <description><![CDATA[<b>Name:</b> Northern Virginia Community College - Loudoun Campus<br><b>Address:</b> , <br><b>SSID:</b> eduroam<br><b>Enc:</b> WPA2<br><b>AP:</b> -<br>]]></description>
      <Point>
        <coordinates>-77.3929773,39.0281558,0</coordinates>
      </Point>
    </Placemark>
    <Placemark>
      <name>Virginia Community College System</name>
      <description><![CDATA[<b>Name:</b> Northern Virginia Community College - Manassas Campus<br><b>Address:</b> , <br><b>SSID:</b> eduroam<br><b>Enc:</b> WPA2<br><b>AP:</b> -<br>]]></description>
      <Point>
        <coordinates>-77.5176483,38.8094223,0</coordinates>
      </Point>
    </Placemark>
    <Placemark>
      <name>Virginia Community College System</name>
      <description><![CDATA[<b>Name:</b> Northern Virginia Community College - Medical Education Campus<br><b>Address:</b> , <br><b>SSID:</b> eduroam<br><b>Enc:</b> WPA2<br><b>AP:</b> -<br>]]></description>
      <Point>
        <coordinates>-77.1757461,38.7639982,0</coordinates>
      </Point>
    </Placemark>
    <Placemark>
      <name>Virginia Community College System</name>
      <description><![CDATA[<b>Name:</b> Northern Virginia Community College - Woodbridge Campus<br><b>Address:</b> , <br><b>SSID:</b> eduroam<br><b>Enc:</b> WPA2<br><b>AP:</b> -<br>]]></description>
      <Point>
        <coordinates>-77.2934002,38.6184584,0</coordinates>
      </Point>
    </Placemark>
    <Placemark>
      <name>Virginia Community College System</name>
      <description><![CDATA[<b>Name:</b> Patrick &amp; Henry Community College<br><b>Address:</b> , <br><b>SSID:</b> eduroam<br><b>Enc:</b> WPA2<br><b>AP:</b> -<br>]]></description>
      <Point>
        <coordinates>-79.8748169,36.7397709,0</coordinates>
      </Point>
    </Placemark>
    <Placemark>
      <name>Virginia Community College System</name>
      <description><![CDATA[<b>Name:</b> Piedmont Virginia Community College<br><b>Address:</b> , <br><b>SSID:</b> eduroam<br><b>Enc:</b> WPA2<br><b>AP:</b> -<br>]]></description>
      <Point>
        <coordinates>-78.4844292,38.0069995,0</coordinates>
      </Point>
    </Placemark>
    <Placemark>
      <name>Virginia Community College System</name>
      <description><![CDATA[<b>Name:</b> Rappahannock Community College - Glenns Campus<br><b>Address:</b> , <br><b>SSID:</b> eduroam<br><b>Enc:</b> WPA2<br><b>AP:</b> -<br>]]></description>
      <Point>
        <coordinates>-76.6244726,37.5647567,0</coordinates>
      </Point>
    </Placemark>
    <Placemark>
      <name>Virginia Community College System</name>
      <description><![CDATA[<b>Name:</b> Rappahannock Community College - Warsaw Campus<br><b>Address:</b> , <br><b>SSID:</b> eduroam<br><b>Enc:</b> WPA2<br><b>AP:</b> -<br>]]></description>
      <Point>
        <coordinates>-76.762236,37.956921,0</coordinates>
      </Point>
    </Placemark>
    <Placemark>
      <name>Virginia Community College System</name>
      <description><![CDATA[<b>Name:</b> Reynolds Community College - Downtown Campus<br><b>Address:</b> , <br><b>SSID:</b> eduroam<br><b>Enc:</b> WPA2<br><b>AP:</b> -<br>]]></description>
      <Point>
        <coordinates>-77.4312173,37.5458721,0</coordinates>
      </Point>
    </Placemark>
    <Placemark>
      <name>Virginia Community College System</name>
      <description><![CDATA[<b>Name:</b> Reynolds Community College - Goochland Campus<br><b>Address:</b> , <br><b>SSID:</b> eduroam<br><b>Enc:</b> WPA2<br><b>AP:</b> -<br>]]></description>
      <Point>
        <coordinates>-77.8812987,37.6947683,0</coordinates>
      </Point>
    </Placemark>
    <Placemark>
      <name>Virginia Community College System</name>
      <description><![CDATA[<b>Name:</b> Reynolds Community College - Kitchens Campus<br><b>Address:</b> , <br><b>SSID:</b> eduroam<br><b>Enc:</b> WPA2<br><b>AP:</b> -<br>]]></description>
      <Point>
        <coordinates>-77.4098363,37.5408615,0</coordinates>
      </Point>
    </Placemark>
    <Placemark>
      <name>Virginia Community College System</name>
      <description><![CDATA[<b>Name:</b> Reynolds Community College - Parham Campus<br><b>Address:</b> , <br><b>SSID:</b> eduroam<br><b>Enc:</b> WPA2<br><b>AP:</b> -<br>]]></description>
      <Point>
        <coordinates>-77.4738562,37.6369156,0</coordinates>
      </Point>
    </Placemark>
    <Placemark>
      <name>Virginia Community College System</name>
      <description><![CDATA[<b>Name:</b> Southside Virginia Community College - Christanna Campus<br><b>Address:</b> , <br><b>SSID:</b> eduroam<br><b>Enc:</b> WPA2<br><b>AP:</b> -<br>]]></description>
      <Point>
        <coordinates>-77.9173259,36.8387804,0</coordinates>
      </Point>
    </Placemark>
    <Placemark>
      <name>Virginia Community College System</name>
      <description><![CDATA[<b>Name:</b> Southside Virginia Community College - John H Daniel Campus<br><b>Address:</b> , <br><b>SSID:</b> eduroam<br><b>Enc:</b> WPA2<br><b>AP:</b> -<br>]]></description>
      <Point>
        <coordinates>-78.4566335,37.0355274,0</coordinates>
      </Point>
    </Placemark>
    <Placemark>
      <name>Virginia Community College System</name>
      <description><![CDATA[<b>Name:</b> Southwest Virginia Community College<br><b>Address:</b> , <br><b>SSID:</b> eduroam<br><b>Enc:</b> WPA2<br><b>AP:</b> -<br>]]></description>
      <Point>
        <coordinates>-81.7944007,37.0052845,0</coordinates>
      </Point>
    </Placemark>
    <Placemark>
      <name>Virginia Community College System</name>
      <description><![CDATA[<b>Name:</b> Tidewater Community College - Chesapeake Campus<br><b>Address:</b> , <br><b>SSID:</b> eduroam<br><b>Enc:</b> WPA2<br><b>AP:</b> -<br>]]></description>
      <Point>
        <coordinates>-76.295789,36.7272553,0</coordinates>
      </Point>
    </Placemark>
    <Placemark>
      <name>Virginia Community College System</name>
      <description><![CDATA[<b>Name:</b> Tidewater Community College - Norfolk Campus<br><b>Address:</b> , <br><b>SSID:</b> eduroam<br><b>Enc:</b> WPA2<br><b>AP:</b> -<br>]]></description>
      <Point>
        <coordinates>-76.2902522,36.849864,0</coordinates>
      </Point>
    </Placemark>
    <Placemark>
      <name>Virginia Community College System</name>
      <description><![CDATA[<b>Name:</b> Tidewater Community College - Portsmouth Campus<br><b>Address:</b> , <br><b>SSID:</b> eduroam<br><b>Enc:</b> WPA2<br><b>AP:</b> -<br>]]></description>
      <Point>
        <coordinates>-76.348262,36.8049196,0</coordinates>
      </Point>
    </Placemark>
    <Placemark>
      <name>Virginia Community College System</name>
      <description><![CDATA[<b>Name:</b> Tidewater Community College - Virginia Beach Campus<br><b>Address:</b> , <br><b>SSID:</b> eduroam<br><b>Enc:</b> WPA2<br><b>AP:</b> -<br>]]></description>
      <Point>
        <coordinates>-76.102457,36.7848505,0</coordinates>
      </Point>
    </Placemark>
    <Placemark>
      <name>Virginia Community College System</name>
      <description><![CDATA[<b>Name:</b> VCCS System Office<br><b>Address:</b> , <br><b>SSID:</b> eduroam<br><b>Enc:</b> WPA2<br><b>AP:</b> -<br>]]></description>
      <Point>
        <coordinates>-77.565752,37.4930878,0</coordinates>
      </Point>
    </Placemark>
    <Placemark>
      <name>Virginia Community College System</name>
      <description><![CDATA[<b>Name:</b> Virginia Highlands Community College<br><b>Address:</b> , <br><b>SSID:</b> eduroam<br><b>Enc:</b> WPA2<br><b>AP:</b> -<br>]]></description>
      <Point>
        <coordinates>-82.001486,36.6994053,0</coordinates>
      </Point>
    </Placemark>
    <Placemark>
      <name>Virginia Community College System</name>
      <description><![CDATA[<b>Name:</b> Virginia Peninsula Community College - Hampton Campus<br><b>Address:</b> , <br><b>SSID:</b> eduroam<br><b>Enc:</b> WPA2<br><b>AP:</b> -<br>]]></description>
      <Point>
        <coordinates>-76.4186005,37.0634225,0</coordinates>
      </Point>
    </Placemark>
    <Placemark>
      <name>Virginia Community College System</name>
      <description><![CDATA[<b>Name:</b> Virginia Peninsula Community College - Historic Triangle Campus<br><b>Address:</b> , <br><b>SSID:</b> eduroam<br><b>Enc:</b> WPA2<br><b>AP:</b> -<br>]]></description>
      <Point>
        <coordinates>-76.755292,37.336142,0</coordinates>
      </Point>
    </Placemark>
    <Placemark>
      <name>Virginia Community College System</name>
      <description><![CDATA[<b>Name:</b> Virginia Western Community College<br><b>Address:</b> , <br><b>SSID:</b> eduroam<br><b>Enc:</b> WPA2<br><b>AP:</b> -<br>]]></description>
      <Point>
        <coordinates>-79.9730387,37.2449537,0</coordinates>
      </Point>
    </Placemark>
    <Placemark>
      <name>Virginia Community College System</name>
      <description><![CDATA[<b>Name:</b> Wytheville Community College<br><b>Address:</b> , <br><b>SSID:</b> eduroam<br><b>Enc:</b> WPA2<br><b>AP:</b> -<br>]]></description>
      <Point>
        <coordinates>-81.0729252,36.9525203,0</coordinates>
      </Point>
    </Placemark>
    <Placemark>
      <name>Virginia Institute of Marine Science</name>
      <description><![CDATA[<b>Name:</b> Gloucester Point Campus<br><b>Address:</b> , <br><b>SSID:</b> eduroam<br><b>Enc:</b> WPA2+WPA<br><b>AP:</b> -<br>]]></description>
      <Point>
        <coordinates>-76.4995555,37.2488567,0</coordinates>
      </Point>
    </Placemark>
    <Placemark>
      <name>Virginia Military Institute</name>
      <description><![CDATA[<b>Name:</b> Main Campus<br><b>Address:</b> , <br><b>SSID:</b> eduroam<br><b>Enc:</b> WPA2<br><b>AP:</b> 800<br>]]></description>
      <Point>
        <coordinates>-79.436205,37.78985,0</coordinates>
      </Point>
    </Placemark>
    <Placemark>
      <name>Virginia Polytechnic Institute and State University</name>
      <description><![CDATA[<b>Name:</b> Academic Building One<br><b>Address:</b> , <br><b>SSID:</b> eduroam<br><b>Enc:</b> WPA2<br><b>AP:</b> 200<br>]]></description>
      <Point>
        <coordinates>-77.0486469,38.837851,0</coordinates>
      </Point>
    </Placemark>
    <Placemark>
      <name>Virginia Polytechnic Institute and State University</name>
      <description><![CDATA[<b>Name:</b> Virginia Tech Carilion School of Medicine<br><b>Address:</b> , <br><b>SSID:</b> eduroam<br><b>Enc:</b> WPA2<br><b>AP:</b> 200<br>]]></description>
      <Point>
        <coordinates>-79.9424417,37.2573796,0</coordinates>
      </Point>
    </Placemark>
    <Placemark>
      <name>Virginia Polytechnic Institute and State University</name>
      <description><![CDATA[<b>Name:</b> Virginia Tech, Blacksburg<br><b>Address:</b> , <br><b>SSID:</b> eduroam<br><b>Enc:</b> WPA2<br><b>AP:</b> 9000<br>]]></description>
      <Point>
        <coordinates>-80.4237688,37.2290536,0</coordinates>
      </Point>
    </Placemark>
    <Placemark>
      <name>Washington and Lee University</name>
      <description><![CDATA[<b>Name:</b> Main Campus<br><b>Address:</b> , <br><b>SSID:</b> eduroam<br><b>Enc:</b> WPA2<br><b>AP:</b> 1088<br>]]></description>
      <Point>
        <coordinates>-79.4412756,37.7888189,0</coordinates>
      </Point>
    </Placemark>
    <Placemark>
      <name>William &amp; Mary Remote Offices</name>
      <description><![CDATA[<b>Name:</b> Highland Office<br><b>Address:</b> , <br><b>SSID:</b> eduroam<br><b>Enc:</b> WPA2<br><b>AP:</b> 14<br>]]></description>
      <Point>
        <coordinates>-78.4555011,37.9824797,0</coordinates>
      </Point>
    </Placemark>
    <Placemark>
      <name>William &amp; Mary Remote Offices</name>
      <description><![CDATA[<b>Name:</b> Richmond Suite<br><b>Address:</b> , <br><b>SSID:</b> eduroam<br><b>Enc:</b> WPA2<br><b>AP:</b> 1<br>]]></description>
      <Point>
        <coordinates>-77.4360429,37.537549,0</coordinates>
      </Point>
    </Placemark>
  </Document>
</kml>
