<?xml version="1.0" encoding="UTF-8"?>
<kml xmlns="http://www.opengis.net/kml/2.2">
  <Document>
    <name>eduroam — Washington</name>
    <description><![CDATA[137 eduroam service locations in Washington.<br><br>Published by <a href="https://scs.nevada.edu/eduroam">NSHE System Computing Services</a>. Learn more about eduroam Support Organizations from <a href="https://incommon.org/eduroam">Internet2</a>, the eduroam National Roaming Operator for the United States.<br>These maps are derived from data published by GÉANT (<a href="https://monitor.eduroam.org/kml/us.kml">monitor.eduroam.org</a>). This is not an official GÉANT or eduroam publication.<br>eduroam is a registered trademark of the GÉANT Association.<br>Region boundaries are derived from US Census Bureau cartographic boundary files, which as works of the US federal government are in the public domain.<br>Maps generated by eduroam-us-regional-maps, which is BSD 3-Clause licensed.]]></description>
    <open>1</open>
    <Placemark>
      <name>anacortes-k12</name>
      <description><![CDATA[<b>Name:</b> Anacortes High School<br><b>Address:</b> , <br><b>SSID:</b> eduroam<br><b>Enc:</b> WPA2<br><b>AP:</b> 68<br>]]></description>
      <Point>
        <coordinates>-122.6227189,48.5071976,0</coordinates>
      </Point>
    </Placemark>
    <Placemark>
      <name>anacortes-k12</name>
      <description><![CDATA[<b>Name:</b> Anacortes Middle School<br><b>Address:</b> , <br><b>SSID:</b> eduroam<br><b>Enc:</b> WPA2<br><b>AP:</b> 40<br>]]></description>
      <Point>
        <coordinates>-122.6180342,48.5037205,0</coordinates>
      </Point>
    </Placemark>
    <Placemark>
      <name>anacortes-k12</name>
      <description><![CDATA[<b>Name:</b> Anacortes School District<br><b>Address:</b> , <br><b>SSID:</b> eduroam<br><b>Enc:</b> WPA2<br><b>AP:</b> 4<br>]]></description>
      <Point>
        <coordinates>-122.6179165,48.5032394,0</coordinates>
      </Point>
    </Placemark>
    <Placemark>
      <name>anacortes-k12</name>
      <description><![CDATA[<b>Name:</b> Cap Sante High School<br><b>Address:</b> , <br><b>SSID:</b> eduroam<br><b>Enc:</b> WPA2<br><b>AP:</b> 2<br>]]></description>
      <Point>
        <coordinates>-122.6227189,48.5071976,0</coordinates>
      </Point>
    </Placemark>
    <Placemark>
      <name>anacortes-k12</name>
      <description><![CDATA[<b>Name:</b> Fidalgo Elementary<br><b>Address:</b> , <br><b>SSID:</b> eduroam<br><b>Enc:</b> WPA2<br><b>AP:</b> 25<br>]]></description>
      <Point>
        <coordinates>-122.5826266,48.4463048,0</coordinates>
      </Point>
    </Placemark>
    <Placemark>
      <name>anacortes-k12</name>
      <description><![CDATA[<b>Name:</b> Island View Elementary<br><b>Address:</b> , <br><b>SSID:</b> eduroam<br><b>Enc:</b> WPA2<br><b>AP:</b> 20<br>]]></description>
      <Point>
        <coordinates>-122.6215999,48.5018844,0</coordinates>
      </Point>
    </Placemark>
    <Placemark>
      <name>anacortes-k12</name>
      <description><![CDATA[<b>Name:</b> Mount Erie Elementary<br><b>Address:</b> , <br><b>SSID:</b> eduroam<br><b>Enc:</b> WPA2<br><b>AP:</b> 27<br>]]></description>
      <Point>
        <coordinates>-122.6185787,48.4872466,0</coordinates>
      </Point>
    </Placemark>
    <Placemark>
      <name>anacortes-k12</name>
      <description><![CDATA[<b>Name:</b> Whitney Childhood Education Center<br><b>Address:</b> , <br><b>SSID:</b> eduroam<br><b>Enc:</b> WPA2<br><b>AP:</b> 12<br>]]></description>
      <Point>
        <coordinates>-122.6179664,48.5117732,0</coordinates>
      </Point>
    </Placemark>
    <Placemark>
      <name>Antioch University</name>
      <description><![CDATA[<b>Name:</b> Antioch University - Seattle<br><b>Address:</b> , <br><b>SSID:</b> eduroam<br><b>Enc:</b> WPA2<br><b>AP:</b> 22<br>]]></description>
      <Point>
        <coordinates>-122.3463311,47.6159737,0</coordinates>
      </Point>
    </Placemark>
    <Placemark>
      <name>Bellevue College</name>
      <description><![CDATA[<b>Name:</b> Main Campus<br><b>Address:</b> , <br><b>SSID:</b> eduroam<br><b>Enc:</b> WPA2+WPA<br><b>AP:</b> 305<br>]]></description>
      <Point>
        <coordinates>-122.1483075,47.5857797,0</coordinates>
      </Point>
    </Placemark>
    <Placemark>
      <name>Bellevue College</name>
      <description><![CDATA[<b>Name:</b> North Campus<br><b>Address:</b> , <br><b>SSID:</b> eduroam<br><b>Enc:</b> WPA2+WPA<br><b>AP:</b> 13<br>]]></description>
      <Point>
        <coordinates>-122.145248,47.634703,0</coordinates>
      </Point>
    </Placemark>
    <Placemark>
      <name>Cascadia College</name>
      <description><![CDATA[<b>Name:</b> Cascadia College<br><b>Address:</b> , <br><b>SSID:</b> eduroam<br><b>Enc:</b> WPA2<br><b>AP:</b> -<br>]]></description>
      <Point>
        <coordinates>-122.1918516,47.7598497,0</coordinates>
      </Point>
    </Placemark>
    <Placemark>
      <name>chiefleschi-k12</name>
      <description><![CDATA[<b>Name:</b> Chief Leschi Schools<br><b>Address:</b> , <br><b>SSID:</b> eduroam<br><b>Enc:</b> WPA2<br><b>AP:</b> -<br>]]></description>
      <Point>
        <coordinates>-122.3579741,47.2120715,0</coordinates>
      </Point>
    </Placemark>
    <Placemark>
      <name>concrete-k12</name>
      <description><![CDATA[<b>Name:</b> Concrete School District<br><b>Address:</b> , <br><b>SSID:</b> eduroam<br><b>Enc:</b> WPA2<br><b>AP:</b> 50<br>]]></description>
      <Point>
        <coordinates>-121.7580308,48.5317332,0</coordinates>
      </Point>
    </Placemark>
    <Placemark>
      <name>Department of Veterans Affairs</name>
      <description><![CDATA[<b>Name:</b> American Lake VA Medical Center<br><b>Address:</b> , <br><b>SSID:</b> eduroam<br><b>Enc:</b> WPA2<br><b>AP:</b> -<br>]]></description>
      <Point>
        <coordinates>-122.562696,47.142139,0</coordinates>
      </Point>
    </Placemark>
    <Placemark>
      <name>Department of Veterans Affairs</name>
      <description><![CDATA[<b>Name:</b> Everett VA Clinic<br><b>Address:</b> , <br><b>SSID:</b> eduroam<br><b>Enc:</b> WPA2<br><b>AP:</b> -<br>]]></description>
      <Point>
        <coordinates>-122.232463,47.957779,0</coordinates>
      </Point>
    </Placemark>
    <Placemark>
      <name>Department of Veterans Affairs</name>
      <description><![CDATA[<b>Name:</b> Magnolia Admin<br><b>Address:</b> , <br><b>SSID:</b> eduroam<br><b>Enc:</b> WPA2<br><b>AP:</b> -<br>]]></description>
      <Point>
        <coordinates>-122.407525,47.663026,0</coordinates>
      </Point>
    </Placemark>
    <Placemark>
      <name>Department of Veterans Affairs</name>
      <description><![CDATA[<b>Name:</b> Mt Vernon CBOC<br><b>Address:</b> , <br><b>SSID:</b> eduroam<br><b>Enc:</b> WPA2<br><b>AP:</b> -<br>]]></description>
      <Point>
        <coordinates>-122.325611,48.418809,0</coordinates>
      </Point>
    </Placemark>
    <Placemark>
      <name>Department of Veterans Affairs</name>
      <description><![CDATA[<b>Name:</b> Port Angeles CBOC<br><b>Address:</b> , <br><b>SSID:</b> eduroam<br><b>Enc:</b> WPA2<br><b>AP:</b> -<br>]]></description>
      <Point>
        <coordinates>-123.413448,48.112799,0</coordinates>
      </Point>
    </Placemark>
    <Placemark>
      <name>Department of Veterans Affairs</name>
      <description><![CDATA[<b>Name:</b> Renton CBOC<br><b>Address:</b> , <br><b>SSID:</b> eduroam<br><b>Enc:</b> WPA2<br><b>AP:</b> -<br>]]></description>
      <Point>
        <coordinates>-122.210963,47.481009,0</coordinates>
      </Point>
    </Placemark>
    <Placemark>
      <name>Department of Veterans Affairs</name>
      <description><![CDATA[<b>Name:</b> Seattle VA Medical Center<br><b>Address:</b> , <br><b>SSID:</b> eduroam<br><b>Enc:</b> WPA2<br><b>AP:</b> -<br>]]></description>
      <Point>
        <coordinates>-122.318504,47.572621,0</coordinates>
      </Point>
    </Placemark>
    <Placemark>
      <name>Department of Veterans Affairs</name>
      <description><![CDATA[<b>Name:</b> Silverdale CBOC<br><b>Address:</b> , <br><b>SSID:</b> eduroam<br><b>Enc:</b> WPA2<br><b>AP:</b> -<br>]]></description>
      <Point>
        <coordinates>-122.685356,47.654715,0</coordinates>
      </Point>
    </Placemark>
    <Placemark>
      <name>Department of Veterans Affairs</name>
      <description><![CDATA[<b>Name:</b> Vancouver HCC<br><b>Address:</b> , <br><b>SSID:</b> eduroam<br><b>Enc:</b> WPA2<br><b>AP:</b> -<br>]]></description>
      <Point>
        <coordinates>-122.655416,45.639623,0</coordinates>
      </Point>
    </Placemark>
    <Placemark>
      <name>Eastern Washington University</name>
      <description><![CDATA[<b>Name:</b> Eastern Washington University Spokane<br><b>Address:</b> , <br><b>SSID:</b> eduroam<br><b>Enc:</b> WPA2<br><b>AP:</b> 40<br>]]></description>
      <Point>
        <coordinates>-117.402132,47.6580476,0</coordinates>
      </Point>
    </Placemark>
    <Placemark>
      <name>Eastern Washington University</name>
      <description><![CDATA[<b>Name:</b> Main Campus<br><b>Address:</b> , <br><b>SSID:</b> eduroam<br><b>Enc:</b> WPA2+WPA<br><b>AP:</b> -<br>]]></description>
      <Point>
        <coordinates>-117.5862596,47.4904707,0</coordinates>
      </Point>
    </Placemark>
    <Placemark>
      <name>esd101-k12</name>
      <description><![CDATA[<b>Name:</b> ESD101 Regal<br><b>Address:</b> , <br><b>SSID:</b> eduroam<br><b>Enc:</b> WPA3+WPA2+WPA<br><b>AP:</b> 16<br>]]></description>
      <Point>
        <coordinates>-117.3693327,47.6154839,0</coordinates>
      </Point>
    </Placemark>
    <Placemark>
      <name>esd112-k12</name>
      <description><![CDATA[<b>Name:</b> Educational Service District 112<br><b>Address:</b> , <br><b>SSID:</b> eduroam<br><b>Enc:</b> WPA2<br><b>AP:</b> 50<br>]]></description>
      <Point>
        <coordinates>-122.6064335,45.6384059,0</coordinates>
      </Point>
    </Placemark>
    <Placemark>
      <name>esd113-k12</name>
      <description><![CDATA[<b>Name:</b> Aberdeen High School<br><b>Address:</b> , <br><b>SSID:</b> eduroam<br><b>Enc:</b> WPA2<br><b>AP:</b> 83<br>]]></description>
      <Point>
        <coordinates>-123.8174781,46.9796745,0</coordinates>
      </Point>
    </Placemark>
    <Placemark>
      <name>esd113-k12</name>
      <description><![CDATA[<b>Name:</b> Aberdeen School District<br><b>Address:</b> , <br><b>SSID:</b> eduroam<br><b>Enc:</b> WPA2<br><b>AP:</b> 5<br>]]></description>
      <Point>
        <coordinates>-123.816582,46.978406,0</coordinates>
      </Point>
    </Placemark>
    <Placemark>
      <name>esd113-k12</name>
      <description><![CDATA[<b>Name:</b> AJ West Elementary<br><b>Address:</b> , <br><b>SSID:</b> eduroam<br><b>Enc:</b> WPA2<br><b>AP:</b> 32<br>]]></description>
      <Point>
        <coordinates>-123.8380049,46.972129,0</coordinates>
      </Point>
    </Placemark>
    <Placemark>
      <name>esd113-k12</name>
      <description><![CDATA[<b>Name:</b> Beacon Avenue Elementary<br><b>Address:</b> , <br><b>SSID:</b> eduroam<br><b>Enc:</b> WPA2<br><b>AP:</b> 20<br>]]></description>
      <Point>
        <coordinates>-123.5815059,46.9842064,0</coordinates>
      </Point>
    </Placemark>
    <Placemark>
      <name>esd113-k12</name>
      <description><![CDATA[<b>Name:</b> Central Park Elementary<br><b>Address:</b> , <br><b>SSID:</b> eduroam<br><b>Enc:</b> WPA2<br><b>AP:</b> 19<br>]]></description>
      <Point>
        <coordinates>-123.6984036,46.9674299,0</coordinates>
      </Point>
    </Placemark>
    <Placemark>
      <name>esd113-k12</name>
      <description><![CDATA[<b>Name:</b> Chehalis Middle School<br><b>Address:</b> , <br><b>SSID:</b> eduroam<br><b>Enc:</b> WPA2<br><b>AP:</b> -<br>]]></description>
      <Point>
        <coordinates>-122.9430522,46.6431913,0</coordinates>
      </Point>
    </Placemark>
    <Placemark>
      <name>esd113-k12</name>
      <description><![CDATA[<b>Name:</b> Chehalis School District<br><b>Address:</b> , <br><b>SSID:</b> eduroam<br><b>Enc:</b> WPA2<br><b>AP:</b> -<br>]]></description>
      <Point>
        <coordinates>-122.9495271,46.6505179,0</coordinates>
      </Point>
    </Placemark>
    <Placemark>
      <name>esd113-k12</name>
      <description><![CDATA[<b>Name:</b> Columbia Crest A-STEM Academy<br><b>Address:</b> , <br><b>SSID:</b> eduroam<br><b>Enc:</b> WPA2 + WPA3<br><b>AP:</b> -<br>]]></description>
      <Point>
        <coordinates>-122.1095244,46.7541647,0</coordinates>
      </Point>
    </Placemark>
    <Placemark>
      <name>esd113-k12</name>
      <description><![CDATA[<b>Name:</b> Eatonville Elementary School<br><b>Address:</b> , <br><b>SSID:</b> eduroam<br><b>Enc:</b> WPA2 + WPA3<br><b>AP:</b> -<br>]]></description>
      <Point>
        <coordinates>-122.2638178,46.8699711,0</coordinates>
      </Point>
    </Placemark>
    <Placemark>
      <name>esd113-k12</name>
      <description><![CDATA[<b>Name:</b> Eatonville High School<br><b>Address:</b> , <br><b>SSID:</b> eduroam<br><b>Enc:</b> WPA2 + WPA3<br><b>AP:</b> -<br>]]></description>
      <Point>
        <coordinates>-122.2683043,46.8716436,0</coordinates>
      </Point>
    </Placemark>
    <Placemark>
      <name>esd113-k12</name>
      <description><![CDATA[<b>Name:</b> Eatonville Middle School<br><b>Address:</b> , <br><b>SSID:</b> eduroam<br><b>Enc:</b> WPA2 + WPA3<br><b>AP:</b> -<br>]]></description>
      <Point>
        <coordinates>-122.2623682,46.8687914,0</coordinates>
      </Point>
    </Placemark>
    <Placemark>
      <name>esd113-k12</name>
      <description><![CDATA[<b>Name:</b> Educational Service District 113<br><b>Address:</b> , <br><b>SSID:</b> eduroam<br><b>Enc:</b> WPA2<br><b>AP:</b> 27<br>]]></description>
      <Point>
        <coordinates>-122.9169826,46.994637,0</coordinates>
      </Point>
    </Placemark>
    <Placemark>
      <name>esd113-k12</name>
      <description><![CDATA[<b>Name:</b> Elma Elementary School<br><b>Address:</b> , <br><b>SSID:</b> eduroam<br><b>Enc:</b> WPA2<br><b>AP:</b> 23<br>]]></description>
      <Point>
        <coordinates>-123.4343307,47.0048282,0</coordinates>
      </Point>
    </Placemark>
    <Placemark>
      <name>esd113-k12</name>
      <description><![CDATA[<b>Name:</b> Elma High School<br><b>Address:</b> , <br><b>SSID:</b> eduroam<br><b>Enc:</b> WPA2<br><b>AP:</b> 42<br>]]></description>
      <Point>
        <coordinates>-123.4133985,47.0031063,0</coordinates>
      </Point>
    </Placemark>
    <Placemark>
      <name>esd113-k12</name>
      <description><![CDATA[<b>Name:</b> Elma Middle School<br><b>Address:</b> , <br><b>SSID:</b> eduroam<br><b>Enc:</b> WPA2<br><b>AP:</b> 25<br>]]></description>
      <Point>
        <coordinates>-123.4097188,47.0032579,0</coordinates>
      </Point>
    </Placemark>
    <Placemark>
      <name>esd113-k12</name>
      <description><![CDATA[<b>Name:</b> Evaline School District<br><b>Address:</b> , <br><b>SSID:</b> eduroam<br><b>Enc:</b> WPA2<br><b>AP:</b> 8<br>]]></description>
      <Point>
        <coordinates>-122.939196,46.5393541,0</coordinates>
      </Point>
    </Placemark>
    <Placemark>
      <name>esd113-k12</name>
      <description><![CDATA[<b>Name:</b> George Bush Middle School<br><b>Address:</b> , <br><b>SSID:</b> eduroam<br><b>Enc:</b> WPA2<br><b>AP:</b> -<br>]]></description>
      <Point>
        <coordinates>-122.9259881,46.968122,0</coordinates>
      </Point>
    </Placemark>
    <Placemark>
      <name>esd113-k12</name>
      <description><![CDATA[<b>Name:</b> Grand Mound Elementary School<br><b>Address:</b> , <br><b>SSID:</b> eduroam<br><b>Enc:</b> WPA2<br><b>AP:</b> 30<br>]]></description>
      <Point>
        <coordinates>-123.0461075,46.7954022,0</coordinates>
      </Point>
    </Placemark>
    <Placemark>
      <name>esd113-k12</name>
      <description><![CDATA[<b>Name:</b> Harbor Learning Center<br><b>Address:</b> , <br><b>SSID:</b> eduroam<br><b>Enc:</b> WPA2<br><b>AP:</b> 24<br>]]></description>
      <Point>
        <coordinates>-123.8315816,46.9725458,0</coordinates>
      </Point>
    </Placemark>
    <Placemark>
      <name>esd113-k12</name>
      <description><![CDATA[<b>Name:</b> Hoquiam Central Elementary<br><b>Address:</b> , <br><b>SSID:</b> eduroam<br><b>Enc:</b> WPA2<br><b>AP:</b> 15<br>]]></description>
      <Point>
        <coordinates>-123.8893026,46.9801828,0</coordinates>
      </Point>
    </Placemark>
    <Placemark>
      <name>esd113-k12</name>
      <description><![CDATA[<b>Name:</b> Hoquiam Emerson Elementary<br><b>Address:</b> , <br><b>SSID:</b> eduroam<br><b>Enc:</b> WPA2<br><b>AP:</b> 15<br>]]></description>
      <Point>
        <coordinates>-123.9037058,46.9815998,0</coordinates>
      </Point>
    </Placemark>
    <Placemark>
      <name>esd113-k12</name>
      <description><![CDATA[<b>Name:</b> Hoquiam High School<br><b>Address:</b> , <br><b>SSID:</b> eduroam<br><b>Enc:</b> WPA2<br><b>AP:</b> 45<br>]]></description>
      <Point>
        <coordinates>-123.9097143,46.9827301,0</coordinates>
      </Point>
    </Placemark>
    <Placemark>
      <name>esd113-k12</name>
      <description><![CDATA[<b>Name:</b> Hoquiam Lincoln Elementary<br><b>Address:</b> , <br><b>SSID:</b> eduroam<br><b>Enc:</b> WPA2<br><b>AP:</b> 18<br>]]></description>
      <Point>
        <coordinates>-123.8878176,46.9912382,0</coordinates>
      </Point>
    </Placemark>
    <Placemark>
      <name>esd113-k12</name>
      <description><![CDATA[<b>Name:</b> Hoquiam Middle School<br><b>Address:</b> , <br><b>SSID:</b> eduroam<br><b>Enc:</b> WPA2<br><b>AP:</b> 35<br>]]></description>
      <Point>
        <coordinates>-123.9051974,46.9829942,0</coordinates>
      </Point>
    </Placemark>
    <Placemark>
      <name>esd113-k12</name>
      <description><![CDATA[<b>Name:</b> James W. Lintott Elementary<br><b>Address:</b> , <br><b>SSID:</b> eduroam<br><b>Enc:</b> WPA2<br><b>AP:</b> -<br>]]></description>
      <Point>
        <coordinates>-122.9460989,46.6409231,0</coordinates>
      </Point>
    </Placemark>
    <Placemark>
      <name>esd113-k12</name>
      <description><![CDATA[<b>Name:</b> K20 Network Program Office<br><b>Address:</b> , <br><b>SSID:</b> eduroam<br><b>Enc:</b> WPA2<br><b>AP:</b> 2<br>]]></description>
      <Point>
        <coordinates>-122.8967408,47.0384067,0</coordinates>
      </Point>
    </Placemark>
    <Placemark>
      <name>esd113-k12</name>
      <description><![CDATA[<b>Name:</b> Lake Quinault School District<br><b>Address:</b> , <br><b>SSID:</b> eduroam<br><b>Enc:</b> WPA2<br><b>AP:</b> 25<br>]]></description>
      <Point>
        <coordinates>-123.8968793,47.4602427,0</coordinates>
      </Point>
    </Placemark>
    <Placemark>
      <name>esd113-k12</name>
      <description><![CDATA[<b>Name:</b> McCleary School District<br><b>Address:</b> , <br><b>SSID:</b> eduroam<br><b>Enc:</b> WPA2<br><b>AP:</b> 30<br>]]></description>
      <Point>
        <coordinates>-123.2665277,47.0489447,0</coordinates>
      </Point>
    </Placemark>
    <Placemark>
      <name>esd113-k12</name>
      <description><![CDATA[<b>Name:</b> McDermoth Elementary<br><b>Address:</b> , <br><b>SSID:</b> eduroam<br><b>Enc:</b> WPA2<br><b>AP:</b> 31<br>]]></description>
      <Point>
        <coordinates>-123.823546,46.9770728,0</coordinates>
      </Point>
    </Placemark>
    <Placemark>
      <name>esd113-k12</name>
      <description><![CDATA[<b>Name:</b> Miller Jr High School<br><b>Address:</b> , <br><b>SSID:</b> eduroam<br><b>Enc:</b> WPA2<br><b>AP:</b> 59<br>]]></description>
      <Point>
        <coordinates>-123.7921303,46.9636064,0</coordinates>
      </Point>
    </Placemark>
    <Placemark>
      <name>esd113-k12</name>
      <description><![CDATA[<b>Name:</b> Montesano High School<br><b>Address:</b> , <br><b>SSID:</b> eduroam<br><b>Enc:</b> WPA2<br><b>AP:</b> 35<br>]]></description>
      <Point>
        <coordinates>-123.5976223,46.9841638,0</coordinates>
      </Point>
    </Placemark>
    <Placemark>
      <name>esd113-k12</name>
      <description><![CDATA[<b>Name:</b> North Beach High School<br><b>Address:</b> , <br><b>SSID:</b> eduroam<br><b>Enc:</b> WPA2<br><b>AP:</b> 35<br>]]></description>
      <Point>
        <coordinates>-124.1582221,47.0191476,0</coordinates>
      </Point>
    </Placemark>
    <Placemark>
      <name>esd113-k12</name>
      <description><![CDATA[<b>Name:</b> Oakville School District<br><b>Address:</b> , <br><b>SSID:</b> eduroam<br><b>Enc:</b> WPA2<br><b>AP:</b> 45<br>]]></description>
      <Point>
        <coordinates>-123.2410938,46.8402404,0</coordinates>
      </Point>
    </Placemark>
    <Placemark>
      <name>esd113-k12</name>
      <description><![CDATA[<b>Name:</b> Ocean Shores Elementary School<br><b>Address:</b> , <br><b>SSID:</b> eduroam<br><b>Enc:</b> WPA2<br><b>AP:</b> 25<br>]]></description>
      <Point>
        <coordinates>-124.1549342,46.9783216,0</coordinates>
      </Point>
    </Placemark>
    <Placemark>
      <name>esd113-k12</name>
      <description><![CDATA[<b>Name:</b> Ocosta School District<br><b>Address:</b> , <br><b>SSID:</b> eduroam<br><b>Enc:</b> WPA2<br><b>AP:</b> 60<br>]]></description>
      <Point>
        <coordinates>-124.1000825,46.8637,0</coordinates>
      </Point>
    </Placemark>
    <Placemark>
      <name>esd113-k12</name>
      <description><![CDATA[<b>Name:</b> Orin C. Smith Elementary<br><b>Address:</b> , <br><b>SSID:</b> eduroam<br><b>Enc:</b> WPA2<br><b>AP:</b> -<br>]]></description>
      <Point>
        <coordinates>-122.9428764,46.6425112,0</coordinates>
      </Point>
    </Placemark>
    <Placemark>
      <name>esd113-k12</name>
      <description><![CDATA[<b>Name:</b> Pacific Beach Elementary<br><b>Address:</b> , <br><b>SSID:</b> eduroam<br><b>Enc:</b> WPA2<br><b>AP:</b> 12<br>]]></description>
      <Point>
        <coordinates>-124.1997274,47.2084304,0</coordinates>
      </Point>
    </Placemark>
    <Placemark>
      <name>esd113-k12</name>
      <description><![CDATA[<b>Name:</b> Pioneer Elementary School<br><b>Address:</b> , <br><b>SSID:</b> eduroam<br><b>Enc:</b> WPA2<br><b>AP:</b> -<br>]]></description>
      <Point>
        <coordinates>-123.0006938,47.2580458,0</coordinates>
      </Point>
    </Placemark>
    <Placemark>
      <name>esd113-k12</name>
      <description><![CDATA[<b>Name:</b> Pioneer Middle School<br><b>Address:</b> , <br><b>SSID:</b> eduroam<br><b>Enc:</b> WPA2<br><b>AP:</b> -<br>]]></description>
      <Point>
        <coordinates>-123.0033453,47.2578608,0</coordinates>
      </Point>
    </Placemark>
    <Placemark>
      <name>esd113-k12</name>
      <description><![CDATA[<b>Name:</b> Raymond Elementary School<br><b>Address:</b> , <br><b>SSID:</b> eduroam<br><b>Enc:</b> WPA2 + WPA3<br><b>AP:</b> -<br>]]></description>
      <Point>
        <coordinates>-123.7255578,46.6859918,0</coordinates>
      </Point>
    </Placemark>
    <Placemark>
      <name>esd113-k12</name>
      <description><![CDATA[<b>Name:</b> Raymond High School<br><b>Address:</b> , <br><b>SSID:</b> eduroam<br><b>Enc:</b> WPA2 + WPA3<br><b>AP:</b> -<br>]]></description>
      <Point>
        <coordinates>-123.7249493,46.6851337,0</coordinates>
      </Point>
    </Placemark>
    <Placemark>
      <name>esd113-k12</name>
      <description><![CDATA[<b>Name:</b> Robert Gray Elementary<br><b>Address:</b> , <br><b>SSID:</b> eduroam<br><b>Enc:</b> WPA2<br><b>AP:</b> 26<br>]]></description>
      <Point>
        <coordinates>-123.8120638,46.9852729,0</coordinates>
      </Point>
    </Placemark>
    <Placemark>
      <name>esd113-k12</name>
      <description><![CDATA[<b>Name:</b> Rochester High School<br><b>Address:</b> , <br><b>SSID:</b> eduroam<br><b>Enc:</b> WPA2<br><b>AP:</b> 35<br>]]></description>
      <Point>
        <coordinates>-123.0430398,46.7986323,0</coordinates>
      </Point>
    </Placemark>
    <Placemark>
      <name>esd113-k12</name>
      <description><![CDATA[<b>Name:</b> Rochester Middle School<br><b>Address:</b> , <br><b>SSID:</b> eduroam<br><b>Enc:</b> WPA2<br><b>AP:</b> 25<br>]]></description>
      <Point>
        <coordinates>-123.0913582,46.8206299,0</coordinates>
      </Point>
    </Placemark>
    <Placemark>
      <name>esd113-k12</name>
      <description><![CDATA[<b>Name:</b> Rochester Primary School<br><b>Address:</b> , <br><b>SSID:</b> eduroam<br><b>Enc:</b> WPA2<br><b>AP:</b> 40<br>]]></description>
      <Point>
        <coordinates>-123.0461075,46.7954022,0</coordinates>
      </Point>
    </Placemark>
    <Placemark>
      <name>esd113-k12</name>
      <description><![CDATA[<b>Name:</b> Rochester School District<br><b>Address:</b> , <br><b>SSID:</b> eduroam<br><b>Enc:</b> WPA2<br><b>AP:</b> 8<br>]]></description>
      <Point>
        <coordinates>-123.0960449,46.8226414,0</coordinates>
      </Point>
    </Placemark>
    <Placemark>
      <name>esd113-k12</name>
      <description><![CDATA[<b>Name:</b> Satsop School District<br><b>Address:</b> , <br><b>SSID:</b> eduroam<br><b>Enc:</b> WPA2<br><b>AP:</b> 4<br>]]></description>
      <Point>
        <coordinates>-123.4809576,47.0032774,0</coordinates>
      </Point>
    </Placemark>
    <Placemark>
      <name>esd113-k12</name>
      <description><![CDATA[<b>Name:</b> Simpson Avenue Elementary<br><b>Address:</b> , <br><b>SSID:</b> eduroam<br><b>Enc:</b> WPA2<br><b>AP:</b> 20<br>]]></description>
      <Point>
        <coordinates>-123.6069529,46.9853339,0</coordinates>
      </Point>
    </Placemark>
    <Placemark>
      <name>esd113-k12</name>
      <description><![CDATA[<b>Name:</b> South Bend School District<br><b>Address:</b> , <br><b>SSID:</b> eduroam<br><b>Enc:</b> WPA2<br><b>AP:</b> 50<br>]]></description>
      <Point>
        <coordinates>-123.7919265,46.6619063,0</coordinates>
      </Point>
    </Placemark>
    <Placemark>
      <name>esd113-k12</name>
      <description><![CDATA[<b>Name:</b> Stevens Elementary School<br><b>Address:</b> , <br><b>SSID:</b> eduroam<br><b>Enc:</b> WPA2<br><b>AP:</b> 36<br>]]></description>
      <Point>
        <coordinates>-123.7901475,46.9669237,0</coordinates>
      </Point>
    </Placemark>
    <Placemark>
      <name>esd113-k12</name>
      <description><![CDATA[<b>Name:</b> Taholah School District<br><b>Address:</b> , <br><b>SSID:</b> eduroam<br><b>Enc:</b> WPA2<br><b>AP:</b> 25<br>]]></description>
      <Point>
        <coordinates>-124.2871438,47.3438367,0</coordinates>
      </Point>
    </Placemark>
    <Placemark>
      <name>esd113-k12</name>
      <description><![CDATA[<b>Name:</b> Tenino High School<br><b>Address:</b> , <br><b>SSID:</b> eduroam<br><b>Enc:</b> WPA2<br><b>AP:</b> 39<br>]]></description>
      <Point>
        <coordinates>-122.8570462,46.8587547,0</coordinates>
      </Point>
    </Placemark>
    <Placemark>
      <name>esd113-k12</name>
      <description><![CDATA[<b>Name:</b> Tenino Middle School<br><b>Address:</b> , <br><b>SSID:</b> eduroam<br><b>Enc:</b> WPA2<br><b>AP:</b> 29<br>]]></description>
      <Point>
        <coordinates>-122.8488498,46.8617668,0</coordinates>
      </Point>
    </Placemark>
    <Placemark>
      <name>esd113-k12</name>
      <description><![CDATA[<b>Name:</b> Tumwater School District<br><b>Address:</b> , <br><b>SSID:</b> eduroam<br><b>Enc:</b> WPA2<br><b>AP:</b> -<br>]]></description>
      <Point>
        <coordinates>-122.9122718,47.0067248,0</coordinates>
      </Point>
    </Placemark>
    <Placemark>
      <name>esd113-k12</name>
      <description><![CDATA[<b>Name:</b> Weyerhaeuser Elementary School<br><b>Address:</b> , <br><b>SSID:</b> eduroam<br><b>Enc:</b> WPA2 + WPA3<br><b>AP:</b> -<br>]]></description>
      <Point>
        <coordinates>-122.3494281,46.923693,0</coordinates>
      </Point>
    </Placemark>
    <Placemark>
      <name>esd113-k12</name>
      <description><![CDATA[<b>Name:</b> WFW High School<br><b>Address:</b> , <br><b>SSID:</b> eduroam<br><b>Enc:</b> WPA2<br><b>AP:</b> -<br>]]></description>
      <Point>
        <coordinates>-122.9488626,46.6489641,0</coordinates>
      </Point>
    </Placemark>
    <Placemark>
      <name>esd113-k12</name>
      <description><![CDATA[<b>Name:</b> White Pass Elementary<br><b>Address:</b> , <br><b>SSID:</b> eduroam<br><b>Enc:</b> WPA2 + WPA3<br><b>AP:</b> -<br>]]></description>
      <Point>
        <coordinates>-121.9276041,46.5354685,0</coordinates>
      </Point>
    </Placemark>
    <Placemark>
      <name>esd113-k12</name>
      <description><![CDATA[<b>Name:</b> White Pass Jr. Sr. High School<br><b>Address:</b> , <br><b>SSID:</b> eduroam<br><b>Enc:</b> WPA2 + WPA3<br><b>AP:</b> -<br>]]></description>
      <Point>
        <coordinates>-121.9293812,46.5362506,0</coordinates>
      </Point>
    </Placemark>
    <Placemark>
      <name>esd113-k12</name>
      <description><![CDATA[<b>Name:</b> Willapa Valley Elementary School<br><b>Address:</b> , <br><b>SSID:</b> eduroam<br><b>Enc:</b> WPA2<br><b>AP:</b> 15<br>]]></description>
      <Point>
        <coordinates>-123.6649024,46.6758921,0</coordinates>
      </Point>
    </Placemark>
    <Placemark>
      <name>esd113-k12</name>
      <description><![CDATA[<b>Name:</b> Willapa Valley High School<br><b>Address:</b> , <br><b>SSID:</b> eduroam<br><b>Enc:</b> WPA2<br><b>AP:</b> 25<br>]]></description>
      <Point>
        <coordinates>-123.6518599,46.6245893,0</coordinates>
      </Point>
    </Placemark>
    <Placemark>
      <name>esd113-k12</name>
      <description><![CDATA[<b>Name:</b> Wishkah Valley School District<br><b>Address:</b> , <br><b>SSID:</b> eduroam<br><b>Enc:</b> WPA2<br><b>AP:</b> 25<br>]]></description>
      <Point>
        <coordinates>-123.7709445,47.1173824,0</coordinates>
      </Point>
    </Placemark>
    <Placemark>
      <name>Gonzaga University</name>
      <description><![CDATA[<b>Name:</b> BARC<br><b>Address:</b> , <br><b>SSID:</b> eduroam<br><b>Enc:</b> WPA2<br><b>AP:</b> 10<br>]]></description>
      <Point>
        <coordinates>-117.3972577,47.6678632,0</coordinates>
      </Point>
    </Placemark>
    <Placemark>
      <name>Gonzaga University</name>
      <description><![CDATA[<b>Name:</b> Bishop White Seminary<br><b>Address:</b> , <br><b>SSID:</b> eduroam<br><b>Enc:</b> WPA2<br><b>AP:</b> 14<br>]]></description>
      <Point>
        <coordinates>-117.4037232,47.6698505,0</coordinates>
      </Point>
    </Placemark>
    <Placemark>
      <name>Gonzaga University</name>
      <description><![CDATA[<b>Name:</b> Bozarth Mansion and Retreat Center<br><b>Address:</b> , <br><b>SSID:</b> eduroam<br><b>Enc:</b> WPA2<br><b>AP:</b> 3<br>]]></description>
      <Point>
        <coordinates>-117.4245315,47.7707267,0</coordinates>
      </Point>
    </Placemark>
    <Placemark>
      <name>Gonzaga University</name>
      <description><![CDATA[<b>Name:</b> Business Services Center<br><b>Address:</b> , <br><b>SSID:</b> eduroam<br><b>Enc:</b> WPA2<br><b>AP:</b> 6<br>]]></description>
      <Point>
        <coordinates>-117.4091743,47.6681953,0</coordinates>
      </Point>
    </Placemark>
    <Placemark>
      <name>Gonzaga University</name>
      <description><![CDATA[<b>Name:</b> Campion<br><b>Address:</b> , <br><b>SSID:</b> eduroam<br><b>Enc:</b> WPA2<br><b>AP:</b> 5<br>]]></description>
      <Point>
        <coordinates>-117.4011223,47.6687164,0</coordinates>
      </Point>
    </Placemark>
    <Placemark>
      <name>Gonzaga University</name>
      <description><![CDATA[<b>Name:</b> Cataldo Hall<br><b>Address:</b> , <br><b>SSID:</b> eduroam<br><b>Enc:</b> WPA2<br><b>AP:</b> 8<br>]]></description>
      <Point>
        <coordinates>-117.4034086,47.6688186,0</coordinates>
      </Point>
    </Placemark>
    <Placemark>
      <name>Gonzaga University</name>
      <description><![CDATA[<b>Name:</b> College Hall<br><b>Address:</b> , <br><b>SSID:</b> eduroam<br><b>Enc:</b> WPA2<br><b>AP:</b> 96<br>]]></description>
      <Point>
        <coordinates>-117.4028443,47.6681697,0</coordinates>
      </Point>
    </Placemark>
    <Placemark>
      <name>Gonzaga University</name>
      <description><![CDATA[<b>Name:</b> Exercise Science<br><b>Address:</b> , <br><b>SSID:</b> eduroam<br><b>Enc:</b> WPA2<br><b>AP:</b> 3<br>]]></description>
      <Point>
        <coordinates>-117.4076175,47.6678249,0</coordinates>
      </Point>
    </Placemark>
    <Placemark>
      <name>Gonzaga University</name>
      <description><![CDATA[<b>Name:</b> Foley Center Library<br><b>Address:</b> , <br><b>SSID:</b> eduroam<br><b>Enc:</b> WPA2<br><b>AP:</b> 50<br>]]></description>
      <Point>
        <coordinates>-117.4005729,47.6664276,0</coordinates>
      </Point>
    </Placemark>
    <Placemark>
      <name>Gonzaga University</name>
      <description><![CDATA[<b>Name:</b> Hemmingson Center<br><b>Address:</b> , <br><b>SSID:</b> eduroam<br><b>Enc:</b> WPA2<br><b>AP:</b> 118<br>]]></description>
      <Point>
        <coordinates>-117.3994379,47.6672246,0</coordinates>
      </Point>
    </Placemark>
    <Placemark>
      <name>Gonzaga University</name>
      <description><![CDATA[<b>Name:</b> Herak Center<br><b>Address:</b> , <br><b>SSID:</b> eduroam<br><b>Enc:</b> WPA2<br><b>AP:</b> 36<br>]]></description>
      <Point>
        <coordinates>-117.4022703,47.6667137,0</coordinates>
      </Point>
    </Placemark>
    <Placemark>
      <name>Gonzaga University</name>
      <description><![CDATA[<b>Name:</b> Jesuit House<br><b>Address:</b> , <br><b>SSID:</b> eduroam<br><b>Enc:</b> WPA2<br><b>AP:</b> 23<br>]]></description>
      <Point>
        <coordinates>-117.4039268,47.6672016,0</coordinates>
      </Point>
    </Placemark>
    <Placemark>
      <name>Gonzaga University</name>
      <description><![CDATA[<b>Name:</b> Journalism/Broadcast Studies<br><b>Address:</b> , <br><b>SSID:</b> eduroam<br><b>Enc:</b> WPA2<br><b>AP:</b> 6<br>]]></description>
      <Point>
        <coordinates>-117.407562,47.6687087,0</coordinates>
      </Point>
    </Placemark>
    <Placemark>
      <name>Gonzaga University</name>
      <description><![CDATA[<b>Name:</b> Luger Soccer Field<br><b>Address:</b> , <br><b>SSID:</b> eduroam<br><b>Enc:</b> WPA2<br><b>AP:</b> 2<br>]]></description>
      <Point>
        <coordinates>-117.4021699,47.6649485,0</coordinates>
      </Point>
    </Placemark>
    <Placemark>
      <name>Gonzaga University</name>
      <description><![CDATA[<b>Name:</b> Martin Fitness Center<br><b>Address:</b> , <br><b>SSID:</b> eduroam<br><b>Enc:</b> WPA2<br><b>AP:</b> 23<br>]]></description>
      <Point>
        <coordinates>-117.4005568,47.6655565,0</coordinates>
      </Point>
    </Placemark>
    <Placemark>
      <name>Gonzaga University</name>
      <description><![CDATA[<b>Name:</b> Mater Dei<br><b>Address:</b> , <br><b>SSID:</b> eduroam<br><b>Enc:</b> WPA2<br><b>AP:</b> 37<br>]]></description>
      <Point>
        <coordinates>-117.4043433,47.6709655,0</coordinates>
      </Point>
    </Placemark>
    <Placemark>
      <name>Gonzaga University</name>
      <description><![CDATA[<b>Name:</b> Mc Carthey Athletic Center<br><b>Address:</b> , <br><b>SSID:</b> eduroam<br><b>Enc:</b> WPA2<br><b>AP:</b> 23<br>]]></description>
      <Point>
        <coordinates>-117.4000713,47.665393,0</coordinates>
      </Point>
    </Placemark>
    <Placemark>
      <name>Gonzaga University</name>
      <description><![CDATA[<b>Name:</b> Patterson Baseball Complex<br><b>Address:</b> , <br><b>SSID:</b> eduroam<br><b>Enc:</b> WPA2<br><b>AP:</b> 3<br>]]></description>
      <Point>
        <coordinates>-117.3989099,47.6627081,0</coordinates>
      </Point>
    </Placemark>
    <Placemark>
      <name>Gonzaga University</name>
      <description><![CDATA[<b>Name:</b> Saint Aloysius Church/OMalley Hall<br><b>Address:</b> , <br><b>SSID:</b> eduroam<br><b>Enc:</b> WPA2<br><b>AP:</b> 7<br>]]></description>
      <Point>
        <coordinates>-117.4042636,47.6679501,0</coordinates>
      </Point>
    </Placemark>
    <Placemark>
      <name>Gonzaga University</name>
      <description><![CDATA[<b>Name:</b> Schoenberg<br><b>Address:</b> , <br><b>SSID:</b> eduroam<br><b>Enc:</b> WPA2<br><b>AP:</b> 13<br>]]></description>
      <Point>
        <coordinates>-117.4079443,47.6656755,0</coordinates>
      </Point>
    </Placemark>
    <Placemark>
      <name>Gonzaga University</name>
      <description><![CDATA[<b>Name:</b> St Aloysius Rectory<br><b>Address:</b> , <br><b>SSID:</b> eduroam<br><b>Enc:</b> WPA2<br><b>AP:</b> 9<br>]]></description>
      <Point>
        <coordinates>-117.4050384,47.6681289,0</coordinates>
      </Point>
    </Placemark>
    <Placemark>
      <name>Gonzaga University</name>
      <description><![CDATA[<b>Name:</b> Stevens Tennis Center<br><b>Address:</b> , <br><b>SSID:</b> eduroam<br><b>Enc:</b> WPA2<br><b>AP:</b> 5<br>]]></description>
      <Point>
        <coordinates>-117.3914342,47.6687215,0</coordinates>
      </Point>
    </Placemark>
    <Placemark>
      <name>Gonzaga University</name>
      <description><![CDATA[<b>Name:</b> Theatre/Dance<br><b>Address:</b> , <br><b>SSID:</b> eduroam<br><b>Enc:</b> WPA2<br><b>AP:</b> 4<br>]]></description>
      <Point>
        <coordinates>-117.4075006,47.6676231,0</coordinates>
      </Point>
    </Placemark>
    <Placemark>
      <name>griffin-k12</name>
      <description><![CDATA[<b>Name:</b> Griffin School District<br><b>Address:</b> , <br><b>SSID:</b> eduroam<br><b>Enc:</b> WPA2<br><b>AP:</b> 35<br>]]></description>
      <Point>
        <coordinates>-123.01869,47.0805031,0</coordinates>
      </Point>
    </Placemark>
    <Placemark>
      <name>lacenter-k12</name>
      <description><![CDATA[<b>Name:</b> La Center Elementary School<br><b>Address:</b> , <br><b>SSID:</b> eduroam<br><b>Enc:</b> WPA2<br><b>AP:</b> 20<br>]]></description>
      <Point>
        <coordinates>-122.6638897,45.8615231,0</coordinates>
      </Point>
    </Placemark>
    <Placemark>
      <name>lacenter-k12</name>
      <description><![CDATA[<b>Name:</b> La Center High School<br><b>Address:</b> , <br><b>SSID:</b> eduroam<br><b>Enc:</b> WPA2<br><b>AP:</b> 30<br>]]></description>
      <Point>
        <coordinates>-122.6576232,45.8644871,0</coordinates>
      </Point>
    </Placemark>
    <Placemark>
      <name>lacenter-k12</name>
      <description><![CDATA[<b>Name:</b> La Center Middle School<br><b>Address:</b> , <br><b>SSID:</b> eduroam<br><b>Enc:</b> WPA2<br><b>AP:</b> 20<br>]]></description>
      <Point>
        <coordinates>-122.6504814,45.8602065,0</coordinates>
      </Point>
    </Placemark>
    <Placemark>
      <name>mountvernon-k12</name>
      <description><![CDATA[<b>Name:</b> Northwest Career and Technical Academy - Marine Tech<br><b>Address:</b> , <br><b>SSID:</b> eduroam<br><b>Enc:</b> WPA2<br><b>AP:</b> 6<br>]]></description>
      <Point>
        <coordinates>-122.6095507,48.5094012,0</coordinates>
      </Point>
    </Placemark>
    <Placemark>
      <name>mountvernon-k12</name>
      <description><![CDATA[<b>Name:</b> Northwest Career and Technical Academy - Mount Vernon<br><b>Address:</b> , <br><b>SSID:</b> eduroam<br><b>Enc:</b> WPA2<br><b>AP:</b> 11<br>]]></description>
      <Point>
        <coordinates>-122.3126836,48.4383313,0</coordinates>
      </Point>
    </Placemark>
    <Placemark>
      <name>National Oceanic and Atmospheric Administration</name>
      <description><![CDATA[<b>Name:</b> Sand Point Campus<br><b>Address:</b> , <br><b>SSID:</b> eduroam<br><b>Enc:</b> WPA2+WPA<br><b>AP:</b> -<br>]]></description>
      <Point>
        <coordinates>-122.2575417,47.6869345,0</coordinates>
      </Point>
    </Placemark>
    <Placemark>
      <name>Northeastern University</name>
      <description><![CDATA[<b>Name:</b> Seattle Campus<br><b>Address:</b> , <br><b>SSID:</b> eduroam<br><b>Enc:</b> WPA2<br><b>AP:</b> -<br>]]></description>
      <Point>
        <coordinates>-122.3374358,47.6225773,0</coordinates>
      </Point>
    </Placemark>
    <Placemark>
      <name>Pacific Lutheran University</name>
      <description><![CDATA[<b>Name:</b> Pacific Lutheran University<br><b>Address:</b> , <br><b>SSID:</b> eduroam<br><b>Enc:</b> WPA2+WPA<br><b>AP:</b> 800<br>]]></description>
      <Point>
        <coordinates>-122.4436669,47.1451931,0</coordinates>
      </Point>
    </Placemark>
    <Placemark>
      <name>Student Research and Development</name>
      <description><![CDATA[<b>Name:</b> CodeDay HQ<br><b>Address:</b> , <br><b>SSID:</b> eduroam<br><b>Enc:</b> WPA2<br><b>AP:</b> 3<br>]]></description>
      <Point>
        <coordinates>-122.3129754,47.6226766,0</coordinates>
      </Point>
    </Placemark>
    <Placemark>
      <name>tacoma-k12</name>
      <description><![CDATA[<b>Name:</b> Tacoma Public Schools<br><b>Address:</b> , <br><b>SSID:</b> eduroam<br><b>Enc:</b> WPA3+WPA2+WPA<br><b>AP:</b> -<br>]]></description>
      <Point>
        <coordinates>-122.4459104,47.2562711,0</coordinates>
      </Point>
    </Placemark>
    <Placemark>
      <name>University of Idaho</name>
      <description><![CDATA[<b>Name:</b> Moscow-Pullman Airport (PUW)<br><b>Address:</b> , <br><b>SSID:</b> eduroam<br><b>Enc:</b> WPA3<br><b>AP:</b> 10<br>]]></description>
      <Point>
        <coordinates>-117.1211993,46.7415102,0</coordinates>
      </Point>
    </Placemark>
    <Placemark>
      <name>University of Washington</name>
      <description><![CDATA[<b>Name:</b> University of Washington - Bothell<br><b>Address:</b> , <br><b>SSID:</b> eduroam<br><b>Enc:</b> WPA2<br><b>AP:</b> 375<br>]]></description>
      <Point>
        <coordinates>-122.1900134,47.7606542,0</coordinates>
      </Point>
    </Placemark>
    <Placemark>
      <name>University of Washington</name>
      <description><![CDATA[<b>Name:</b> University of Washington - Seattle<br><b>Address:</b> , <br><b>SSID:</b> eduroam<br><b>Enc:</b> WPA2<br><b>AP:</b> 12000<br>]]></description>
      <Point>
        <coordinates>-122.3065262,47.655671,0</coordinates>
      </Point>
    </Placemark>
    <Placemark>
      <name>University of Washington</name>
      <description><![CDATA[<b>Name:</b> University of Washington - Tacoma<br><b>Address:</b> , <br><b>SSID:</b> eduroam<br><b>Enc:</b> WPA2<br><b>AP:</b> 500<br>]]></description>
      <Point>
        <coordinates>-122.4379617,47.2443844,0</coordinates>
      </Point>
    </Placemark>
    <Placemark>
      <name>Wa He Lut Indian School</name>
      <description><![CDATA[<b>Name:</b> Wa He Lut Indian School<br><b>Address:</b> , <br><b>SSID:</b> eduroam<br><b>Enc:</b> WPA2<br><b>AP:</b> 16<br>]]></description>
      <Point>
        <coordinates>-122.7030005,47.0676402,0</coordinates>
      </Point>
    </Placemark>
    <Placemark>
      <name>waschoolforblind-k12</name>
      <description><![CDATA[<b>Name:</b> Vancouver<br><b>Address:</b> , <br><b>SSID:</b> eduroam<br><b>Enc:</b> WPA2<br><b>AP:</b> 100<br>]]></description>
      <Point>
        <coordinates>-122.6475763,45.6308093,0</coordinates>
      </Point>
    </Placemark>
    <Placemark>
      <name>Washington State University</name>
      <description><![CDATA[<b>Name:</b> WSU Everett<br><b>Address:</b> , <br><b>SSID:</b> eduroam<br><b>Enc:</b> WPA2+WPA<br><b>AP:</b> 90<br>]]></description>
      <Point>
        <coordinates>-122.1975882,48.0049157,0</coordinates>
      </Point>
    </Placemark>
    <Placemark>
      <name>Washington State University</name>
      <description><![CDATA[<b>Name:</b> WSU Health Sciences<br><b>Address:</b> , <br><b>SSID:</b> eduroam<br><b>Enc:</b> WPA2+WPA<br><b>AP:</b> 400<br>]]></description>
      <Point>
        <coordinates>-117.4057799,47.6610391,0</coordinates>
      </Point>
    </Placemark>
    <Placemark>
      <name>Washington State University</name>
      <description><![CDATA[<b>Name:</b> WSU Pullman<br><b>Address:</b> , <br><b>SSID:</b> eduroam<br><b>Enc:</b> WPA2+WPA<br><b>AP:</b> 2500<br>]]></description>
      <Point>
        <coordinates>-117.1542121,46.7319225,0</coordinates>
      </Point>
    </Placemark>
    <Placemark>
      <name>Washington State University</name>
      <description><![CDATA[<b>Name:</b> WSU Tri-Cities<br><b>Address:</b> , <br><b>SSID:</b> eduroam<br><b>Enc:</b> WPA2+WPA<br><b>AP:</b> 85<br>]]></description>
      <Point>
        <coordinates>-119.2625945,46.3305025,0</coordinates>
      </Point>
    </Placemark>
    <Placemark>
      <name>Washington State University</name>
      <description><![CDATA[<b>Name:</b> WSU Vancouver<br><b>Address:</b> , <br><b>SSID:</b> eduroam<br><b>Enc:</b> WPA2+WPA<br><b>AP:</b> 250<br>]]></description>
      <Point>
        <coordinates>-122.6362767,45.7315635,0</coordinates>
      </Point>
    </Placemark>
    <Placemark>
      <name>Washington State University - CAHNRS IT</name>
      <description><![CDATA[<b>Name:</b> Washington State University - Island County Extension<br><b>Address:</b> , <br><b>SSID:</b> eduroam<br><b>Enc:</b> WPA2<br><b>AP:</b> 2<br>]]></description>
      <Point>
        <coordinates>-122.6866221,48.2167721,0</coordinates>
      </Point>
    </Placemark>
    <Placemark>
      <name>Washington State University - CAHNRS IT</name>
      <description><![CDATA[<b>Name:</b> Washington State University - Mount Vernon REC<br><b>Address:</b> , <br><b>SSID:</b> eduroam<br><b>Enc:</b> WPA2<br><b>AP:</b> 8<br>]]></description>
      <Point>
        <coordinates>-122.3874593,48.4391378,0</coordinates>
      </Point>
    </Placemark>
    <Placemark>
      <name>Washington State University - CAHNRS IT</name>
      <description><![CDATA[<b>Name:</b> Washington State University - Prosser REC<br><b>Address:</b> , <br><b>SSID:</b> eduroam<br><b>Enc:</b> WPA2<br><b>AP:</b> 25<br>]]></description>
      <Point>
        <coordinates>-119.7358624,46.2548885,0</coordinates>
      </Point>
    </Placemark>
    <Placemark>
      <name>Western Washington University</name>
      <description><![CDATA[<b>Name:</b> Western Washington University - Main Campus<br><b>Address:</b> , <br><b>SSID:</b> eduroam<br><b>Enc:</b> WPA2<br><b>AP:</b> 1450<br>]]></description>
      <Point>
        <coordinates>-122.4851568,48.7391984,0</coordinates>
      </Point>
    </Placemark>
  </Document>
</kml>
