<?xml version="1.0" encoding="UTF-8"?>
<kml xmlns="http://www.opengis.net/kml/2.2">
  <Document>
    <name>eduroam — Louisiana</name>
    <description><![CDATA[19 eduroam service locations in Louisiana.<br><br>Published by <a href="https://scs.nevada.edu/eduroam">NSHE System Computing Services</a>. Learn more about eduroam Support Organizations from <a href="https://incommon.org/eduroam">Internet2</a>, the eduroam National Roaming Operator for the United States.<br>Service location data comes from the eduroam location database published by GÉANT (<a href="https://monitor.eduroam.org/kml/us.kml">monitor.eduroam.org</a>). These maps are derived from it and are not an official GÉANT or eduroam publication.<br>eduroam is a registered trademark of GÉANT Vereniging.<br>Region boundaries are derived from US Census Bureau cartographic boundary files, which as works of the US federal government are in the public domain.<br>Maps generated by eduroam-us-regional-maps, which is BSD 3-Clause licensed.]]></description>
    <open>1</open>
    <Placemark>
      <name>Department of Veterans Affairs</name>
      <description><![CDATA[<b>Name:</b> Shreveport VA Medical Center<br><b>Address:</b> , <br><b>SSID:</b> eduroam<br><b>Enc:</b> WPA2<br><b>AP:</b> -<br>]]></description>
      <Point>
        <coordinates>-93.722013,32.499841,0</coordinates>
      </Point>
    </Placemark>
    <Placemark>
      <name>Grambling State University</name>
      <description><![CDATA[<b>Name:</b> Grambling State University<br><b>Address:</b> , <br><b>SSID:</b> eduroam<br><b>Enc:</b> WPA2<br><b>AP:</b> -<br>]]></description>
      <Point>
        <coordinates>-92.7106107,32.5195601,0</coordinates>
      </Point>
    </Placemark>
    <Placemark>
      <name>Louisiana Cancer Research Center</name>
      <description><![CDATA[<b>Name:</b> Louisiana Cancer Research Center<br><b>Address:</b> , <br><b>SSID:</b> eduroam<br><b>Enc:</b> WPA2<br><b>AP:</b> 30<br>]]></description>
      <Point>
        <coordinates>-90.0807159,29.9570333,0</coordinates>
      </Point>
    </Placemark>
    <Placemark>
      <name>Louisiana State University and Agricultural &amp; Mechanical College</name>
      <description><![CDATA[<b>Name:</b> Main Campus<br><b>Address:</b> , <br><b>SSID:</b> eduroam<br><b>Enc:</b> WPA2<br><b>AP:</b> 4500<br>]]></description>
      <Point>
        <coordinates>-91.1807779,30.4135529,0</coordinates>
      </Point>
    </Placemark>
    <Placemark>
      <name>Louisiana State University at Alexandria</name>
      <description><![CDATA[<b>Name:</b> Main Campus<br><b>Address:</b> , <br><b>SSID:</b> eduroam<br><b>Enc:</b> WPA2+WPA<br><b>AP:</b> -<br>]]></description>
      <Point>
        <coordinates>-92.414097,31.1781285,0</coordinates>
      </Point>
    </Placemark>
    <Placemark>
      <name>Louisiana State University Health Sciences Center - Shreveport</name>
      <description><![CDATA[<b>Name:</b> LSUHS<br><b>Address:</b> , <br><b>SSID:</b> eduroam<br><b>Enc:</b> WPA2<br><b>AP:</b> 500<br>]]></description>
      <Point>
        <coordinates>-93.7591667,32.4812583,0</coordinates>
      </Point>
    </Placemark>
    <Placemark>
      <name>Louisiana State University Health Sciences Center at New Orleans</name>
      <description><![CDATA[<b>Name:</b> Main Campus<br><b>Address:</b> , <br><b>SSID:</b> eduroam<br><b>Enc:</b> WPA2+WPA<br><b>AP:</b> -<br>]]></description>
      <Point>
        <coordinates>-90.0832046,29.9564216,0</coordinates>
      </Point>
    </Placemark>
    <Placemark>
      <name>Louisiana State University-Eunice</name>
      <description><![CDATA[<b>Name:</b> Main Campus<br><b>Address:</b> , <br><b>SSID:</b> eduroam<br><b>Enc:</b> WPA2+WPA<br><b>AP:</b> -<br>]]></description>
      <Point>
        <coordinates>-92.4340744,30.4746996,0</coordinates>
      </Point>
    </Placemark>
    <Placemark>
      <name>Louisiana State University-Shreveport</name>
      <description><![CDATA[<b>Name:</b> Main Campus<br><b>Address:</b> , <br><b>SSID:</b> eduroam<br><b>Enc:</b> WPA2<br><b>AP:</b> 187<br>]]></description>
      <Point>
        <coordinates>-93.7037659,32.4287671,0</coordinates>
      </Point>
    </Placemark>
    <Placemark>
      <name>Louisiana Tech University</name>
      <description><![CDATA[<b>Name:</b> Louisiana Tech Main Campus<br><b>Address:</b> , <br><b>SSID:</b> eduroam<br><b>Enc:</b> WPA2+WPA<br><b>AP:</b> -<br>]]></description>
      <Point>
        <coordinates>-92.6464297,32.5265159,0</coordinates>
      </Point>
    </Placemark>
    <Placemark>
      <name>Louisiana Tech University</name>
      <description><![CDATA[<b>Name:</b> Louisiana Tech University - Bossier City<br><b>Address:</b> , <br><b>SSID:</b> eduroam<br><b>Enc:</b> WPA2+WPA<br><b>AP:</b> -<br>]]></description>
      <Point>
        <coordinates>-93.6443549,32.540446,0</coordinates>
      </Point>
    </Placemark>
    <Placemark>
      <name>Pennington Biomedical Research Center</name>
      <description><![CDATA[<b>Name:</b> Main Campus<br><b>Address:</b> , <br><b>SSID:</b> eduroam<br><b>Enc:</b> WPA2+WPA<br><b>AP:</b> -<br>]]></description>
      <Point>
        <coordinates>-91.1226374,30.4033284,0</coordinates>
      </Point>
    </Placemark>
    <Placemark>
      <name>Southern University Law Center</name>
      <description><![CDATA[<b>Name:</b> Southern University Law Center<br><b>Address:</b> , <br><b>SSID:</b> eduroam<br><b>Enc:</b> WPA2+WPA<br><b>AP:</b> 34<br>]]></description>
      <Point>
        <coordinates>-91.1943839,30.5239073,0</coordinates>
      </Point>
    </Placemark>
    <Placemark>
      <name>The University of Louisiana Monroe</name>
      <description><![CDATA[<b>Name:</b> ULM Main Campus<br><b>Address:</b> , <br><b>SSID:</b> eduroam<br><b>Enc:</b> WPA2+WPA<br><b>AP:</b> 600<br>]]></description>
      <Point>
        <coordinates>-92.0734173,32.5282848,0</coordinates>
      </Point>
    </Placemark>
    <Placemark>
      <name>Tulane University of Louisiana</name>
      <description><![CDATA[<b>Name:</b> Health Sciences Center<br><b>Address:</b> , <br><b>SSID:</b> eduroam<br><b>Enc:</b> WPA2+WPA<br><b>AP:</b> -<br>]]></description>
      <Point>
        <coordinates>-90.0768769,29.95504,0</coordinates>
      </Point>
    </Placemark>
    <Placemark>
      <name>Tulane University of Louisiana</name>
      <description><![CDATA[<b>Name:</b> Uptown Campus<br><b>Address:</b> , <br><b>SSID:</b> eduroam<br><b>Enc:</b> WPA2+WPA<br><b>AP:</b> -<br>]]></description>
      <Point>
        <coordinates>-90.122739,29.9354099,0</coordinates>
      </Point>
    </Placemark>
    <Placemark>
      <name>University of Louisiana Lafayette</name>
      <description><![CDATA[<b>Name:</b> University of Louisiana at Lafayette<br><b>Address:</b> , <br><b>SSID:</b> eduroam<br><b>Enc:</b> WPA2<br><b>AP:</b> 3314<br>]]></description>
      <Point>
        <coordinates>-92.0190917,30.2153203,0</coordinates>
      </Point>
    </Placemark>
    <Placemark>
      <name>University of New Orleans</name>
      <description><![CDATA[<b>Name:</b> University of New Orleans<br><b>Address:</b> , <br><b>SSID:</b> eduroam<br><b>Enc:</b> WPA2<br><b>AP:</b> -<br>]]></description>
      <Point>
        <coordinates>-90.0647316,30.0292776,0</coordinates>
      </Point>
    </Placemark>
    <Placemark>
      <name>VCOM</name>
      <description><![CDATA[<b>Name:</b> VCOM-LC<br><b>Address:</b> , <br><b>SSID:</b> eduroam<br><b>Enc:</b> WPA2<br><b>AP:</b> 50<br>]]></description>
      <Point>
        <coordinates>-92.0669027,32.528056,0</coordinates>
      </Point>
    </Placemark>
  </Document>
</kml>
