<?xml version="1.0" encoding="UTF-8"?>
<kml xmlns="http://www.opengis.net/kml/2.2">
  <Document>
    <name>eduroam — Georgia</name>
    <description><![CDATA[62 eduroam service locations in Georgia.<br><br>Published by <a href="https://scs.nevada.edu/eduroam">NSHE System Computing Services</a>. Learn more about eduroam Support Organizations from <a href="https://incommon.org/eduroam">Internet2</a>, the eduroam National Roaming Operator for the United States.<br>These maps are derived from data published by GÉANT (<a href="https://monitor.eduroam.org/kml/us.kml">monitor.eduroam.org</a>). This is not an official GÉANT or eduroam publication.<br>eduroam is a registered trademark of the GÉANT Association.<br>Region boundaries are derived from US Census Bureau cartographic boundary files, which as works of the US federal government are in the public domain.<br>Maps generated by eduroam-us-regional-maps, which is BSD 3-Clause licensed.]]></description>
    <open>1</open>
    <Placemark>
      <name>Abraham Baldwin Agricultural College</name>
      <description><![CDATA[<b>Name:</b> ABAC<br><b>Address:</b> , <br><b>SSID:</b> eduroam<br><b>Enc:</b> WPA2+WPA<br><b>AP:</b> 211<br>]]></description>
      <Point>
        <coordinates>-83.5282588,31.4819694,0</coordinates>
      </Point>
    </Placemark>
    <Placemark>
      <name>Albany State University</name>
      <description><![CDATA[<b>Name:</b> Albany State University Cordele Center<br><b>Address:</b> , <br><b>SSID:</b> eduroam<br><b>Enc:</b> WPA2+WPA<br><b>AP:</b> 15<br>]]></description>
      <Point>
        <coordinates>-83.7810954,31.9691318,0</coordinates>
      </Point>
    </Placemark>
    <Placemark>
      <name>Albany State University</name>
      <description><![CDATA[<b>Name:</b> Albany State University EAST<br><b>Address:</b> , <br><b>SSID:</b> eduroam<br><b>Enc:</b> WPA2+WPA<br><b>AP:</b> 187<br>]]></description>
      <Point>
        <coordinates>-84.1403888,31.5690557,0</coordinates>
      </Point>
    </Placemark>
    <Placemark>
      <name>Albany State University</name>
      <description><![CDATA[<b>Name:</b> Albany State University WEST<br><b>Address:</b> , <br><b>SSID:</b> eduroam<br><b>Enc:</b> WPA2+WPA<br><b>AP:</b> 107<br>]]></description>
      <Point>
        <coordinates>-84.213738,31.581787,0</coordinates>
      </Point>
    </Placemark>
    <Placemark>
      <name>Atlanta Metropilitan State College</name>
      <description><![CDATA[<b>Name:</b> Atlanta Metropolitan State College<br><b>Address:</b> , <br><b>SSID:</b> eduroam<br><b>Enc:</b> WPA2+WPA<br><b>AP:</b> -<br>]]></description>
      <Point>
        <coordinates>-84.4054456,33.7098439,0</coordinates>
      </Point>
    </Placemark>
    <Placemark>
      <name>Augusta University</name>
      <description><![CDATA[<b>Name:</b> Augusta University - Health Sciences<br><b>Address:</b> , <br><b>SSID:</b> eduroam<br><b>Enc:</b> WPA2+WPA<br><b>AP:</b> 2000<br>]]></description>
      <Point>
        <coordinates>-81.9899149,33.4706236,0</coordinates>
      </Point>
    </Placemark>
    <Placemark>
      <name>Augusta University</name>
      <description><![CDATA[<b>Name:</b> Augusta University - Summerville<br><b>Address:</b> , <br><b>SSID:</b> eduroam<br><b>Enc:</b> WPA2+WPA<br><b>AP:</b> -<br>]]></description>
      <Point>
        <coordinates>-82.023259,33.475911,0</coordinates>
      </Point>
    </Placemark>
    <Placemark>
      <name>Augusta University</name>
      <description><![CDATA[<b>Name:</b> Roosevelt Warm Springs Rehab<br><b>Address:</b> , <br><b>SSID:</b> eduroam<br><b>Enc:</b> WPA2+WPA<br><b>AP:</b> 100<br>]]></description>
      <Point>
        <coordinates>-84.6900251,32.8891671,0</coordinates>
      </Point>
    </Placemark>
    <Placemark>
      <name>Clayton State University</name>
      <description><![CDATA[<b>Name:</b> Clayton State University<br><b>Address:</b> , <br><b>SSID:</b> eduroam<br><b>Enc:</b> WPA2+WPA<br><b>AP:</b> 330<br>]]></description>
      <Point>
        <coordinates>-84.330761,33.5944329,0</coordinates>
      </Point>
    </Placemark>
    <Placemark>
      <name>College of Coastal Georgia</name>
      <description><![CDATA[<b>Name:</b> College of Coastal Georgia<br><b>Address:</b> , <br><b>SSID:</b> eduroam<br><b>Enc:</b> WPA2+WPA<br><b>AP:</b> -<br>]]></description>
      <Point>
        <coordinates>-81.4867973,31.1832874,0</coordinates>
      </Point>
    </Placemark>
    <Placemark>
      <name>Columbus State University</name>
      <description><![CDATA[<b>Name:</b> Columbus State University Main Campus Library<br><b>Address:</b> , <br><b>SSID:</b> eduroam<br><b>Enc:</b> WPA3+WPA2+WPA<br><b>AP:</b> 1301<br>]]></description>
      <Point>
        <coordinates>-84.940982,32.5011143,0</coordinates>
      </Point>
    </Placemark>
    <Placemark>
      <name>Dalton State College</name>
      <description><![CDATA[<b>Name:</b> Dalton State College<br><b>Address:</b> , <br><b>SSID:</b> eduroam<br><b>Enc:</b> WPA2+WPA<br><b>AP:</b> 155<br>]]></description>
      <Point>
        <coordinates>-85.0022554,34.777927,0</coordinates>
      </Point>
    </Placemark>
    <Placemark>
      <name>Department of Veterans Affairs</name>
      <description><![CDATA[<b>Name:</b> Atlanta VA Medical Center<br><b>Address:</b> , <br><b>SSID:</b> eduroam<br><b>Enc:</b> WPA2<br><b>AP:</b> -<br>]]></description>
      <Point>
        <coordinates>-84.31182,33.801845,0</coordinates>
      </Point>
    </Placemark>
    <Placemark>
      <name>East Georgia State College</name>
      <description><![CDATA[<b>Name:</b> East Georgia State College Statesboro<br><b>Address:</b> , <br><b>SSID:</b> eduroam<br><b>Enc:</b> WPA2+WPA<br><b>AP:</b> -<br>]]></description>
      <Point>
        <coordinates>-81.8267911,32.3923288,0</coordinates>
      </Point>
    </Placemark>
    <Placemark>
      <name>East Georgia State College</name>
      <description><![CDATA[<b>Name:</b> East Georgia State College Swainsboro<br><b>Address:</b> , <br><b>SSID:</b> eduroam<br><b>Enc:</b> WPA2+WPA<br><b>AP:</b> -<br>]]></description>
      <Point>
        <coordinates>-82.3062912,32.5938846,0</coordinates>
      </Point>
    </Placemark>
    <Placemark>
      <name>East Georgia State College</name>
      <description><![CDATA[<b>Name:</b> Ty Fagler<br><b>Address:</b> , <br><b>SSID:</b> eduroam<br><b>Enc:</b> WPA2<br><b>AP:</b> 56<br>]]></description>
      <Point>
        <coordinates>-82.3073285,32.5983379,0</coordinates>
      </Point>
    </Placemark>
    <Placemark>
      <name>Emory University</name>
      <description><![CDATA[<b>Name:</b> Main Campus<br><b>Address:</b> , <br><b>SSID:</b> eduroam<br><b>Enc:</b> WPA2+WPA<br><b>AP:</b> -<br>]]></description>
      <Point>
        <coordinates>-84.322022,33.797897,0</coordinates>
      </Point>
    </Placemark>
    <Placemark>
      <name>Fort Valley State University</name>
      <description><![CDATA[<b>Name:</b> Fort Valley State University<br><b>Address:</b> , <br><b>SSID:</b> eduroam<br><b>Enc:</b> WPA2+WPA<br><b>AP:</b> -<br>]]></description>
      <Point>
        <coordinates>-83.8982327,32.5370907,0</coordinates>
      </Point>
    </Placemark>
    <Placemark>
      <name>Georgia College &amp; State University</name>
      <description><![CDATA[<b>Name:</b> Georgia College<br><b>Address:</b> , <br><b>SSID:</b> eduroam<br><b>Enc:</b> WPA2<br><b>AP:</b> 1300<br>]]></description>
      <Point>
        <coordinates>-83.2318512,33.0827689,0</coordinates>
      </Point>
    </Placemark>
    <Placemark>
      <name>Georgia Gwinnett College</name>
      <description><![CDATA[<b>Name:</b> Georgia Gwinnett College<br><b>Address:</b> , <br><b>SSID:</b> eduroam<br><b>Enc:</b> WPA2+WPA<br><b>AP:</b> -<br>]]></description>
      <Point>
        <coordinates>-84.0045984,33.9802468,0</coordinates>
      </Point>
    </Placemark>
    <Placemark>
      <name>Georgia Highlands College</name>
      <description><![CDATA[<b>Name:</b> Georgia Highlands College - Cartersville<br><b>Address:</b> , <br><b>SSID:</b> eduroam<br><b>Enc:</b> WPA2+WPA<br><b>AP:</b> 76<br>]]></description>
      <Point>
        <coordinates>-84.7842867,34.2066716,0</coordinates>
      </Point>
    </Placemark>
    <Placemark>
      <name>Georgia Highlands College</name>
      <description><![CDATA[<b>Name:</b> Georgia Highlands College - Douglasville<br><b>Address:</b> , <br><b>SSID:</b> eduroam<br><b>Enc:</b> WPA2+WPA<br><b>AP:</b> 19<br>]]></description>
      <Point>
        <coordinates>-84.8053155,33.6739795,0</coordinates>
      </Point>
    </Placemark>
    <Placemark>
      <name>Georgia Highlands College</name>
      <description><![CDATA[<b>Name:</b> Georgia Highlands College - Floyd<br><b>Address:</b> , <br><b>SSID:</b> eduroam<br><b>Enc:</b> WPA2+WPA<br><b>AP:</b> 61<br>]]></description>
      <Point>
        <coordinates>-85.2075577,34.1697721,0</coordinates>
      </Point>
    </Placemark>
    <Placemark>
      <name>Georgia Highlands College</name>
      <description><![CDATA[<b>Name:</b> Georgia Highlands College - Heritage Hall<br><b>Address:</b> , <br><b>SSID:</b> eduroam<br><b>Enc:</b> WPA2+WPA<br><b>AP:</b> 18<br>]]></description>
      <Point>
        <coordinates>-85.1677688,34.2491527,0</coordinates>
      </Point>
    </Placemark>
    <Placemark>
      <name>Georgia Highlands College</name>
      <description><![CDATA[<b>Name:</b> Georgia Highlands College - Paulding<br><b>Address:</b> , <br><b>SSID:</b> eduroam<br><b>Enc:</b> WPA2+WPA<br><b>AP:</b> 22<br>]]></description>
      <Point>
        <coordinates>-84.8418257,33.9237777,0</coordinates>
      </Point>
    </Placemark>
    <Placemark>
      <name>Georgia Institute of Technology</name>
      <description><![CDATA[<b>Name:</b> Atlanta Campus<br><b>Address:</b> , <br><b>SSID:</b> eduroam<br><b>Enc:</b> WPA2+WPA<br><b>AP:</b> 7000<br>]]></description>
      <Point>
        <coordinates>-84.3959211,33.7752324,0</coordinates>
      </Point>
    </Placemark>
    <Placemark>
      <name>Georgia Institute of Technology</name>
      <description><![CDATA[<b>Name:</b> Savannah Campus<br><b>Address:</b> , <br><b>SSID:</b> eduroam<br><b>Enc:</b> WPA2<br><b>AP:</b> 50<br>]]></description>
      <Point>
        <coordinates>-81.2115183,32.1681393,0</coordinates>
      </Point>
    </Placemark>
    <Placemark>
      <name>Georgia Southern University</name>
      <description><![CDATA[<b>Name:</b> Liberty Campus<br><b>Address:</b> , <br><b>SSID:</b> eduroam<br><b>Enc:</b> WPA2<br><b>AP:</b> 18<br>]]></description>
      <Point>
        <coordinates>-81.5987527,31.8503309,0</coordinates>
      </Point>
    </Placemark>
    <Placemark>
      <name>Georgia Southern University</name>
      <description><![CDATA[<b>Name:</b> Savannah Campus<br><b>Address:</b> , <br><b>SSID:</b> eduroam<br><b>Enc:</b> WPA2<br><b>AP:</b> 440<br>]]></description>
      <Point>
        <coordinates>-81.1632048,31.9781582,0</coordinates>
      </Point>
    </Placemark>
    <Placemark>
      <name>Georgia Southern University</name>
      <description><![CDATA[<b>Name:</b> Statesboro Campus<br><b>Address:</b> , <br><b>SSID:</b> eduroam<br><b>Enc:</b> WPA2<br><b>AP:</b> 2300<br>]]></description>
      <Point>
        <coordinates>-81.7837288,32.4280604,0</coordinates>
      </Point>
    </Placemark>
    <Placemark>
      <name>Georgia Southwestern State University</name>
      <description><![CDATA[<b>Name:</b> Georgia Southwestern State University<br><b>Address:</b> , <br><b>SSID:</b> eduroam<br><b>Enc:</b> WPA2<br><b>AP:</b> 295<br>]]></description>
      <Point>
        <coordinates>-84.2177877,32.0566497,0</coordinates>
      </Point>
    </Placemark>
    <Placemark>
      <name>Georgia State University</name>
      <description><![CDATA[<b>Name:</b> Georgia State University Atlanta Campus<br><b>Address:</b> , <br><b>SSID:</b> eduroam<br><b>Enc:</b> WPA2+WPA<br><b>AP:</b> 3800<br>]]></description>
      <Point>
        <coordinates>-84.3867536,33.7525793,0</coordinates>
      </Point>
    </Placemark>
    <Placemark>
      <name>Georgia State University</name>
      <description><![CDATA[<b>Name:</b> GSU - Perimeter College Alpharetta Campus<br><b>Address:</b> , <br><b>SSID:</b> eduroam<br><b>Enc:</b> WPA2+WPA<br><b>AP:</b> 80<br>]]></description>
      <Point>
        <coordinates>-84.2531388,34.0604092,0</coordinates>
      </Point>
    </Placemark>
    <Placemark>
      <name>Georgia State University</name>
      <description><![CDATA[<b>Name:</b> GSU - Perimeter College Clarkston Campus<br><b>Address:</b> , <br><b>SSID:</b> eduroam<br><b>Enc:</b> WPA2+WPA<br><b>AP:</b> 200<br>]]></description>
      <Point>
        <coordinates>-84.2341775,33.792329,0</coordinates>
      </Point>
    </Placemark>
    <Placemark>
      <name>Georgia State University</name>
      <description><![CDATA[<b>Name:</b> GSU - Perimeter College Decatur Campus<br><b>Address:</b> , <br><b>SSID:</b> eduroam<br><b>Enc:</b> WPA2+WPA<br><b>AP:</b> 200<br>]]></description>
      <Point>
        <coordinates>-84.2742548,33.6884595,0</coordinates>
      </Point>
    </Placemark>
    <Placemark>
      <name>Georgia State University</name>
      <description><![CDATA[<b>Name:</b> GSU - Perimeter College Dunwoody Campus<br><b>Address:</b> , <br><b>SSID:</b> eduroam<br><b>Enc:</b> WPA2+WPA<br><b>AP:</b> 180<br>]]></description>
      <Point>
        <coordinates>-84.3018895,33.9416115,0</coordinates>
      </Point>
    </Placemark>
    <Placemark>
      <name>Georgia State University</name>
      <description><![CDATA[<b>Name:</b> GSU - Perimeter College Newton Campus<br><b>Address:</b> , <br><b>SSID:</b> eduroam<br><b>Enc:</b> WPA2+WPA<br><b>AP:</b> 80<br>]]></description>
      <Point>
        <coordinates>-83.7591878,33.6074581,0</coordinates>
      </Point>
    </Placemark>
    <Placemark>
      <name>Gordon State College</name>
      <description><![CDATA[<b>Name:</b> Gordon State College - Main Campus<br><b>Address:</b> , <br><b>SSID:</b> eduroam<br><b>Enc:</b> WPA2<br><b>AP:</b> 300<br>]]></description>
      <Point>
        <coordinates>-84.1537774,33.0481964,0</coordinates>
      </Point>
    </Placemark>
    <Placemark>
      <name>Kennesaw State</name>
      <description><![CDATA[<b>Name:</b> Kennesaw State University<br><b>Address:</b> , <br><b>SSID:</b> eduroam<br><b>Enc:</b> WPA2+WPA<br><b>AP:</b> 1850<br>]]></description>
      <Point>
        <coordinates>-84.5830609,34.038296,0</coordinates>
      </Point>
    </Placemark>
    <Placemark>
      <name>Middle Georgia State University</name>
      <description><![CDATA[<b>Name:</b> Cochran Campus<br><b>Address:</b> , <br><b>SSID:</b> eduroam<br><b>Enc:</b> WPA2<br><b>AP:</b> -<br>]]></description>
      <Point>
        <coordinates>-83.3469948,32.380411,0</coordinates>
      </Point>
    </Placemark>
    <Placemark>
      <name>Middle Georgia State University</name>
      <description><![CDATA[<b>Name:</b> Dublin Campus<br><b>Address:</b> , <br><b>SSID:</b> eduroam<br><b>Enc:</b> WPA2<br><b>AP:</b> -<br>]]></description>
      <Point>
        <coordinates>-82.9359473,32.5328474,0</coordinates>
      </Point>
    </Placemark>
    <Placemark>
      <name>Middle Georgia State University</name>
      <description><![CDATA[<b>Name:</b> Eastman Campus<br><b>Address:</b> , <br><b>SSID:</b> eduroam<br><b>Enc:</b> WPA2<br><b>AP:</b> -<br>]]></description>
      <Point>
        <coordinates>-83.1278479,32.207005,0</coordinates>
      </Point>
    </Placemark>
    <Placemark>
      <name>Middle Georgia State University</name>
      <description><![CDATA[<b>Name:</b> Macon Campus<br><b>Address:</b> , <br><b>SSID:</b> eduroam<br><b>Enc:</b> WPA2<br><b>AP:</b> -<br>]]></description>
      <Point>
        <coordinates>-83.7341962,32.8116156,0</coordinates>
      </Point>
    </Placemark>
    <Placemark>
      <name>Middle Georgia State University</name>
      <description><![CDATA[<b>Name:</b> Warner Robins Campus<br><b>Address:</b> , <br><b>SSID:</b> eduroam<br><b>Enc:</b> WPA2<br><b>AP:</b> -<br>]]></description>
      <Point>
        <coordinates>-83.609241,32.618624,0</coordinates>
      </Point>
    </Placemark>
    <Placemark>
      <name>Savannah State University</name>
      <description><![CDATA[<b>Name:</b> Savannah State University<br><b>Address:</b> , <br><b>SSID:</b> eduroam<br><b>Enc:</b> WPA2+WPA<br><b>AP:</b> 554<br>]]></description>
      <Point>
        <coordinates>-81.0565334,32.0224016,0</coordinates>
      </Point>
    </Placemark>
    <Placemark>
      <name>South Georgia State College</name>
      <description><![CDATA[<b>Name:</b> South Georgia State College - Douglas<br><b>Address:</b> , <br><b>SSID:</b> eduroam<br><b>Enc:</b> WPA2+WPA<br><b>AP:</b> -<br>]]></description>
      <Point>
        <coordinates>-82.8545083,31.4977147,0</coordinates>
      </Point>
    </Placemark>
    <Placemark>
      <name>South Georgia State College</name>
      <description><![CDATA[<b>Name:</b> South Georgia State College - Waycross<br><b>Address:</b> , <br><b>SSID:</b> eduroam<br><b>Enc:</b> WPA2+WPA<br><b>AP:</b> -<br>]]></description>
      <Point>
        <coordinates>-82.3894158,31.2065224,0</coordinates>
      </Point>
    </Placemark>
    <Placemark>
      <name>The Georgia Center for Continuing Education</name>
      <description><![CDATA[<b>Name:</b> University of Georgia - The Georgia Center for Continuing Education<br><b>Address:</b> , <br><b>SSID:</b> eduroam<br><b>Enc:</b> WPA2+WPA<br><b>AP:</b> 95<br>]]></description>
      <Point>
        <coordinates>-83.3775921,33.9446267,0</coordinates>
      </Point>
    </Placemark>
    <Placemark>
      <name>University of Georgia</name>
      <description><![CDATA[<b>Name:</b> University of Georgia - Athens<br><b>Address:</b> , <br><b>SSID:</b> eduroam<br><b>Enc:</b> WPA2<br><b>AP:</b> 3200<br>]]></description>
      <Point>
        <coordinates>-83.3748393,33.9469498,0</coordinates>
      </Point>
    </Placemark>
    <Placemark>
      <name>University of North Georgia</name>
      <description><![CDATA[<b>Name:</b> Blue Ridge<br><b>Address:</b> , <br><b>SSID:</b> eduroam<br><b>Enc:</b> WPA2<br><b>AP:</b> -<br>]]></description>
      <Point>
        <coordinates>-84.2915061,34.8881639,0</coordinates>
      </Point>
    </Placemark>
    <Placemark>
      <name>University of North Georgia</name>
      <description><![CDATA[<b>Name:</b> Cumming<br><b>Address:</b> , <br><b>SSID:</b> eduroam<br><b>Enc:</b> WPA2<br><b>AP:</b> -<br>]]></description>
      <Point>
        <coordinates>-84.1084636,34.2240473,0</coordinates>
      </Point>
    </Placemark>
    <Placemark>
      <name>University of North Georgia</name>
      <description><![CDATA[<b>Name:</b> Dahlonega<br><b>Address:</b> , <br><b>SSID:</b> eduroam<br><b>Enc:</b> WPA2<br><b>AP:</b> -<br>]]></description>
      <Point>
        <coordinates>-83.9857476,34.5302747,0</coordinates>
      </Point>
    </Placemark>
    <Placemark>
      <name>University of North Georgia</name>
      <description><![CDATA[<b>Name:</b> Gainesville<br><b>Address:</b> , <br><b>SSID:</b> eduroam<br><b>Enc:</b> WPA2<br><b>AP:</b> -<br>]]></description>
      <Point>
        <coordinates>-83.8676613,34.2347566,0</coordinates>
      </Point>
    </Placemark>
    <Placemark>
      <name>University of North Georgia</name>
      <description><![CDATA[<b>Name:</b> Oconee<br><b>Address:</b> , <br><b>SSID:</b> eduroam<br><b>Enc:</b> WPA2<br><b>AP:</b> -<br>]]></description>
      <Point>
        <coordinates>-83.425826,33.8662459,0</coordinates>
      </Point>
    </Placemark>
    <Placemark>
      <name>University of West Georgia</name>
      <description><![CDATA[<b>Name:</b> University of West Georgia<br><b>Address:</b> , <br><b>SSID:</b> eduroam<br><b>Enc:</b> WPA2<br><b>AP:</b> 1900<br>]]></description>
      <Point>
        <coordinates>-85.0967239,33.5715249,0</coordinates>
      </Point>
    </Placemark>
    <Placemark>
      <name>University of West Georgia</name>
      <description><![CDATA[<b>Name:</b> University of West Georgia<br><b>Address:</b> , <br><b>SSID:</b> eduroam<br><b>Enc:</b> WPA2<br><b>AP:</b> 1400<br>]]></description>
      <Point>
        <coordinates>-85.096681,33.5710662,0</coordinates>
      </Point>
    </Placemark>
    <Placemark>
      <name>University System of Georgia</name>
      <description><![CDATA[<b>Name:</b> Georgia Archives<br><b>Address:</b> , <br><b>SSID:</b> eduroam<br><b>Enc:</b> WPA2<br><b>AP:</b> 9<br>]]></description>
      <Point>
        <coordinates>-84.3367032,33.5970264,0</coordinates>
      </Point>
    </Placemark>
    <Placemark>
      <name>University System of Georgia</name>
      <description><![CDATA[<b>Name:</b> Information Technology Services<br><b>Address:</b> , <br><b>SSID:</b> eduroam<br><b>Enc:</b> WPA2<br><b>AP:</b> 13<br>]]></description>
      <Point>
        <coordinates>-83.4604096,33.9094243,0</coordinates>
      </Point>
    </Placemark>
    <Placemark>
      <name>University System of Georgia</name>
      <description><![CDATA[<b>Name:</b> Shared Services Center<br><b>Address:</b> , <br><b>SSID:</b> eduroam<br><b>Enc:</b> WPA2<br><b>AP:</b> 12<br>]]></description>
      <Point>
        <coordinates>-82.8374445,33.000052,0</coordinates>
      </Point>
    </Placemark>
    <Placemark>
      <name>University System of Georgia</name>
      <description><![CDATA[<b>Name:</b> State of Georgia Records Center<br><b>Address:</b> , <br><b>SSID:</b> eduroam<br><b>Enc:</b> WPA2<br><b>AP:</b> 2<br>]]></description>
      <Point>
        <coordinates>-84.5841333,33.7632915,0</coordinates>
      </Point>
    </Placemark>
    <Placemark>
      <name>University System of Georgia</name>
      <description><![CDATA[<b>Name:</b> System Office (Trinity-Washington Building)<br><b>Address:</b> , <br><b>SSID:</b> eduroam<br><b>Enc:</b> WPA2<br><b>AP:</b> 21<br>]]></description>
      <Point>
        <coordinates>-84.3901595,33.7474372,0</coordinates>
      </Point>
    </Placemark>
    <Placemark>
      <name>Valdosta State University</name>
      <description><![CDATA[<b>Name:</b> Valdosta State University<br><b>Address:</b> , <br><b>SSID:</b> eduroam<br><b>Enc:</b> WPA2<br><b>AP:</b> 1510<br>]]></description>
      <Point>
        <coordinates>-83.2900234,30.8465653,0</coordinates>
      </Point>
    </Placemark>
  </Document>
</kml>
