<?xml version="1.0" encoding="UTF-8"?>
<kml xmlns="http://www.opengis.net/kml/2.2">
  <Document>
    <name>eduroam — Montana</name>
    <description><![CDATA[9 eduroam service locations in Montana.<br><br>Published by <a href="https://scs.nevada.edu/eduroam">NSHE System Computing Services</a>. Learn more about eduroam Support Organizations from <a href="https://incommon.org/eduroam">Internet2</a>, the eduroam National Roaming Operator for the United States.<br>Service location data comes from the eduroam location database published by GÉANT (<a href="https://monitor.eduroam.org/kml/us.kml">monitor.eduroam.org</a>). These maps are derived from it and are not an official GÉANT or eduroam publication.<br>eduroam is a registered trademark of GÉANT Vereniging.<br>Region boundaries are derived from US Census Bureau cartographic boundary files, which as works of the US federal government are in the public domain.<br>Maps generated by eduroam-us-regional-maps, which is BSD 3-Clause licensed.]]></description>
    <open>1</open>
    <Placemark>
      <name>Department of Veterans Affairs</name>
      <description><![CDATA[<b>Name:</b> Billings-Majestic CBOC<br><b>Address:</b> , <br><b>SSID:</b> eduroam<br><b>Enc:</b> WPA2<br><b>AP:</b> -<br>]]></description>
      <Point>
        <coordinates>-108.60413,45.7374,0</coordinates>
      </Point>
    </Placemark>
    <Placemark>
      <name>Great Falls College Montana State University</name>
      <description><![CDATA[<b>Name:</b> Great Falls College MSU<br><b>Address:</b> , <br><b>SSID:</b> eduroam<br><b>Enc:</b> WPA2+WPA<br><b>AP:</b> 83<br>]]></description>
      <Point>
        <coordinates>-111.2697867,47.4855855,0</coordinates>
      </Point>
    </Placemark>
    <Placemark>
      <name>Montana State University</name>
      <description><![CDATA[<b>Name:</b> Main Campus<br><b>Address:</b> , <br><b>SSID:</b> eduroam<br><b>Enc:</b> WPA2+WPA<br><b>AP:</b> -<br>]]></description>
      <Point>
        <coordinates>-111.0493859,45.6674577,0</coordinates>
      </Point>
    </Placemark>
    <Placemark>
      <name>Montana State University - Billings</name>
      <description><![CDATA[<b>Name:</b> MSU Billings<br><b>Address:</b> , <br><b>SSID:</b> eduroam<br><b>Enc:</b> WPA2<br><b>AP:</b> 400<br>]]></description>
      <Point>
        <coordinates>-108.52135,45.796774,0</coordinates>
      </Point>
    </Placemark>
    <Placemark>
      <name>Montana State University - Billings</name>
      <description><![CDATA[<b>Name:</b> MSU Billings City College<br><b>Address:</b> , <br><b>SSID:</b> eduroam<br><b>Enc:</b> WPA2<br><b>AP:</b> 80<br>]]></description>
      <Point>
        <coordinates>-108.612818,45.7711799,0</coordinates>
      </Point>
    </Placemark>
    <Placemark>
      <name>Montana State University - Northern</name>
      <description><![CDATA[<b>Name:</b> Montana State University-Northern<br><b>Address:</b> , <br><b>SSID:</b> eduroam<br><b>Enc:</b> WPA2<br><b>AP:</b> 100<br>]]></description>
      <Point>
        <coordinates>-109.6877003,48.5414665,0</coordinates>
      </Point>
    </Placemark>
    <Placemark>
      <name>Montana Tech</name>
      <description><![CDATA[<b>Name:</b> Montana Tech<br><b>Address:</b> , <br><b>SSID:</b> eduroam<br><b>Enc:</b> WPA2<br><b>AP:</b> 380<br>]]></description>
      <Point>
        <coordinates>-112.5576782,46.0123431,0</coordinates>
      </Point>
    </Placemark>
    <Placemark>
      <name>The University of Montana</name>
      <description><![CDATA[<b>Name:</b> Flathead Lake Bio Station<br><b>Address:</b> , <br><b>SSID:</b> eduroam<br><b>Enc:</b> WPA2+WPA<br><b>AP:</b> -<br>]]></description>
      <Point>
        <coordinates>-114.0332388,47.876826,0</coordinates>
      </Point>
    </Placemark>
    <Placemark>
      <name>The University of Montana</name>
      <description><![CDATA[<b>Name:</b> Main Campus<br><b>Address:</b> , <br><b>SSID:</b> eduroam<br><b>Enc:</b> WPA2+WPA<br><b>AP:</b> -<br>]]></description>
      <Point>
        <coordinates>-113.9842701,46.861557,0</coordinates>
      </Point>
    </Placemark>
  </Document>
</kml>
