<?xml version="1.0" encoding="UTF-8"?>
<kml xmlns="http://www.opengis.net/kml/2.2">
  <Document>
    <name>eduroam — Alaska</name>
    <description><![CDATA[8 eduroam service locations in Alaska.<br><br>Published by <a href="https://scs.nevada.edu/eduroam">NSHE System Computing Services</a>. Learn more about eduroam Support Organizations from <a href="https://incommon.org/eduroam">Internet2</a>, the eduroam National Roaming Operator for the United States.<br>These maps are derived from data published by GÉANT (<a href="https://monitor.eduroam.org/kml/us.kml">monitor.eduroam.org</a>). This is not an official GÉANT or eduroam publication.<br>eduroam is a registered trademark of the GÉANT Association.<br>Region boundaries are derived from US Census Bureau cartographic boundary files, which as works of the US federal government are in the public domain.<br>Maps generated by eduroam-us-regional-maps, which is BSD 3-Clause licensed.]]></description>
    <open>1</open>
    <Placemark>
      <name>University of Alaska Fairbanks</name>
      <description><![CDATA[<b>Name:</b> Bristol Bay Campus<br><b>Address:</b> , <br><b>SSID:</b> eduroam<br><b>Enc:</b> WPA2+WPA<br><b>AP:</b> -<br>]]></description>
      <Point>
        <coordinates>-158.4634891,59.0434443,0</coordinates>
      </Point>
    </Placemark>
    <Placemark>
      <name>University of Alaska Fairbanks</name>
      <description><![CDATA[<b>Name:</b> Chukchi<br><b>Address:</b> , <br><b>SSID:</b> eduroam<br><b>Enc:</b> WPA2+WPA<br><b>AP:</b> -<br>]]></description>
      <Point>
        <coordinates>-162.5817361,66.8998963,0</coordinates>
      </Point>
    </Placemark>
    <Placemark>
      <name>University of Alaska Fairbanks</name>
      <description><![CDATA[<b>Name:</b> Fisheries Division<br><b>Address:</b> , <br><b>SSID:</b> eduroam<br><b>Enc:</b> WPA2+WPA<br><b>AP:</b> -<br>]]></description>
      <Point>
        <coordinates>-134.7676342,58.3921433,0</coordinates>
      </Point>
    </Placemark>
    <Placemark>
      <name>University of Alaska Fairbanks</name>
      <description><![CDATA[<b>Name:</b> Kodiak<br><b>Address:</b> , <br><b>SSID:</b> eduroam<br><b>Enc:</b> WPA2+WPA<br><b>AP:</b> -<br>]]></description>
      <Point>
        <coordinates>-152.3950659,57.7843724,0</coordinates>
      </Point>
    </Placemark>
    <Placemark>
      <name>University of Alaska Fairbanks</name>
      <description><![CDATA[<b>Name:</b> Kuskokwim<br><b>Address:</b> , <br><b>SSID:</b> eduroam<br><b>Enc:</b> WPA2+WPA<br><b>AP:</b> -<br>]]></description>
      <Point>
        <coordinates>-161.77513,60.7916572,0</coordinates>
      </Point>
    </Placemark>
    <Placemark>
      <name>University of Alaska Fairbanks</name>
      <description><![CDATA[<b>Name:</b> Main Campus<br><b>Address:</b> , <br><b>SSID:</b> eduroam<br><b>Enc:</b> WPA2+WPA<br><b>AP:</b> -<br>]]></description>
      <Point>
        <coordinates>-147.8492711,64.8575703,0</coordinates>
      </Point>
    </Placemark>
    <Placemark>
      <name>University of Alaska Fairbanks</name>
      <description><![CDATA[<b>Name:</b> Northwest<br><b>Address:</b> , <br><b>SSID:</b> eduroam<br><b>Enc:</b> WPA2+WPA<br><b>AP:</b> -<br>]]></description>
      <Point>
        <coordinates>-165.3958821,64.4959521,0</coordinates>
      </Point>
    </Placemark>
    <Placemark>
      <name>University of Alaska Fairbanks</name>
      <description><![CDATA[<b>Name:</b> Seward<br><b>Address:</b> , <br><b>SSID:</b> eduroam<br><b>Enc:</b> WPA2+WPA<br><b>AP:</b> -<br>]]></description>
      <Point>
        <coordinates>-149.4437563,60.0997408,0</coordinates>
      </Point>
    </Placemark>
  </Document>
</kml>
