<?xml version="1.0" encoding="UTF-8"?>
<kml xmlns="http://www.opengis.net/kml/2.2">
  <Document>
    <name>eduroam — Arizona</name>
    <description><![CDATA[92 eduroam service locations in Arizona.<br><br>Published by <a href="https://scs.nevada.edu/eduroam">NSHE System Computing Services</a>. Learn more about eduroam Support Organizations from <a href="https://incommon.org/eduroam">Internet2</a>, the eduroam National Roaming Operator for the United States.<br>These maps are derived from data published by GÉANT (<a href="https://monitor.eduroam.org/kml/us.kml">monitor.eduroam.org</a>). This is not an official GÉANT or eduroam publication.<br>eduroam is a registered trademark of the GÉANT Association.<br>Region boundaries are derived from US Census Bureau cartographic boundary files, which as works of the US federal government are in the public domain.<br>Maps generated by eduroam-us-regional-maps, which is BSD 3-Clause licensed.]]></description>
    <open>1</open>
    <Placemark>
      <name>Arizona State University</name>
      <description><![CDATA[<b>Name:</b> ASU Polytechnic Campus<br><b>Address:</b> , <br><b>SSID:</b> eduroam<br><b>Enc:</b> WPA2+WPA<br><b>AP:</b> 700<br>]]></description>
      <Point>
        <coordinates>-111.6781654,33.3062665,0</coordinates>
      </Point>
    </Placemark>
    <Placemark>
      <name>Arizona State University</name>
      <description><![CDATA[<b>Name:</b> Downtown Campus<br><b>Address:</b> , <br><b>SSID:</b> eduroam<br><b>Enc:</b> WPA2+WPA<br><b>AP:</b> 300<br>]]></description>
      <Point>
        <coordinates>-112.0734512,33.452957,0</coordinates>
      </Point>
    </Placemark>
    <Placemark>
      <name>Arizona State University</name>
      <description><![CDATA[<b>Name:</b> Lake Havasu Campus<br><b>Address:</b> , <br><b>SSID:</b> eduroam<br><b>Enc:</b> WPA2+WPA<br><b>AP:</b> -<br>]]></description>
      <Point>
        <coordinates>-114.3216077,34.4728334,0</coordinates>
      </Point>
    </Placemark>
    <Placemark>
      <name>Arizona State University</name>
      <description><![CDATA[<b>Name:</b> Tempe Campus<br><b>Address:</b> , <br><b>SSID:</b> eduroam<br><b>Enc:</b> WPA2+WPA<br><b>AP:</b> 12500<br>]]></description>
      <Point>
        <coordinates>-111.936463,33.4170364,0</coordinates>
      </Point>
    </Placemark>
    <Placemark>
      <name>Department of Veterans Affairs</name>
      <description><![CDATA[<b>Name:</b> CRRC<br><b>Address:</b> , <br><b>SSID:</b> eduroam<br><b>Enc:</b> WPA2<br><b>AP:</b> -<br>]]></description>
      <Point>
        <coordinates>-112.04962,33.480731,0</coordinates>
      </Point>
    </Placemark>
    <Placemark>
      <name>Department of Veterans Affairs</name>
      <description><![CDATA[<b>Name:</b> Mesa Contracting Admin<br><b>Address:</b> , <br><b>SSID:</b> eduroam<br><b>Enc:</b> WPA2<br><b>AP:</b> -<br>]]></description>
      <Point>
        <coordinates>-111.6864258,33.3404477,0</coordinates>
      </Point>
    </Placemark>
    <Placemark>
      <name>Department of Veterans Affairs</name>
      <description><![CDATA[<b>Name:</b> Mesa Vet Center<br><b>Address:</b> , <br><b>SSID:</b> eduroam<br><b>Enc:</b> WPA2<br><b>AP:</b> -<br>]]></description>
      <Point>
        <coordinates>-111.8635486,33.3913137,0</coordinates>
      </Point>
    </Placemark>
    <Placemark>
      <name>Department of Veterans Affairs</name>
      <description><![CDATA[<b>Name:</b> Midtown HCC CBOC<br><b>Address:</b> , <br><b>SSID:</b> eduroam<br><b>Enc:</b> WPA2<br><b>AP:</b> -<br>]]></description>
      <Point>
        <coordinates>-112.0917057,33.5107354,0</coordinates>
      </Point>
    </Placemark>
    <Placemark>
      <name>Department of Veterans Affairs</name>
      <description><![CDATA[<b>Name:</b> Northeast CBOC<br><b>Address:</b> , <br><b>SSID:</b> eduroam<br><b>Enc:</b> WPA2<br><b>AP:</b> -<br>]]></description>
      <Point>
        <coordinates>-111.8343025,33.5905904,0</coordinates>
      </Point>
    </Placemark>
    <Placemark>
      <name>Department of Veterans Affairs</name>
      <description><![CDATA[<b>Name:</b> Northwest CBOC<br><b>Address:</b> , <br><b>SSID:</b> eduroam<br><b>Enc:</b> WPA2<br><b>AP:</b> -<br>]]></description>
      <Point>
        <coordinates>-112.3639516,33.6479852,0</coordinates>
      </Point>
    </Placemark>
    <Placemark>
      <name>Department of Veterans Affairs</name>
      <description><![CDATA[<b>Name:</b> OPC<br><b>Address:</b> , <br><b>SSID:</b> eduroam<br><b>Enc:</b> WPA2<br><b>AP:</b> -<br>]]></description>
      <Point>
        <coordinates>-112.0140326,33.4530169,0</coordinates>
      </Point>
    </Placemark>
    <Placemark>
      <name>Department of Veterans Affairs</name>
      <description><![CDATA[<b>Name:</b> Phoenix VA Medical Center<br><b>Address:</b> , <br><b>SSID:</b> eduroam<br><b>Enc:</b> WPA2<br><b>AP:</b> -<br>]]></description>
      <Point>
        <coordinates>-112.066488,33.4972306,0</coordinates>
      </Point>
    </Placemark>
    <Placemark>
      <name>Department of Veterans Affairs</name>
      <description><![CDATA[<b>Name:</b> Prescott VA Medical Center (Northern AZ)<br><b>Address:</b> , <br><b>SSID:</b> eduroam<br><b>Enc:</b> WPA2<br><b>AP:</b> -<br>]]></description>
      <Point>
        <coordinates>-112.451136,34.552605,0</coordinates>
      </Point>
    </Placemark>
    <Placemark>
      <name>Department of Veterans Affairs</name>
      <description><![CDATA[<b>Name:</b> Southeast CBOC<br><b>Address:</b> , <br><b>SSID:</b> eduroam<br><b>Enc:</b> WPA2<br><b>AP:</b> -<br>]]></description>
      <Point>
        <coordinates>-111.7541206,33.2939022,0</coordinates>
      </Point>
    </Placemark>
    <Placemark>
      <name>Department of Veterans Affairs</name>
      <description><![CDATA[<b>Name:</b> Southwest CBOC<br><b>Address:</b> , <br><b>SSID:</b> eduroam<br><b>Enc:</b> WPA2<br><b>AP:</b> -<br>]]></description>
      <Point>
        <coordinates>-112.2587427,33.480539,0</coordinates>
      </Point>
    </Placemark>
    <Placemark>
      <name>Department of Veterans Affairs</name>
      <description><![CDATA[<b>Name:</b> Thunderbird CBOC<br><b>Address:</b> , <br><b>SSID:</b> eduroam<br><b>Enc:</b> WPA2<br><b>AP:</b> -<br>]]></description>
      <Point>
        <coordinates>-112.1132275,33.5726351,0</coordinates>
      </Point>
    </Placemark>
    <Placemark>
      <name>Department of Veterans Affairs</name>
      <description><![CDATA[<b>Name:</b> Univ. of Arizona Dwtn<br><b>Address:</b> , <br><b>SSID:</b> eduroam<br><b>Enc:</b> WPA2<br><b>AP:</b> -<br>]]></description>
      <Point>
        <coordinates>-112.0658314,33.4534351,0</coordinates>
      </Point>
    </Placemark>
    <Placemark>
      <name>Department of Veterans Affairs</name>
      <description><![CDATA[<b>Name:</b> West Valley Vet Center<br><b>Address:</b> , <br><b>SSID:</b> eduroam<br><b>Enc:</b> WPA2<br><b>AP:</b> -<br>]]></description>
      <Point>
        <coordinates>-112.239059,33.612568,0</coordinates>
      </Point>
    </Placemark>
    <Placemark>
      <name>Florence Unified School District #1</name>
      <description><![CDATA[<b>Name:</b> Anthem K-8<br><b>Address:</b> , <br><b>SSID:</b> eduroam<br><b>Enc:</b> WPA2<br><b>AP:</b> -<br>]]></description>
      <Point>
        <coordinates>-111.4751919,33.0579519,0</coordinates>
      </Point>
    </Placemark>
    <Placemark>
      <name>Florence Unified School District #1</name>
      <description><![CDATA[<b>Name:</b> Circle Cross Ranch K-8<br><b>Address:</b> , <br><b>SSID:</b> eduroam<br><b>Enc:</b> WPA2<br><b>AP:</b> -<br>]]></description>
      <Point>
        <coordinates>-111.5709581,33.2041412,0</coordinates>
      </Point>
    </Placemark>
    <Placemark>
      <name>Florence Unified School District #1</name>
      <description><![CDATA[<b>Name:</b> Copper Basin K-8<br><b>Address:</b> , <br><b>SSID:</b> eduroam<br><b>Enc:</b> WPA2<br><b>AP:</b> -<br>]]></description>
      <Point>
        <coordinates>-111.5274973,33.137929,0</coordinates>
      </Point>
    </Placemark>
    <Placemark>
      <name>Florence Unified School District #1</name>
      <description><![CDATA[<b>Name:</b> District Office<br><b>Address:</b> , <br><b>SSID:</b> eduroam<br><b>Enc:</b> WPA2<br><b>AP:</b> 10<br>]]></description>
      <Point>
        <coordinates>-111.3898605,33.0219412,0</coordinates>
      </Point>
    </Placemark>
    <Placemark>
      <name>Florence Unified School District #1</name>
      <description><![CDATA[<b>Name:</b> Florence High School<br><b>Address:</b> , <br><b>SSID:</b> eduroam<br><b>Enc:</b> WPA2<br><b>AP:</b> -<br>]]></description>
      <Point>
        <coordinates>-111.3898605,33.0219412,0</coordinates>
      </Point>
    </Placemark>
    <Placemark>
      <name>Florence Unified School District #1</name>
      <description><![CDATA[<b>Name:</b> Florence K-8<br><b>Address:</b> , <br><b>SSID:</b> eduroam<br><b>Enc:</b> WPA2<br><b>AP:</b> -<br>]]></description>
      <Point>
        <coordinates>-111.3838519,33.0282594,0</coordinates>
      </Point>
    </Placemark>
    <Placemark>
      <name>Florence Unified School District #1</name>
      <description><![CDATA[<b>Name:</b> Magma Ranch K-8<br><b>Address:</b> , <br><b>SSID:</b> eduroam<br><b>Enc:</b> WPA2<br><b>AP:</b> -<br>]]></description>
      <Point>
        <coordinates>-111.447836,33.1535,0</coordinates>
      </Point>
    </Placemark>
    <Placemark>
      <name>Florence Unified School District #1</name>
      <description><![CDATA[<b>Name:</b> Poston Butte High School<br><b>Address:</b> , <br><b>SSID:</b> eduroam<br><b>Enc:</b> WPA2<br><b>AP:</b> -<br>]]></description>
      <Point>
        <coordinates>-111.544171,33.173183,0</coordinates>
      </Point>
    </Placemark>
    <Placemark>
      <name>Florence Unified School District #1</name>
      <description><![CDATA[<b>Name:</b> San Tan Foothills High School<br><b>Address:</b> , <br><b>SSID:</b> eduroam<br><b>Enc:</b> WPA2<br><b>AP:</b> -<br>]]></description>
      <Point>
        <coordinates>-111.5801807,33.1379424,0</coordinates>
      </Point>
    </Placemark>
    <Placemark>
      <name>Florence Unified School District #1</name>
      <description><![CDATA[<b>Name:</b> San Tan Heights K-8<br><b>Address:</b> , <br><b>SSID:</b> eduroam<br><b>Enc:</b> WPA2<br><b>AP:</b> -<br>]]></description>
      <Point>
        <coordinates>-111.5935955,33.178367,0</coordinates>
      </Point>
    </Placemark>
    <Placemark>
      <name>Florence Unified School District #1</name>
      <description><![CDATA[<b>Name:</b> Skyline Ranch K-8<br><b>Address:</b> , <br><b>SSID:</b> eduroam<br><b>Enc:</b> WPA2<br><b>AP:</b> -<br>]]></description>
      <Point>
        <coordinates>-111.578597,33.1856876,0</coordinates>
      </Point>
    </Placemark>
    <Placemark>
      <name>Florence Unified School District #1</name>
      <description><![CDATA[<b>Name:</b> Walker Butte K-8 Logo Walker Butte K-8<br><b>Address:</b> , <br><b>SSID:</b> eduroam<br><b>Enc:</b> WPA2<br><b>AP:</b> -<br>]]></description>
      <Point>
        <coordinates>-111.5539101,33.1482215,0</coordinates>
      </Point>
    </Placemark>
    <Placemark>
      <name>Franklin Pierce University</name>
      <description><![CDATA[<b>Name:</b> Franklin Pierce at Goodyear, Arizona<br><b>Address:</b> , <br><b>SSID:</b> eduroam<br><b>Enc:</b> WPA2+WPA<br><b>AP:</b> 7<br>]]></description>
      <Point>
        <coordinates>-112.3702284,33.4493322,0</coordinates>
      </Point>
    </Placemark>
    <Placemark>
      <name>HyeTech Networks &amp; Security Solutions</name>
      <description><![CDATA[<b>Name:</b> Phoenix Office<br><b>Address:</b> , <br><b>SSID:</b> eduroam<br><b>Enc:</b> WPA2<br><b>AP:</b> 2<br>]]></description>
      <Point>
        <coordinates>-111.9721143,33.353161,0</coordinates>
      </Point>
    </Placemark>
    <Placemark>
      <name>HyeTech Networks &amp; Security Solutions</name>
      <description><![CDATA[<b>Name:</b> PhxDECC<br><b>Address:</b> , <br><b>SSID:</b> eduroam<br><b>Enc:</b> WPA2+WPA<br><b>AP:</b> 1<br>]]></description>
      <Point>
        <coordinates>-112.1398079,33.5029708,0</coordinates>
      </Point>
    </Placemark>
    <Placemark>
      <name>HyeTech Networks &amp; Security Solutions</name>
      <description><![CDATA[<b>Name:</b> Sean's Haus<br><b>Address:</b> , <br><b>SSID:</b> eduroam<br><b>Enc:</b> WPA2+WPA<br><b>AP:</b> 1<br>]]></description>
      <Point>
        <coordinates>-111.8088365,33.5935264,0</coordinates>
      </Point>
    </Placemark>
    <Placemark>
      <name>Lowell Observatory</name>
      <description><![CDATA[<b>Name:</b> Lowell Observatory<br><b>Address:</b> , <br><b>SSID:</b> eduroam<br><b>Enc:</b> WPA2<br><b>AP:</b> 38<br>]]></description>
      <Point>
        <coordinates>-111.6647611,35.2019551,0</coordinates>
      </Point>
    </Placemark>
    <Placemark>
      <name>Lowell Observatory</name>
      <description><![CDATA[<b>Name:</b> Mars Hill<br><b>Address:</b> , <br><b>SSID:</b> eduroam<br><b>Enc:</b> WPA2+WPA<br><b>AP:</b> 7<br>]]></description>
      <Point>
        <coordinates>-111.6640231,35.2023415,0</coordinates>
      </Point>
    </Placemark>
    <Placemark>
      <name>Maricopa County Community College District</name>
      <description><![CDATA[<b>Name:</b> Chandler Gilbert Community College<br><b>Address:</b> , <br><b>SSID:</b> eduroam<br><b>Enc:</b> WPA3+WPA2+WPA<br><b>AP:</b> 163<br>]]></description>
      <Point>
        <coordinates>-111.7958913,33.2933427,0</coordinates>
      </Point>
    </Placemark>
    <Placemark>
      <name>Maricopa County Community College District</name>
      <description><![CDATA[<b>Name:</b> District Office<br><b>Address:</b> , <br><b>SSID:</b> eduroam<br><b>Enc:</b> WPA3+WPA2+WPA<br><b>AP:</b> 64<br>]]></description>
      <Point>
        <coordinates>-111.9758169,33.4130032,0</coordinates>
      </Point>
    </Placemark>
    <Placemark>
      <name>Maricopa County Community College District</name>
      <description><![CDATA[<b>Name:</b> Estrella Mountain Community College<br><b>Address:</b> , <br><b>SSID:</b> eduroam<br><b>Enc:</b> WPA3+WPA2+WPA<br><b>AP:</b> 167<br>]]></description>
      <Point>
        <coordinates>-112.3434611,33.4804594,0</coordinates>
      </Point>
    </Placemark>
    <Placemark>
      <name>Maricopa County Community College District</name>
      <description><![CDATA[<b>Name:</b> GateWay Community College<br><b>Address:</b> , <br><b>SSID:</b> eduroam<br><b>Enc:</b> WPA3+WPA2+WPA<br><b>AP:</b> 260<br>]]></description>
      <Point>
        <coordinates>-111.9968639,33.4507462,0</coordinates>
      </Point>
    </Placemark>
    <Placemark>
      <name>Maricopa County Community College District</name>
      <description><![CDATA[<b>Name:</b> Glendale Community College<br><b>Address:</b> , <br><b>SSID:</b> eduroam<br><b>Enc:</b> WPA3+WPA2+WPA<br><b>AP:</b> 235<br>]]></description>
      <Point>
        <coordinates>-112.1908271,33.5694333,0</coordinates>
      </Point>
    </Placemark>
    <Placemark>
      <name>Maricopa County Community College District</name>
      <description><![CDATA[<b>Name:</b> Mesa Community College<br><b>Address:</b> , <br><b>SSID:</b> eduroam<br><b>Enc:</b> WPA3+WPA2+WPA<br><b>AP:</b> 166<br>]]></description>
      <Point>
        <coordinates>-111.8719964,33.3916488,0</coordinates>
      </Point>
    </Placemark>
    <Placemark>
      <name>Maricopa County Community College District</name>
      <description><![CDATA[<b>Name:</b> Paradise Valley Community College<br><b>Address:</b> , <br><b>SSID:</b> eduroam<br><b>Enc:</b> WPA3+WPA2+WPA<br><b>AP:</b> 200<br>]]></description>
      <Point>
        <coordinates>-112.0107974,33.6515443,0</coordinates>
      </Point>
    </Placemark>
    <Placemark>
      <name>Maricopa County Community College District</name>
      <description><![CDATA[<b>Name:</b> Phoenix College - Main Office<br><b>Address:</b> , <br><b>SSID:</b> eduroam<br><b>Enc:</b> WPA3+WPA2+WPA<br><b>AP:</b> 351<br>]]></description>
      <Point>
        <coordinates>-112.0906723,33.4814939,0</coordinates>
      </Point>
    </Placemark>
    <Placemark>
      <name>Maricopa County Community College District</name>
      <description><![CDATA[<b>Name:</b> Rio Salado Community College<br><b>Address:</b> , <br><b>SSID:</b> eduroam<br><b>Enc:</b> WPA3+WPA2+WPA<br><b>AP:</b> 93<br>]]></description>
      <Point>
        <coordinates>-111.9746991,33.4130438,0</coordinates>
      </Point>
    </Placemark>
    <Placemark>
      <name>Maricopa County Community College District</name>
      <description><![CDATA[<b>Name:</b> Scottsdale Community College<br><b>Address:</b> , <br><b>SSID:</b> eduroam<br><b>Enc:</b> WPA2+WPA<br><b>AP:</b> 253<br>]]></description>
      <Point>
        <coordinates>-111.8828774,33.5129962,0</coordinates>
      </Point>
    </Placemark>
    <Placemark>
      <name>Maricopa County Community College District</name>
      <description><![CDATA[<b>Name:</b> South Mountain Community College<br><b>Address:</b> , <br><b>SSID:</b> eduroam<br><b>Enc:</b> WPA3+WPA2+WPA<br><b>AP:</b> 149<br>]]></description>
      <Point>
        <coordinates>-112.0342233,33.3832378,0</coordinates>
      </Point>
    </Placemark>
    <Placemark>
      <name>Mary C O’Brien Accommodation District #90</name>
      <description><![CDATA[<b>Name:</b> Pinal County Schools Business Services<br><b>Address:</b> , <br><b>SSID:</b> eduroam<br><b>Enc:</b> WPA2<br><b>AP:</b> 10<br>]]></description>
      <Point>
        <coordinates>-111.3866781,33.0320282,0</coordinates>
      </Point>
    </Placemark>
    <Placemark>
      <name>National Optical Astronomy Observatory</name>
      <description><![CDATA[<b>Name:</b> Main Campus<br><b>Address:</b> , <br><b>SSID:</b> eduroam<br><b>Enc:</b> WPA2+WPA<br><b>AP:</b> 50<br>]]></description>
      <Point>
        <coordinates>-110.9481053,32.2333747,0</coordinates>
      </Point>
    </Placemark>
    <Placemark>
      <name>Northern Arizona University</name>
      <description><![CDATA[<b>Name:</b> MTN Campus<br><b>Address:</b> , <br><b>SSID:</b> eduroam<br><b>Enc:</b> WPA2<br><b>AP:</b> 3800<br>]]></description>
      <Point>
        <coordinates>-111.6570931,35.1875564,0</coordinates>
      </Point>
    </Placemark>
    <Placemark>
      <name>NSF's National Optical-Infrared Astronomy Research Laboratory</name>
      <description><![CDATA[<b>Name:</b> NSF's NOIRLab - Headquarters<br><b>Address:</b> , <br><b>SSID:</b> eduroam<br><b>Enc:</b> WPA2+WPA<br><b>AP:</b> 35<br>]]></description>
      <Point>
        <coordinates>-110.9473558,32.2333507,0</coordinates>
      </Point>
    </Placemark>
    <Placemark>
      <name>Pima Community College</name>
      <description><![CDATA[<b>Name:</b> Aviation Technology<br><b>Address:</b> , <br><b>SSID:</b> eduroam<br><b>Enc:</b> WPA2+WPA<br><b>AP:</b> 75<br>]]></description>
      <Point>
        <coordinates>-110.9592207,32.1206104,0</coordinates>
      </Point>
    </Placemark>
    <Placemark>
      <name>Pima Community College</name>
      <description><![CDATA[<b>Name:</b> Desert Vista Campus<br><b>Address:</b> , <br><b>SSID:</b> eduroam<br><b>Enc:</b> WPA2+WPA<br><b>AP:</b> 101<br>]]></description>
      <Point>
        <coordinates>-110.9886648,32.1447392,0</coordinates>
      </Point>
    </Placemark>
    <Placemark>
      <name>Pima Community College</name>
      <description><![CDATA[<b>Name:</b> DMAFB Education Center<br><b>Address:</b> , <br><b>SSID:</b> eduroam<br><b>Enc:</b> WPA2+WPA<br><b>AP:</b> 3<br>]]></description>
      <Point>
        <coordinates>-110.8768539,32.1829071,0</coordinates>
      </Point>
    </Placemark>
    <Placemark>
      <name>Pima Community College</name>
      <description><![CDATA[<b>Name:</b> Downtown Campus<br><b>Address:</b> , <br><b>SSID:</b> eduroam<br><b>Enc:</b> WPA2+WPA<br><b>AP:</b> 270<br>]]></description>
      <Point>
        <coordinates>-110.9726446,32.2372917,0</coordinates>
      </Point>
    </Placemark>
    <Placemark>
      <name>Pima Community College</name>
      <description><![CDATA[<b>Name:</b> East Campus<br><b>Address:</b> , <br><b>SSID:</b> eduroam<br><b>Enc:</b> WPA2+WPA<br><b>AP:</b> 111<br>]]></description>
      <Point>
        <coordinates>-110.817294,32.1660931,0</coordinates>
      </Point>
    </Placemark>
    <Placemark>
      <name>Pima Community College</name>
      <description><![CDATA[<b>Name:</b> Maintenance and Security<br><b>Address:</b> , <br><b>SSID:</b> eduroam<br><b>Enc:</b> WPA2+WPA<br><b>AP:</b> 17<br>]]></description>
      <Point>
        <coordinates>-110.9274579,32.1307615,0</coordinates>
      </Point>
    </Placemark>
    <Placemark>
      <name>Pima Community College</name>
      <description><![CDATA[<b>Name:</b> Northwest Campus<br><b>Address:</b> , <br><b>SSID:</b> eduroam<br><b>Enc:</b> WPA2+WPA<br><b>AP:</b> 100<br>]]></description>
      <Point>
        <coordinates>-111.0268531,32.3431437,0</coordinates>
      </Point>
    </Placemark>
    <Placemark>
      <name>Pima Community College</name>
      <description><![CDATA[<b>Name:</b> PCC 29th Street Coalition Center<br><b>Address:</b> , <br><b>SSID:</b> eduroam<br><b>Enc:</b> WPA2+WPA<br><b>AP:</b> 57<br>]]></description>
      <Point>
        <coordinates>-110.8996241,32.1990746,0</coordinates>
      </Point>
    </Placemark>
    <Placemark>
      <name>Pima Community College</name>
      <description><![CDATA[<b>Name:</b> Pima College District Office<br><b>Address:</b> , <br><b>SSID:</b> eduroam<br><b>Enc:</b> WPA2+WPA<br><b>AP:</b> 42<br>]]></description>
      <Point>
        <coordinates>-110.8866317,32.2221098,0</coordinates>
      </Point>
    </Placemark>
    <Placemark>
      <name>Pima Community College</name>
      <description><![CDATA[<b>Name:</b> West Campus<br><b>Address:</b> , <br><b>SSID:</b> eduroam<br><b>Enc:</b> WPA2+WPA<br><b>AP:</b> 303<br>]]></description>
      <Point>
        <coordinates>-111.0147445,32.2303416,0</coordinates>
      </Point>
    </Placemark>
    <Placemark>
      <name>Planetary Science Institute</name>
      <description><![CDATA[<b>Name:</b> Planetary Science Institute - Headquarters<br><b>Address:</b> , <br><b>SSID:</b> eduroam<br><b>Enc:</b> WPA2<br><b>AP:</b> 7<br>]]></description>
      <Point>
        <coordinates>-110.9463653,32.2643706,0</coordinates>
      </Point>
    </Placemark>
    <Placemark>
      <name>Unicon, Inc.</name>
      <description><![CDATA[<b>Name:</b> Unicon, Inc.<br><b>Address:</b> , <br><b>SSID:</b> eduroam<br><b>Enc:</b> WPA2<br><b>AP:</b> 1<br>]]></description>
      <Point>
        <coordinates>-111.8211127,33.3483808,0</coordinates>
      </Point>
    </Placemark>
    <Placemark>
      <name>University of Arizona</name>
      <description><![CDATA[<b>Name:</b> Phoenix BioMedical Campus<br><b>Address:</b> , <br><b>SSID:</b> eduroam<br><b>Enc:</b> WPA2+WPA<br><b>AP:</b> 420<br>]]></description>
      <Point>
        <coordinates>-112.065569,33.4517102,0</coordinates>
      </Point>
    </Placemark>
    <Placemark>
      <name>University of Arizona</name>
      <description><![CDATA[<b>Name:</b> Univeristy of Arizona - Main Campus<br><b>Address:</b> , <br><b>SSID:</b> eduroam<br><b>Enc:</b> WPA2+WPA<br><b>AP:</b> 9610<br>]]></description>
      <Point>
        <coordinates>-110.9517,32.235682,0</coordinates>
      </Point>
    </Placemark>
    <Placemark>
      <name>University of Arizona</name>
      <description><![CDATA[<b>Name:</b> University of Arizona South<br><b>Address:</b> , <br><b>SSID:</b> eduroam<br><b>Enc:</b> WPA2+WPA<br><b>AP:</b> 50<br>]]></description>
      <Point>
        <coordinates>-110.2476243,31.5640341,0</coordinates>
      </Point>
    </Placemark>
    <Placemark>
      <name>Vail Unified School District</name>
      <description><![CDATA[<b>Name:</b> Acacia Elementary School<br><b>Address:</b> , <br><b>SSID:</b> eduroam<br><b>Enc:</b> WPA2<br><b>AP:</b> 25<br>]]></description>
      <Point>
        <coordinates>-110.7179175,32.041515,0</coordinates>
      </Point>
    </Placemark>
    <Placemark>
      <name>Vail Unified School District</name>
      <description><![CDATA[<b>Name:</b> Andrada Polytechnic High School<br><b>Address:</b> , <br><b>SSID:</b> eduroam<br><b>Enc:</b> WPA2<br><b>AP:</b> 52<br>]]></description>
      <Point>
        <coordinates>-110.7760364,32.0185763,0</coordinates>
      </Point>
    </Placemark>
    <Placemark>
      <name>Vail Unified School District</name>
      <description><![CDATA[<b>Name:</b> Calvin Baker Leadership Center<br><b>Address:</b> , <br><b>SSID:</b> eduroam<br><b>Enc:</b> WPA2<br><b>AP:</b> 30<br>]]></description>
      <Point>
        <coordinates>-110.6982419,32.0155212,0</coordinates>
      </Point>
    </Placemark>
    <Placemark>
      <name>Vail Unified School District</name>
      <description><![CDATA[<b>Name:</b> Cienega High School<br><b>Address:</b> , <br><b>SSID:</b> eduroam<br><b>Enc:</b> WPA2<br><b>AP:</b> 106<br>]]></description>
      <Point>
        <coordinates>-110.7214945,32.0572253,0</coordinates>
      </Point>
    </Placemark>
    <Placemark>
      <name>Vail Unified School District</name>
      <description><![CDATA[<b>Name:</b> Civano Community School<br><b>Address:</b> , <br><b>SSID:</b> eduroam<br><b>Enc:</b> WPA2<br><b>AP:</b> 9<br>]]></description>
      <Point>
        <coordinates>-110.7648296,32.1484996,0</coordinates>
      </Point>
    </Placemark>
    <Placemark>
      <name>Vail Unified School District</name>
      <description><![CDATA[<b>Name:</b> Copper Ridge Elementary School<br><b>Address:</b> , <br><b>SSID:</b> eduroam<br><b>Enc:</b> WPA2<br><b>AP:</b> 23<br>]]></description>
      <Point>
        <coordinates>-110.8008251,31.9348608,0</coordinates>
      </Point>
    </Placemark>
    <Placemark>
      <name>Vail Unified School District</name>
      <description><![CDATA[<b>Name:</b> Corona Foothills Middle School<br><b>Address:</b> , <br><b>SSID:</b> eduroam<br><b>Enc:</b> WPA2<br><b>AP:</b> 39<br>]]></description>
      <Point>
        <coordinates>-110.7722389,31.9517728,0</coordinates>
      </Point>
    </Placemark>
    <Placemark>
      <name>Vail Unified School District</name>
      <description><![CDATA[<b>Name:</b> Cottonwood Elementary School<br><b>Address:</b> , <br><b>SSID:</b> eduroam<br><b>Enc:</b> WPA2<br><b>AP:</b> 24<br>]]></description>
      <Point>
        <coordinates>-110.7808872,32.0943957,0</coordinates>
      </Point>
    </Placemark>
    <Placemark>
      <name>Vail Unified School District</name>
      <description><![CDATA[<b>Name:</b> Desert Sky Middle School<br><b>Address:</b> , <br><b>SSID:</b> eduroam<br><b>Enc:</b> WPA2<br><b>AP:</b> 53<br>]]></description>
      <Point>
        <coordinates>-110.7817828,32.1067234,0</coordinates>
      </Point>
    </Placemark>
    <Placemark>
      <name>Vail Unified School District</name>
      <description><![CDATA[<b>Name:</b> Desert Willow Elementary School<br><b>Address:</b> , <br><b>SSID:</b> eduroam<br><b>Enc:</b> WPA2<br><b>AP:</b> 30<br>]]></description>
      <Point>
        <coordinates>-110.7919626,32.1039376,0</coordinates>
      </Point>
    </Placemark>
    <Placemark>
      <name>Vail Unified School District</name>
      <description><![CDATA[<b>Name:</b> Empire High School<br><b>Address:</b> , <br><b>SSID:</b> eduroam<br><b>Enc:</b> WPA2<br><b>AP:</b> 77<br>]]></description>
      <Point>
        <coordinates>-110.7645597,32.087172,0</coordinates>
      </Point>
    </Placemark>
    <Placemark>
      <name>Vail Unified School District</name>
      <description><![CDATA[<b>Name:</b> Esmond Station K-8 School<br><b>Address:</b> , <br><b>SSID:</b> eduroam<br><b>Enc:</b> WPA2<br><b>AP:</b> 43<br>]]></description>
      <Point>
        <coordinates>-110.754045,32.0825515,0</coordinates>
      </Point>
    </Placemark>
    <Placemark>
      <name>Vail Unified School District</name>
      <description><![CDATA[<b>Name:</b> Mesquite Elementary School<br><b>Address:</b> , <br><b>SSID:</b> eduroam<br><b>Enc:</b> WPA2<br><b>AP:</b> 28<br>]]></description>
      <Point>
        <coordinates>-110.7913753,32.1151946,0</coordinates>
      </Point>
    </Placemark>
    <Placemark>
      <name>Vail Unified School District</name>
      <description><![CDATA[<b>Name:</b> Mica Mountain High School<br><b>Address:</b> , <br><b>SSID:</b> eduroam<br><b>Enc:</b> WPA2<br><b>AP:</b> 88<br>]]></description>
      <Point>
        <coordinates>-110.7634771,32.115665,0</coordinates>
      </Point>
    </Placemark>
    <Placemark>
      <name>Vail Unified School District</name>
      <description><![CDATA[<b>Name:</b> Ocotillo Ridge Elementary School<br><b>Address:</b> , <br><b>SSID:</b> eduroam<br><b>Enc:</b> WPA2<br><b>AP:</b> 28<br>]]></description>
      <Point>
        <coordinates>-110.7034748,32.0677004,0</coordinates>
      </Point>
    </Placemark>
    <Placemark>
      <name>Vail Unified School District</name>
      <description><![CDATA[<b>Name:</b> Old Vail Middle School<br><b>Address:</b> , <br><b>SSID:</b> eduroam<br><b>Enc:</b> WPA2<br><b>AP:</b> 48<br>]]></description>
      <Point>
        <coordinates>-110.7113734,32.0497057,0</coordinates>
      </Point>
    </Placemark>
    <Placemark>
      <name>Vail Unified School District</name>
      <description><![CDATA[<b>Name:</b> Pantano High School<br><b>Address:</b> , <br><b>SSID:</b> eduroam<br><b>Enc:</b> WPA2<br><b>AP:</b> 11<br>]]></description>
      <Point>
        <coordinates>-110.782668,32.012271,0</coordinates>
      </Point>
    </Placemark>
    <Placemark>
      <name>Vail Unified School District</name>
      <description><![CDATA[<b>Name:</b> Rincon Vista Middle School<br><b>Address:</b> , <br><b>SSID:</b> eduroam<br><b>Enc:</b> WPA2<br><b>AP:</b> 43<br>]]></description>
      <Point>
        <coordinates>-110.7623154,32.1384086,0</coordinates>
      </Point>
    </Placemark>
    <Placemark>
      <name>Vail Unified School District</name>
      <description><![CDATA[<b>Name:</b> Saguaro Creek K-8 School<br><b>Address:</b> , <br><b>SSID:</b> eduroam<br><b>Enc:</b> WPA2<br><b>AP:</b> 43<br>]]></description>
      <Point>
        <coordinates>-110.7118064,32.102282,0</coordinates>
      </Point>
    </Placemark>
    <Placemark>
      <name>Vail Unified School District</name>
      <description><![CDATA[<b>Name:</b> Senita Valley Elementary School<br><b>Address:</b> , <br><b>SSID:</b> eduroam<br><b>Enc:</b> WPA2<br><b>AP:</b> 26<br>]]></description>
      <Point>
        <coordinates>-110.7620825,32.1399147,0</coordinates>
      </Point>
    </Placemark>
    <Placemark>
      <name>Vail Unified School District</name>
      <description><![CDATA[<b>Name:</b> Sycamore Elementary School<br><b>Address:</b> , <br><b>SSID:</b> eduroam<br><b>Enc:</b> WPA2<br><b>AP:</b> 31<br>]]></description>
      <Point>
        <coordinates>-110.7702153,31.9528131,0</coordinates>
      </Point>
    </Placemark>
    <Placemark>
      <name>Vail Unified School District</name>
      <description><![CDATA[<b>Name:</b> Vail Academy and High School<br><b>Address:</b> , <br><b>SSID:</b> eduroam<br><b>Enc:</b> WPA2<br><b>AP:</b> 38<br>]]></description>
      <Point>
        <coordinates>-110.8274358,32.0967095,0</coordinates>
      </Point>
    </Placemark>
    <Placemark>
      <name>Vail Unified School District</name>
      <description><![CDATA[<b>Name:</b> Vail Inclusive Preschool (CHS Campus)<br><b>Address:</b> , <br><b>SSID:</b> eduroam<br><b>Enc:</b> WPA2<br><b>AP:</b> 21<br>]]></description>
      <Point>
        <coordinates>-110.7214945,32.0572253,0</coordinates>
      </Point>
    </Placemark>
    <Placemark>
      <name>Vail Unified School District</name>
      <description><![CDATA[<b>Name:</b> Vail Inclusive Preschool (MMHS Campus)<br><b>Address:</b> , <br><b>SSID:</b> eduroam<br><b>Enc:</b> WPA2<br><b>AP:</b> 12<br>]]></description>
      <Point>
        <coordinates>-110.7634771,32.115665,0</coordinates>
      </Point>
    </Placemark>
    <Placemark>
      <name>Vail Unified School District</name>
      <description><![CDATA[<b>Name:</b> Vail Innovation Center<br><b>Address:</b> , <br><b>SSID:</b> eduroam<br><b>Enc:</b> WPA2<br><b>AP:</b> 10<br>]]></description>
      <Point>
        <coordinates>-110.7617851,32.0877263,0</coordinates>
      </Point>
    </Placemark>
    <Placemark>
      <name>Wireless LAN Professionals</name>
      <description><![CDATA[<b>Name:</b> #WLPC Phoenix 2023<br><b>Address:</b> , <br><b>SSID:</b> eduroam<br><b>Enc:</b> WPA3+WPA2+WPA<br><b>AP:</b> 12<br>]]></description>
      <Point>
        <coordinates>-112.044316,33.5466478,0</coordinates>
      </Point>
    </Placemark>
  </Document>
</kml>
