<?xml version="1.0" encoding="UTF-8"?>
<kml xmlns="http://www.opengis.net/kml/2.2">
  <Document>
    <name>eduroam — Ohio</name>
    <description><![CDATA[73 eduroam service locations in Ohio.<br><br>Published by <a href="https://scs.nevada.edu/eduroam">NSHE System Computing Services</a>. Learn more about eduroam Support Organizations from <a href="https://incommon.org/eduroam">Internet2</a>, the eduroam National Roaming Operator for the United States.<br>Service location data comes from the eduroam location database published by GÉANT (<a href="https://monitor.eduroam.org/kml/us.kml">monitor.eduroam.org</a>). These maps are derived from it and are not an official GÉANT or eduroam publication.<br>eduroam is a registered trademark of GÉANT Vereniging.<br>Region boundaries are derived from US Census Bureau cartographic boundary files, which as works of the US federal government are in the public domain.<br>Maps generated by eduroam-us-regional-maps, which is BSD 3-Clause licensed.]]></description>
    <open>1</open>
    <Placemark>
      <name>Antioch University</name>
      <description><![CDATA[<b>Name:</b> Antioch University - Midwest<br><b>Address:</b> , <br><b>SSID:</b> eduroam<br><b>Enc:</b> WPA2<br><b>AP:</b> 37<br>]]></description>
      <Point>
        <coordinates>-83.9086492,39.8035189,0</coordinates>
      </Point>
    </Placemark>
    <Placemark>
      <name>Ashland University</name>
      <description><![CDATA[<b>Name:</b> Ashland University Columbus Campus<br><b>Address:</b> , <br><b>SSID:</b> eduroam<br><b>Enc:</b> WPA2+WPA<br><b>AP:</b> 25<br>]]></description>
      <Point>
        <coordinates>-82.9673359,40.0876954,0</coordinates>
      </Point>
    </Placemark>
    <Placemark>
      <name>Ashland University</name>
      <description><![CDATA[<b>Name:</b> Main Campus<br><b>Address:</b> , <br><b>SSID:</b> eduroam<br><b>Enc:</b> WPA2<br><b>AP:</b> 500<br>]]></description>
      <Point>
        <coordinates>-82.3204377,40.8608357,0</coordinates>
      </Point>
    </Placemark>
    <Placemark>
      <name>Bowling Green State University</name>
      <description><![CDATA[<b>Name:</b> Bowling Green State University<br><b>Address:</b> , <br><b>SSID:</b> eduroam<br><b>Enc:</b> WPA2<br><b>AP:</b> 3400<br>]]></description>
      <Point>
        <coordinates>-83.6393788,41.3779576,0</coordinates>
      </Point>
    </Placemark>
    <Placemark>
      <name>Case Western Reserve University</name>
      <description><![CDATA[<b>Name:</b> Main Campus<br><b>Address:</b> , <br><b>SSID:</b> eduroam<br><b>Enc:</b> WPA2+WPA<br><b>AP:</b> -<br>]]></description>
      <Point>
        <coordinates>-81.609732,41.50462,0</coordinates>
      </Point>
    </Placemark>
    <Placemark>
      <name>Cedarville University</name>
      <description><![CDATA[<b>Name:</b> Main Campus<br><b>Address:</b> , <br><b>SSID:</b> eduroam<br><b>Enc:</b> WPA2<br><b>AP:</b> 700<br>]]></description>
      <Point>
        <coordinates>-83.8123291,39.7502781,0</coordinates>
      </Point>
    </Placemark>
    <Placemark>
      <name>Cleveland State University</name>
      <description><![CDATA[<b>Name:</b> Main Campus<br><b>Address:</b> , <br><b>SSID:</b> eduroam<br><b>Enc:</b> WPA2+WPA<br><b>AP:</b> -<br>]]></description>
      <Point>
        <coordinates>-81.6744728,41.5032717,0</coordinates>
      </Point>
    </Placemark>
    <Placemark>
      <name>Columbus College of Art &amp; Design</name>
      <description><![CDATA[<b>Name:</b> Columbus College of Art &amp; Design<br><b>Address:</b> , <br><b>SSID:</b> eduroam<br><b>Enc:</b> WPA3<br><b>AP:</b> 317<br>]]></description>
      <Point>
        <coordinates>-82.989466,39.9651306,0</coordinates>
      </Point>
    </Placemark>
    <Placemark>
      <name>Columbus State Community College</name>
      <description><![CDATA[<b>Name:</b> Columbus Campus<br><b>Address:</b> , <br><b>SSID:</b> eduroam<br><b>Enc:</b> WPA2+WPA<br><b>AP:</b> 585<br>]]></description>
      <Point>
        <coordinates>-82.988572,39.969708,0</coordinates>
      </Point>
    </Placemark>
    <Placemark>
      <name>Columbus State Community College</name>
      <description><![CDATA[<b>Name:</b> Delaware Campus<br><b>Address:</b> , <br><b>SSID:</b> eduroam<br><b>Enc:</b> WPA2+WPA<br><b>AP:</b> 47<br>]]></description>
      <Point>
        <coordinates>-83.0391195,40.225826,0</coordinates>
      </Point>
    </Placemark>
    <Placemark>
      <name>Columbus State Community College</name>
      <description><![CDATA[<b>Name:</b> Dublin<br><b>Address:</b> , <br><b>SSID:</b> eduroam<br><b>Enc:</b> WPA2+WPA<br><b>AP:</b> 19<br>]]></description>
      <Point>
        <coordinates>-83.176213,40.1178095,0</coordinates>
      </Point>
    </Placemark>
    <Placemark>
      <name>Columbus State Community College</name>
      <description><![CDATA[<b>Name:</b> Southwest at Bolton Field<br><b>Address:</b> , <br><b>SSID:</b> eduroam<br><b>Enc:</b> WPA2+WPA<br><b>AP:</b> 18<br>]]></description>
      <Point>
        <coordinates>-83.1367069,39.9108554,0</coordinates>
      </Point>
    </Placemark>
    <Placemark>
      <name>Denison University</name>
      <description><![CDATA[<b>Name:</b> Main Campus<br><b>Address:</b> , <br><b>SSID:</b> eduroam<br><b>Enc:</b> WPA2+WPA<br><b>AP:</b> -<br>]]></description>
      <Point>
        <coordinates>-82.521793,40.071408,0</coordinates>
      </Point>
    </Placemark>
    <Placemark>
      <name>Department of Veterans Affairs</name>
      <description><![CDATA[<b>Name:</b> Cincinnati VA Medical Center<br><b>Address:</b> , <br><b>SSID:</b> eduroam<br><b>Enc:</b> WPA2<br><b>AP:</b> -<br>]]></description>
      <Point>
        <coordinates>-84.5082791,39.1397552,0</coordinates>
      </Point>
    </Placemark>
    <Placemark>
      <name>Department of Veterans Affairs</name>
      <description><![CDATA[<b>Name:</b> Cleveland VA Medical Center<br><b>Address:</b> , <br><b>SSID:</b> eduroam<br><b>Enc:</b> WPA2<br><b>AP:</b> -<br>]]></description>
      <Point>
        <coordinates>-81.6132358,41.5134812,0</coordinates>
      </Point>
    </Placemark>
    <Placemark>
      <name>Franklin University</name>
      <description><![CDATA[<b>Name:</b> Franklin University Main Campus<br><b>Address:</b> , <br><b>SSID:</b> eduroam<br><b>Enc:</b> WPA2+WPA<br><b>AP:</b> 105<br>]]></description>
      <Point>
        <coordinates>-82.9914004,39.9569169,0</coordinates>
      </Point>
    </Placemark>
    <Placemark>
      <name>Hebrew Union College-Jewish Institute of Religion</name>
      <description><![CDATA[<b>Name:</b> Cincinnati<br><b>Address:</b> , <br><b>SSID:</b> eduroam<br><b>Enc:</b> WPA2+WPA<br><b>AP:</b> -<br>]]></description>
      <Point>
        <coordinates>-84.520226,39.138374,0</coordinates>
      </Point>
    </Placemark>
    <Placemark>
      <name>John Carroll University</name>
      <description><![CDATA[<b>Name:</b> Main Campus<br><b>Address:</b> , <br><b>SSID:</b> eduroam<br><b>Enc:</b> WPA2+WPA<br><b>AP:</b> -<br>]]></description>
      <Point>
        <coordinates>-81.532639,41.4891954,0</coordinates>
      </Point>
    </Placemark>
    <Placemark>
      <name>Kent State University</name>
      <description><![CDATA[<b>Name:</b> Kent State University Ashtabula<br><b>Address:</b> , <br><b>SSID:</b> eduroam<br><b>Enc:</b> WPA2+WPA<br><b>AP:</b> 190<br>]]></description>
      <Point>
        <coordinates>-80.8299813,41.8912646,0</coordinates>
      </Point>
    </Placemark>
    <Placemark>
      <name>Kent State University</name>
      <description><![CDATA[<b>Name:</b> Kent State University College of Podiatric Medicine<br><b>Address:</b> , <br><b>SSID:</b> eduroam<br><b>Enc:</b> WPA2+WPA<br><b>AP:</b> 64<br>]]></description>
      <Point>
        <coordinates>-81.648439,41.400409,0</coordinates>
      </Point>
    </Placemark>
    <Placemark>
      <name>Kent State University</name>
      <description><![CDATA[<b>Name:</b> Kent State University East Liverpool<br><b>Address:</b> , <br><b>SSID:</b> eduroam<br><b>Enc:</b> WPA2+WPA<br><b>AP:</b> 48<br>]]></description>
      <Point>
        <coordinates>-80.5770222,40.6171793,0</coordinates>
      </Point>
    </Placemark>
    <Placemark>
      <name>Kent State University</name>
      <description><![CDATA[<b>Name:</b> Kent State University Geauga<br><b>Address:</b> , <br><b>SSID:</b> eduroam<br><b>Enc:</b> WPA2+WPA<br><b>AP:</b> 22<br>]]></description>
      <Point>
        <coordinates>-81.138946,41.484418,0</coordinates>
      </Point>
    </Placemark>
    <Placemark>
      <name>Kent State University</name>
      <description><![CDATA[<b>Name:</b> Kent State University Main Campus<br><b>Address:</b> , <br><b>SSID:</b> eduroam<br><b>Enc:</b> WPA2+WPA<br><b>AP:</b> 2650<br>]]></description>
      <Point>
        <coordinates>-81.3365601,41.1432636,0</coordinates>
      </Point>
    </Placemark>
    <Placemark>
      <name>Kent State University</name>
      <description><![CDATA[<b>Name:</b> Kent State University Salem<br><b>Address:</b> , <br><b>SSID:</b> eduroam<br><b>Enc:</b> WPA2+WPA<br><b>AP:</b> 54<br>]]></description>
      <Point>
        <coordinates>-80.8329655,40.8641223,0</coordinates>
      </Point>
    </Placemark>
    <Placemark>
      <name>Kent State University</name>
      <description><![CDATA[<b>Name:</b> Kent State University Stark<br><b>Address:</b> , <br><b>SSID:</b> eduroam<br><b>Enc:</b> WPA2+WPA<br><b>AP:</b> 139<br>]]></description>
      <Point>
        <coordinates>-81.4374463,40.8670808,0</coordinates>
      </Point>
    </Placemark>
    <Placemark>
      <name>Kent State University</name>
      <description><![CDATA[<b>Name:</b> Kent State University Trumbull<br><b>Address:</b> , <br><b>SSID:</b> eduroam<br><b>Enc:</b> WPA2+WPA<br><b>AP:</b> 103<br>]]></description>
      <Point>
        <coordinates>-80.837042,41.278768,0</coordinates>
      </Point>
    </Placemark>
    <Placemark>
      <name>Kent State University</name>
      <description><![CDATA[<b>Name:</b> Kent State University Tuscarawas<br><b>Address:</b> , <br><b>SSID:</b> eduroam<br><b>Enc:</b> WPA2+WPA<br><b>AP:</b> 250<br>]]></description>
      <Point>
        <coordinates>-81.4071415,40.4678681,0</coordinates>
      </Point>
    </Placemark>
    <Placemark>
      <name>Kent State University</name>
      <description><![CDATA[<b>Name:</b> Kent State University Twinsburg<br><b>Address:</b> , <br><b>SSID:</b> eduroam<br><b>Enc:</b> WPA2+WPA<br><b>AP:</b> 38<br>]]></description>
      <Point>
        <coordinates>-81.4342211,41.3063722,0</coordinates>
      </Point>
    </Placemark>
    <Placemark>
      <name>Kenyon College</name>
      <description><![CDATA[<b>Name:</b> Kenyon College<br><b>Address:</b> , <br><b>SSID:</b> eduroam<br><b>Enc:</b> WPA2<br><b>AP:</b> -<br>]]></description>
      <Point>
        <coordinates>-82.3966193,40.3743867,0</coordinates>
      </Point>
    </Placemark>
    <Placemark>
      <name>Malone University</name>
      <description><![CDATA[<b>Name:</b> Main Campus<br><b>Address:</b> , <br><b>SSID:</b> eduroam<br><b>Enc:</b> WPA2<br><b>AP:</b> -<br>]]></description>
      <Point>
        <coordinates>-81.3758926,40.823968,0</coordinates>
      </Point>
    </Placemark>
    <Placemark>
      <name>Miami University of Ohio</name>
      <description><![CDATA[<b>Name:</b> Hamilton Campus<br><b>Address:</b> , <br><b>SSID:</b> eduroam<br><b>Enc:</b> WPA2+WPA<br><b>AP:</b> 300<br>]]></description>
      <Point>
        <coordinates>-84.5624664,39.3787195,0</coordinates>
      </Point>
    </Placemark>
    <Placemark>
      <name>Miami University of Ohio</name>
      <description><![CDATA[<b>Name:</b> Middletown Campus<br><b>Address:</b> , <br><b>SSID:</b> eduroam<br><b>Enc:</b> WPA2+WPA<br><b>AP:</b> 200<br>]]></description>
      <Point>
        <coordinates>-84.3565357,39.5257426,0</coordinates>
      </Point>
    </Placemark>
    <Placemark>
      <name>Miami University of Ohio</name>
      <description><![CDATA[<b>Name:</b> Oxford Main Campus<br><b>Address:</b> , <br><b>SSID:</b> eduroam<br><b>Enc:</b> WPA2+WPA<br><b>AP:</b> 8000<br>]]></description>
      <Point>
        <coordinates>-84.7344848,39.509463,0</coordinates>
      </Point>
    </Placemark>
    <Placemark>
      <name>Miami University of Ohio</name>
      <description><![CDATA[<b>Name:</b> Voice of America Learning Center<br><b>Address:</b> , <br><b>SSID:</b> eduroam<br><b>Enc:</b> WPA2+WPA<br><b>AP:</b> 25<br>]]></description>
      <Point>
        <coordinates>-84.3629291,39.3606391,0</coordinates>
      </Point>
    </Placemark>
    <Placemark>
      <name>North Central State College</name>
      <description><![CDATA[<b>Name:</b> North Central State College - Kehoe Campus<br><b>Address:</b> , <br><b>SSID:</b> eduroam<br><b>Enc:</b> WPA2+WPA<br><b>AP:</b> 66<br>]]></description>
      <Point>
        <coordinates>-82.6418451,40.8700905,0</coordinates>
      </Point>
    </Placemark>
    <Placemark>
      <name>North Central State College</name>
      <description><![CDATA[<b>Name:</b> North Central State College - Main Campus<br><b>Address:</b> , <br><b>SSID:</b> eduroam<br><b>Enc:</b> WPA2+WPA<br><b>AP:</b> 100<br>]]></description>
      <Point>
        <coordinates>-82.5820085,40.799281,0</coordinates>
      </Point>
    </Placemark>
    <Placemark>
      <name>Oberlin College</name>
      <description><![CDATA[<b>Name:</b> Oberlin College<br><b>Address:</b> , <br><b>SSID:</b> eduroam<br><b>Enc:</b> WPA2+WPA<br><b>AP:</b> 1200<br>]]></description>
      <Point>
        <coordinates>-82.2228427,41.2931134,0</coordinates>
      </Point>
    </Placemark>
    <Placemark>
      <name>Ohio State University</name>
      <description><![CDATA[<b>Name:</b> The Ohio State University at Lima<br><b>Address:</b> , <br><b>SSID:</b> eduroam<br><b>Enc:</b> WPA2<br><b>AP:</b> -<br>]]></description>
      <Point>
        <coordinates>-84.0250864,40.7358707,0</coordinates>
      </Point>
    </Placemark>
    <Placemark>
      <name>Ohio State University</name>
      <description><![CDATA[<b>Name:</b> The Ohio State University at Mansfield<br><b>Address:</b> , <br><b>SSID:</b> eduroam<br><b>Enc:</b> WPA2<br><b>AP:</b> -<br>]]></description>
      <Point>
        <coordinates>-82.5794396,40.7971264,0</coordinates>
      </Point>
    </Placemark>
    <Placemark>
      <name>Ohio State University</name>
      <description><![CDATA[<b>Name:</b> The Ohio State University at Marion<br><b>Address:</b> , <br><b>SSID:</b> eduroam<br><b>Enc:</b> WPA2<br><b>AP:</b> -<br>]]></description>
      <Point>
        <coordinates>-83.0912447,40.5785649,0</coordinates>
      </Point>
    </Placemark>
    <Placemark>
      <name>Ohio State University</name>
      <description><![CDATA[<b>Name:</b> The Ohio State University at Newark<br><b>Address:</b> , <br><b>SSID:</b> eduroam<br><b>Enc:</b> WPA2<br><b>AP:</b> -<br>]]></description>
      <Point>
        <coordinates>-82.4474024,40.0672244,0</coordinates>
      </Point>
    </Placemark>
    <Placemark>
      <name>Ohio State University</name>
      <description><![CDATA[<b>Name:</b> The Ohio State University at Wooster<br><b>Address:</b> , <br><b>SSID:</b> eduroam<br><b>Enc:</b> WPA2<br><b>AP:</b> -<br>]]></description>
      <Point>
        <coordinates>-81.9280332,40.7790577,0</coordinates>
      </Point>
    </Placemark>
    <Placemark>
      <name>Ohio State University</name>
      <description><![CDATA[<b>Name:</b> The Ohio State University Columbus<br><b>Address:</b> , <br><b>SSID:</b> eduroam<br><b>Enc:</b> WPA2<br><b>AP:</b> -<br>]]></description>
      <Point>
        <coordinates>-83.0132446,40.0007775,0</coordinates>
      </Point>
    </Placemark>
    <Placemark>
      <name>Ohio University</name>
      <description><![CDATA[<b>Name:</b> Athens Campus (Main)<br><b>Address:</b> , <br><b>SSID:</b> eduroam<br><b>Enc:</b> WPA2<br><b>AP:</b> -<br>]]></description>
      <Point>
        <coordinates>-82.1009933,39.3267327,0</coordinates>
      </Point>
    </Placemark>
    <Placemark>
      <name>Ohio University</name>
      <description><![CDATA[<b>Name:</b> Chillicothe Campus<br><b>Address:</b> , <br><b>SSID:</b> eduroam<br><b>Enc:</b> WPA2<br><b>AP:</b> -<br>]]></description>
      <Point>
        <coordinates>-83.0048819,39.3283868,0</coordinates>
      </Point>
    </Placemark>
    <Placemark>
      <name>Ohio University</name>
      <description><![CDATA[<b>Name:</b> Cleveland Campus<br><b>Address:</b> , <br><b>SSID:</b> eduroam<br><b>Enc:</b> WPA2<br><b>AP:</b> -<br>]]></description>
      <Point>
        <coordinates>-81.5382899,41.4458861,0</coordinates>
      </Point>
    </Placemark>
    <Placemark>
      <name>Ohio University</name>
      <description><![CDATA[<b>Name:</b> Dublin Campus<br><b>Address:</b> , <br><b>SSID:</b> eduroam<br><b>Enc:</b> WPA2<br><b>AP:</b> -<br>]]></description>
      <Point>
        <coordinates>-83.1839921,40.1067797,0</coordinates>
      </Point>
    </Placemark>
    <Placemark>
      <name>Ohio University</name>
      <description><![CDATA[<b>Name:</b> Eastern Campus<br><b>Address:</b> , <br><b>SSID:</b> eduroam<br><b>Enc:</b> WPA2<br><b>AP:</b> -<br>]]></description>
      <Point>
        <coordinates>-80.9761919,40.0754942,0</coordinates>
      </Point>
    </Placemark>
    <Placemark>
      <name>Ohio University</name>
      <description><![CDATA[<b>Name:</b> Lancaster Campus<br><b>Address:</b> , <br><b>SSID:</b> eduroam<br><b>Enc:</b> WPA2<br><b>AP:</b> -<br>]]></description>
      <Point>
        <coordinates>-82.5863511,39.738496,0</coordinates>
      </Point>
    </Placemark>
    <Placemark>
      <name>Ohio University</name>
      <description><![CDATA[<b>Name:</b> Southern Campus<br><b>Address:</b> , <br><b>SSID:</b> eduroam<br><b>Enc:</b> WPA2<br><b>AP:</b> -<br>]]></description>
      <Point>
        <coordinates>-82.6662343,38.525202,0</coordinates>
      </Point>
    </Placemark>
    <Placemark>
      <name>Ohio University</name>
      <description><![CDATA[<b>Name:</b> Zanesville Campus<br><b>Address:</b> , <br><b>SSID:</b> eduroam<br><b>Enc:</b> WPA2<br><b>AP:</b> -<br>]]></description>
      <Point>
        <coordinates>-82.0317349,39.9625051,0</coordinates>
      </Point>
    </Placemark>
    <Placemark>
      <name>Ohio University Inn and Conference Center</name>
      <description><![CDATA[<b>Name:</b> Ohio University Inn and Conference Center<br><b>Address:</b> , <br><b>SSID:</b> eduroam<br><b>Enc:</b> WPA2+WPA<br><b>AP:</b> 30<br>]]></description>
      <Point>
        <coordinates>-82.1065361,39.3170184,0</coordinates>
      </Point>
    </Placemark>
    <Placemark>
      <name>Otterbein Unversity</name>
      <description><![CDATA[<b>Name:</b> Main Campus<br><b>Address:</b> , <br><b>SSID:</b> eduroam<br><b>Enc:</b> WPA2+WPA<br><b>AP:</b> -<br>]]></description>
      <Point>
        <coordinates>-82.9363279,40.1253397,0</coordinates>
      </Point>
    </Placemark>
    <Placemark>
      <name>Sinclair Community College</name>
      <description><![CDATA[<b>Name:</b> SCC Courseview Campus<br><b>Address:</b> , <br><b>SSID:</b> eduroam<br><b>Enc:</b> WPA2+WPA<br><b>AP:</b> 10<br>]]></description>
      <Point>
        <coordinates>-84.2686987,39.3533146,0</coordinates>
      </Point>
    </Placemark>
    <Placemark>
      <name>Sinclair Community College</name>
      <description><![CDATA[<b>Name:</b> Sinclair Community College<br><b>Address:</b> , <br><b>SSID:</b> eduroam<br><b>Enc:</b> WPA2<br><b>AP:</b> 700<br>]]></description>
      <Point>
        <coordinates>-84.1993987,39.7572689,0</coordinates>
      </Point>
    </Placemark>
    <Placemark>
      <name>Talawanda School District</name>
      <description><![CDATA[<b>Name:</b> Bogan Elementary School<br><b>Address:</b> , <br><b>SSID:</b> eduroam<br><b>Enc:</b> WPA2<br><b>AP:</b> -<br>]]></description>
      <Point>
        <coordinates>-84.666076,39.5171934,0</coordinates>
      </Point>
    </Placemark>
    <Placemark>
      <name>Talawanda School District</name>
      <description><![CDATA[<b>Name:</b> Kramer Elementary School<br><b>Address:</b> , <br><b>SSID:</b> eduroam<br><b>Enc:</b> WPA2<br><b>AP:</b> -<br>]]></description>
      <Point>
        <coordinates>-84.7501238,39.5159809,0</coordinates>
      </Point>
    </Placemark>
    <Placemark>
      <name>Talawanda School District</name>
      <description><![CDATA[<b>Name:</b> Marshall Elementary School<br><b>Address:</b> , <br><b>SSID:</b> eduroam<br><b>Enc:</b> WPA2<br><b>AP:</b> -<br>]]></description>
      <Point>
        <coordinates>-84.7007847,39.4694984,0</coordinates>
      </Point>
    </Placemark>
    <Placemark>
      <name>Talawanda School District</name>
      <description><![CDATA[<b>Name:</b> Talawanda High School<br><b>Address:</b> , <br><b>SSID:</b> eduroam<br><b>Enc:</b> WPA2<br><b>AP:</b> -<br>]]></description>
      <Point>
        <coordinates>-84.7328861,39.489966,0</coordinates>
      </Point>
    </Placemark>
    <Placemark>
      <name>Talawanda School District</name>
      <description><![CDATA[<b>Name:</b> Talawanda Middle School<br><b>Address:</b> , <br><b>SSID:</b> eduroam<br><b>Enc:</b> WPA2<br><b>AP:</b> -<br>]]></description>
      <Point>
        <coordinates>-84.7573974,39.4884871,0</coordinates>
      </Point>
    </Placemark>
    <Placemark>
      <name>The College of Wooster</name>
      <description><![CDATA[<b>Name:</b> The College of Wooster<br><b>Address:</b> , <br><b>SSID:</b> eduroam<br><b>Enc:</b> WPA2<br><b>AP:</b> 1400<br>]]></description>
      <Point>
        <coordinates>-81.9336319,40.8112108,0</coordinates>
      </Point>
    </Placemark>
    <Placemark>
      <name>The Hub Dayton</name>
      <description><![CDATA[<b>Name:</b> Greater West Dayton Incubator<br><b>Address:</b> , <br><b>SSID:</b> eduroam<br><b>Enc:</b> WPA2+WPA<br><b>AP:</b> 2<br>]]></description>
      <Point>
        <coordinates>-84.2121683,39.7563395,0</coordinates>
      </Point>
    </Placemark>
    <Placemark>
      <name>The Hub Dayton</name>
      <description><![CDATA[<b>Name:</b> The Hub Dayton<br><b>Address:</b> , <br><b>SSID:</b> eduroam<br><b>Enc:</b> WPA2+WPA<br><b>AP:</b> 75<br>]]></description>
      <Point>
        <coordinates>-84.192227,39.758539,0</coordinates>
      </Point>
    </Placemark>
    <Placemark>
      <name>University of Akron Main Campus</name>
      <description><![CDATA[<b>Name:</b> University of Akron<br><b>Address:</b> , <br><b>SSID:</b> eduroam<br><b>Enc:</b> WPA2<br><b>AP:</b> -<br>]]></description>
      <Point>
        <coordinates>-81.5156616,41.0756713,0</coordinates>
      </Point>
    </Placemark>
    <Placemark>
      <name>University of Akron Main Campus</name>
      <description><![CDATA[<b>Name:</b> University of Akron<br><b>Address:</b> , <br><b>SSID:</b> eduroam<br><b>Enc:</b> WPA2+WPA<br><b>AP:</b> 3000<br>]]></description>
      <Point>
        <coordinates>-81.5112192,41.0730496,0</coordinates>
      </Point>
    </Placemark>
    <Placemark>
      <name>University of Cincinnati-Main Campus</name>
      <description><![CDATA[<b>Name:</b> Main Campus<br><b>Address:</b> , <br><b>SSID:</b> eduroam<br><b>Enc:</b> WPA2+WPA<br><b>AP:</b> 5000<br>]]></description>
      <Point>
        <coordinates>-84.5155759,39.1325563,0</coordinates>
      </Point>
    </Placemark>
    <Placemark>
      <name>University of Dayton</name>
      <description><![CDATA[<b>Name:</b> Main Campus<br><b>Address:</b> , <br><b>SSID:</b> eduroam<br><b>Enc:</b> WPA2+WPA<br><b>AP:</b> 2500<br>]]></description>
      <Point>
        <coordinates>-84.1801454,39.740267,0</coordinates>
      </Point>
    </Placemark>
    <Placemark>
      <name>University of Northwestern Ohio</name>
      <description><![CDATA[<b>Name:</b> Main Campus<br><b>Address:</b> , <br><b>SSID:</b> eduroam<br><b>Enc:</b> WPA2+WPA<br><b>AP:</b> 175<br>]]></description>
      <Point>
        <coordinates>-84.1487721,40.759084,0</coordinates>
      </Point>
    </Placemark>
    <Placemark>
      <name>University of Rio Grande</name>
      <description><![CDATA[<b>Name:</b> Main Campus<br><b>Address:</b> , <br><b>SSID:</b> eduroam<br><b>Enc:</b> WPA2<br><b>AP:</b> -<br>]]></description>
      <Point>
        <coordinates>-82.3791237,38.8826764,0</coordinates>
      </Point>
    </Placemark>
    <Placemark>
      <name>University of Toledo</name>
      <description><![CDATA[<b>Name:</b> University of Toledo Main Campus<br><b>Address:</b> , <br><b>SSID:</b> eduroam<br><b>Enc:</b> WPA2<br><b>AP:</b> -<br>]]></description>
      <Point>
        <coordinates>-83.6118792,41.661644,0</coordinates>
      </Point>
    </Placemark>
    <Placemark>
      <name>Wittenberg University</name>
      <description><![CDATA[<b>Name:</b> Wittenberg University Campus<br><b>Address:</b> , <br><b>SSID:</b> eduroam<br><b>Enc:</b> WPA2<br><b>AP:</b> -<br>]]></description>
      <Point>
        <coordinates>-83.8154157,39.9340577,0</coordinates>
      </Point>
    </Placemark>
    <Placemark>
      <name>Wright State University</name>
      <description><![CDATA[<b>Name:</b> Wright State University<br><b>Address:</b> , <br><b>SSID:</b> eduroam<br><b>Enc:</b> WPA2+WPA<br><b>AP:</b> 2025<br>]]></description>
      <Point>
        <coordinates>-84.0592127,39.778275,0</coordinates>
      </Point>
    </Placemark>
    <Placemark>
      <name>Zane State College</name>
      <description><![CDATA[<b>Name:</b> Zanesville Campus<br><b>Address:</b> , <br><b>SSID:</b> eduroam<br><b>Enc:</b> WPA2+WPA<br><b>AP:</b> 127<br>]]></description>
      <Point>
        <coordinates>-82.0329896,39.9601407,0</coordinates>
      </Point>
    </Placemark>
  </Document>
</kml>
