<?xml version="1.0" encoding="UTF-8"?>
<kml xmlns="http://www.opengis.net/kml/2.2">
  <Document>
    <name>eduroam — Alabama</name>
    <description><![CDATA[11 eduroam service locations in Alabama.<br><br>Published by <a href="https://scs.nevada.edu/eduroam">NSHE System Computing Services</a>. Learn more about eduroam Support Organizations from <a href="https://incommon.org/eduroam">Internet2</a>, the eduroam National Roaming Operator for the United States.<br>These maps are derived from data published by GÉANT (<a href="https://monitor.eduroam.org/kml/us.kml">monitor.eduroam.org</a>). This is not an official GÉANT or eduroam publication.<br>eduroam is a registered trademark of the GÉANT Association.<br>Region boundaries are derived from US Census Bureau cartographic boundary files, which as works of the US federal government are in the public domain.<br>Maps generated by eduroam-us-regional-maps, which is BSD 3-Clause licensed.]]></description>
    <open>1</open>
    <Placemark>
      <name>Alabama A&amp;M University</name>
      <description><![CDATA[<b>Name:</b> AAMU Campus-Normal<br><b>Address:</b> , <br><b>SSID:</b> eduroam<br><b>Enc:</b> WPA3+WPA2+WPA<br><b>AP:</b> 1200<br>]]></description>
      <Point>
        <coordinates>-86.5701188,34.783485,0</coordinates>
      </Point>
    </Placemark>
    <Placemark>
      <name>Alabama Community College System</name>
      <description><![CDATA[<b>Name:</b> Alabama Community College System - Innovation Center<br><b>Address:</b> , <br><b>SSID:</b> eduroam<br><b>Enc:</b> WPA2<br><b>AP:</b> 10<br>]]></description>
      <Point>
        <coordinates>-87.0081482,34.6097055,0</coordinates>
      </Point>
    </Placemark>
    <Placemark>
      <name>Alabama Community College System</name>
      <description><![CDATA[<b>Name:</b> Alabama Community College System - System Office<br><b>Address:</b> , <br><b>SSID:</b> eduroam<br><b>Enc:</b> WPA2 + WPA3<br><b>AP:</b> 32<br>]]></description>
      <Point>
        <coordinates>-86.2992527,32.375758,0</coordinates>
      </Point>
    </Placemark>
    <Placemark>
      <name>Alabama Community College System</name>
      <description><![CDATA[<b>Name:</b> Bishop State Community College<br><b>Address:</b> , <br><b>SSID:</b> eduroam<br><b>Enc:</b> WPA2<br><b>AP:</b> -<br>]]></description>
      <Point>
        <coordinates>-88.0567847,30.695018,0</coordinates>
      </Point>
    </Placemark>
    <Placemark>
      <name>Apogee Telecom</name>
      <description><![CDATA[<b>Name:</b> AAMU<br><b>Address:</b> , <br><b>SSID:</b> eduroam<br><b>Enc:</b> WPA2<br><b>AP:</b> 611<br>]]></description>
      <Point>
        <coordinates>-86.5722237,34.7838409,0</coordinates>
      </Point>
    </Placemark>
    <Placemark>
      <name>Auburn University</name>
      <description><![CDATA[<b>Name:</b> Auburn University<br><b>Address:</b> , <br><b>SSID:</b> eduroam<br><b>Enc:</b> WPA2<br><b>AP:</b> 6400<br>]]></description>
      <Point>
        <coordinates>-85.4856231,32.5943805,0</coordinates>
      </Point>
    </Placemark>
    <Placemark>
      <name>Auburn University</name>
      <description><![CDATA[<b>Name:</b> Jordan Hare Stadium<br><b>Address:</b> , <br><b>SSID:</b> eduroam<br><b>Enc:</b> WPA2<br><b>AP:</b> 400<br>]]></description>
      <Point>
        <coordinates>-85.4883086,32.6022492,0</coordinates>
      </Point>
    </Placemark>
    <Placemark>
      <name>The University of Alabama</name>
      <description><![CDATA[<b>Name:</b> Main Campus<br><b>Address:</b> , <br><b>SSID:</b> eduroam<br><b>Enc:</b> WPA2<br><b>AP:</b> -<br>]]></description>
      <Point>
        <coordinates>-87.546032,33.211803,0</coordinates>
      </Point>
    </Placemark>
    <Placemark>
      <name>University of Alabama at Birmingham</name>
      <description><![CDATA[<b>Name:</b> Main Campus<br><b>Address:</b> , <br><b>SSID:</b> eduroam<br><b>Enc:</b> WPA2+WPA<br><b>AP:</b> -<br>]]></description>
      <Point>
        <coordinates>-86.8053507,33.5028281,0</coordinates>
      </Point>
    </Placemark>
    <Placemark>
      <name>University of Alabama in Huntsville</name>
      <description><![CDATA[<b>Name:</b> Main Campus<br><b>Address:</b> , <br><b>SSID:</b> eduroam<br><b>Enc:</b> WPA2<br><b>AP:</b> 1409<br>]]></description>
      <Point>
        <coordinates>-86.6411956,34.725868,0</coordinates>
      </Point>
    </Placemark>
    <Placemark>
      <name>VCOM</name>
      <description><![CDATA[<b>Name:</b> VCOM-AC<br><b>Address:</b> , <br><b>SSID:</b> eduroam<br><b>Enc:</b> WPA2<br><b>AP:</b> 50<br>]]></description>
      <Point>
        <coordinates>-85.4911722,32.5893978,0</coordinates>
      </Point>
    </Placemark>
  </Document>
</kml>
