<?xml version="1.0" encoding="UTF-8"?>
<kml xmlns="http://www.opengis.net/kml/2.2">
  <Document>
    <name>eduroam — Colorado</name>
    <description><![CDATA[20 eduroam service locations in Colorado.<br><br>Published by <a href="https://scs.nevada.edu/eduroam">NSHE System Computing Services</a>. Learn more about eduroam Support Organizations from <a href="https://incommon.org/eduroam">Internet2</a>, the eduroam National Roaming Operator for the United States.<br>Service location data comes from the eduroam location database published by GÉANT (<a href="https://monitor.eduroam.org/kml/us.kml">monitor.eduroam.org</a>). These maps are derived from it and are not an official GÉANT or eduroam publication.<br>eduroam is a registered trademark of GÉANT Vereniging.<br>Region boundaries are derived from US Census Bureau cartographic boundary files, which as works of the US federal government are in the public domain.<br>Maps generated by eduroam-us-regional-maps, which is BSD 3-Clause licensed.]]></description>
    <open>1</open>
    <Placemark>
      <name>Colorado College</name>
      <description><![CDATA[<b>Name:</b> Colorado College - Main Campus<br><b>Address:</b> , <br><b>SSID:</b> eduroam<br><b>Enc:</b> WPA2+WPA<br><b>AP:</b> 1200<br>]]></description>
      <Point>
        <coordinates>-104.824394,38.846594,0</coordinates>
      </Point>
    </Placemark>
    <Placemark>
      <name>Colorado School of Mines</name>
      <description><![CDATA[<b>Name:</b> Mines Campus<br><b>Address:</b> , <br><b>SSID:</b> eduroam<br><b>Enc:</b> WPA2+WPA<br><b>AP:</b> 1354<br>]]></description>
      <Point>
        <coordinates>-105.2225769,39.7510216,0</coordinates>
      </Point>
    </Placemark>
    <Placemark>
      <name>Colorado State University</name>
      <description><![CDATA[<b>Name:</b> Main Campus<br><b>Address:</b> , <br><b>SSID:</b> eduroam<br><b>Enc:</b> WPA2+WPA<br><b>AP:</b> 4000<br>]]></description>
      <Point>
        <coordinates>-105.0877501,40.5737341,0</coordinates>
      </Point>
    </Placemark>
    <Placemark>
      <name>Department of Veterans Affairs</name>
      <description><![CDATA[<b>Name:</b> Rocky Mountain VA Medical Center<br><b>Address:</b> , <br><b>SSID:</b> eduroam<br><b>Enc:</b> WPA2<br><b>AP:</b> -<br>]]></description>
      <Point>
        <coordinates>-104.82971,39.74341,0</coordinates>
      </Point>
    </Placemark>
    <Placemark>
      <name>Department of Veterans Affairs</name>
      <description><![CDATA[<b>Name:</b> VISN19 Office CBOC<br><b>Address:</b> , <br><b>SSID:</b> eduroam<br><b>Enc:</b> WPA2<br><b>AP:</b> -<br>]]></description>
      <Point>
        <coordinates>-104.93957,39.69666,0</coordinates>
      </Point>
    </Placemark>
    <Placemark>
      <name>Fort Lewis College</name>
      <description><![CDATA[<b>Name:</b> Fort Lewis College - Main Campus<br><b>Address:</b> , <br><b>SSID:</b> eduroam<br><b>Enc:</b> WPA2+WPA<br><b>AP:</b> 485<br>]]></description>
      <Point>
        <coordinates>-107.8710381,37.2737453,0</coordinates>
      </Point>
    </Placemark>
    <Placemark>
      <name>Internet2</name>
      <description><![CDATA[<b>Name:</b> Denver<br><b>Address:</b> , <br><b>SSID:</b> eduroam<br><b>Enc:</b> WPA2+WPA<br><b>AP:</b> 2<br>]]></description>
      <Point>
        <coordinates>-104.9887066,39.7447003,0</coordinates>
      </Point>
    </Placemark>
    <Placemark>
      <name>National Oceanic and Atmospheric Administration</name>
      <description><![CDATA[<b>Name:</b> Boulder Campus<br><b>Address:</b> , <br><b>SSID:</b> eduroam<br><b>Enc:</b> WPA2+WPA<br><b>AP:</b> -<br>]]></description>
      <Point>
        <coordinates>-105.2611899,39.9917397,0</coordinates>
      </Point>
    </Placemark>
    <Placemark>
      <name>Nicole’s House</name>
      <description><![CDATA[<b>Name:</b> Dobbs Farms<br><b>Address:</b> , <br><b>SSID:</b> eduroam<br><b>Enc:</b> WPA3<br><b>AP:</b> 2<br>]]></description>
      <Point>
        <coordinates>-104.7476634,39.6048851,0</coordinates>
      </Point>
    </Placemark>
    <Placemark>
      <name>University Corporation For Atmospheric Research</name>
      <description><![CDATA[<b>Name:</b> Main Campus<br><b>Address:</b> , <br><b>SSID:</b> eduroam<br><b>Enc:</b> WPA2+WPA<br><b>AP:</b> 220<br>]]></description>
      <Point>
        <coordinates>-105.2750307,39.9783179,0</coordinates>
      </Point>
    </Placemark>
    <Placemark>
      <name>University of Colorado at Boulder</name>
      <description><![CDATA[<b>Name:</b> Main Campus<br><b>Address:</b> , <br><b>SSID:</b> eduroam<br><b>Enc:</b> WPA2+WPA<br><b>AP:</b> -<br>]]></description>
      <Point>
        <coordinates>-105.2659417,40.007581,0</coordinates>
      </Point>
    </Placemark>
    <Placemark>
      <name>University of Colorado at Colorado Springs</name>
      <description><![CDATA[<b>Name:</b> UCCS Campus<br><b>Address:</b> , <br><b>SSID:</b> eduroam<br><b>Enc:</b> WPA2+WPA<br><b>AP:</b> 1700<br>]]></description>
      <Point>
        <coordinates>-104.7994766,38.8922508,0</coordinates>
      </Point>
    </Placemark>
    <Placemark>
      <name>University of Colorado Denver</name>
      <description><![CDATA[<b>Name:</b> CU Anschutz<br><b>Address:</b> , <br><b>SSID:</b> eduroam<br><b>Enc:</b> WPA2+WPA<br><b>AP:</b> 1150<br>]]></description>
      <Point>
        <coordinates>-104.8377087,39.7451768,0</coordinates>
      </Point>
    </Placemark>
    <Placemark>
      <name>University of Colorado Denver</name>
      <description><![CDATA[<b>Name:</b> Main Campus<br><b>Address:</b> , <br><b>SSID:</b> eduroam<br><b>Enc:</b> WPA2+WPA<br><b>AP:</b> -<br>]]></description>
      <Point>
        <coordinates>-105.0042536,39.7434456,0</coordinates>
      </Point>
    </Placemark>
    <Placemark>
      <name>University of Colorado System Administration</name>
      <description><![CDATA[<b>Name:</b> CU System Administration Offices<br><b>Address:</b> , <br><b>SSID:</b> eduroam<br><b>Enc:</b> WPA2+WPA<br><b>AP:</b> 50<br>]]></description>
      <Point>
        <coordinates>-104.9831072,39.7452143,0</coordinates>
      </Point>
    </Placemark>
    <Placemark>
      <name>University of Colorado System Administration</name>
      <description><![CDATA[<b>Name:</b> University of Colorado Advancement<br><b>Address:</b> , <br><b>SSID:</b> eduroam<br><b>Enc:</b> WPA2+WPA<br><b>AP:</b> 8<br>]]></description>
      <Point>
        <coordinates>-105.1179469,39.9161238,0</coordinates>
      </Point>
    </Placemark>
    <Placemark>
      <name>University of Denver</name>
      <description><![CDATA[<b>Name:</b> Main Campus<br><b>Address:</b> , <br><b>SSID:</b> eduroam<br><b>Enc:</b> WPA2+WPA<br><b>AP:</b> -<br>]]></description>
      <Point>
        <coordinates>-104.9615738,39.6766456,0</coordinates>
      </Point>
    </Placemark>
    <Placemark>
      <name>University of Northern Colorado</name>
      <description><![CDATA[<b>Name:</b> University of Northern Colorado<br><b>Address:</b> , <br><b>SSID:</b> eduroam<br><b>Enc:</b> WPA2+WPA<br><b>AP:</b> 600<br>]]></description>
      <Point>
        <coordinates>-104.6857479,40.4064511,0</coordinates>
      </Point>
    </Placemark>
    <Placemark>
      <name>Valor Christian High School</name>
      <description><![CDATA[<b>Name:</b> Valor Christian High School<br><b>Address:</b> , <br><b>SSID:</b> eduroam<br><b>Enc:</b> WPA2+WPA<br><b>AP:</b> 130<br>]]></description>
      <Point>
        <coordinates>-104.9448524,39.5407367,0</coordinates>
      </Point>
    </Placemark>
    <Placemark>
      <name>Western Colorado University</name>
      <description><![CDATA[<b>Name:</b> Western Colorado University<br><b>Address:</b> , <br><b>SSID:</b> eduroam<br><b>Enc:</b> WPA2+WPA<br><b>AP:</b> 420<br>]]></description>
      <Point>
        <coordinates>-106.9183423,38.5466336,0</coordinates>
      </Point>
    </Placemark>
  </Document>
</kml>
