<?xml version="1.0" encoding="UTF-8"?>
<kml xmlns="http://www.opengis.net/kml/2.2">
  <Document>
    <name>eduroam — New Mexico</name>
    <description><![CDATA[18 eduroam service locations in New Mexico.<br><br>Published by <a href="https://scs.nevada.edu/eduroam">NSHE System Computing Services</a>. Learn more about eduroam Support Organizations from <a href="https://incommon.org/eduroam">Internet2</a>, the eduroam National Roaming Operator for the United States.<br>These maps are derived from data published by GÉANT (<a href="https://monitor.eduroam.org/kml/us.kml">monitor.eduroam.org</a>). This is not an official GÉANT or eduroam publication.<br>eduroam is a registered trademark of the GÉANT Association.<br>Region boundaries are derived from US Census Bureau cartographic boundary files, which as works of the US federal government are in the public domain.<br>Maps generated by eduroam-us-regional-maps, which is BSD 3-Clause licensed.]]></description>
    <open>1</open>
    <Placemark>
      <name>Department of Veterans Affairs</name>
      <description><![CDATA[<b>Name:</b> Albuquerque VA Medical Center<br><b>Address:</b> , <br><b>SSID:</b> eduroam<br><b>Enc:</b> WPA2<br><b>AP:</b> -<br>]]></description>
      <Point>
        <coordinates>-106.581727,35.055276,0</coordinates>
      </Point>
    </Placemark>
    <Placemark>
      <name>Gallup McKinley County Schools</name>
      <description><![CDATA[<b>Name:</b> Crownpoint High<br><b>Address:</b> , <br><b>SSID:</b> eduroam<br><b>Enc:</b> WPA2+WPA<br><b>AP:</b> 30<br>]]></description>
      <Point>
        <coordinates>-108.1569702,35.6925393,0</coordinates>
      </Point>
    </Placemark>
    <Placemark>
      <name>Gallup McKinley County Schools</name>
      <description><![CDATA[<b>Name:</b> David Skeet Elementary<br><b>Address:</b> , <br><b>SSID:</b> eduroam<br><b>Enc:</b> WPA2+WPA<br><b>AP:</b> 20<br>]]></description>
      <Point>
        <coordinates>-108.7638125,35.3076875,0</coordinates>
      </Point>
    </Placemark>
    <Placemark>
      <name>Gallup McKinley County Schools</name>
      <description><![CDATA[<b>Name:</b> Gallup Central High<br><b>Address:</b> , <br><b>SSID:</b> eduroam<br><b>Enc:</b> WPA2+WPA<br><b>AP:</b> 25<br>]]></description>
      <Point>
        <coordinates>-108.7701416,35.5156351,0</coordinates>
      </Point>
    </Placemark>
    <Placemark>
      <name>Gallup McKinley County Schools</name>
      <description><![CDATA[<b>Name:</b> Gallup High<br><b>Address:</b> , <br><b>SSID:</b> eduroam<br><b>Enc:</b> WPA2+WPA<br><b>AP:</b> 40<br>]]></description>
      <Point>
        <coordinates>-108.8196856,35.4953344,0</coordinates>
      </Point>
    </Placemark>
    <Placemark>
      <name>Gallup McKinley County Schools</name>
      <description><![CDATA[<b>Name:</b> GMCS Student Support Center<br><b>Address:</b> , <br><b>SSID:</b> eduroam<br><b>Enc:</b> WPA2+WPA<br><b>AP:</b> 16<br>]]></description>
      <Point>
        <coordinates>-108.7078661,35.5186565,0</coordinates>
      </Point>
    </Placemark>
    <Placemark>
      <name>Gallup McKinley County Schools</name>
      <description><![CDATA[<b>Name:</b> Indian Hills Elementary<br><b>Address:</b> , <br><b>SSID:</b> eduroam<br><b>Enc:</b> WPA2+WPA<br><b>AP:</b> 30<br>]]></description>
      <Point>
        <coordinates>-108.6758125,35.5275625,0</coordinates>
      </Point>
    </Placemark>
    <Placemark>
      <name>Gallup McKinley County Schools</name>
      <description><![CDATA[<b>Name:</b> Kennedy Middle<br><b>Address:</b> , <br><b>SSID:</b> eduroam<br><b>Enc:</b> WPA2+WPA<br><b>AP:</b> 24<br>]]></description>
      <Point>
        <coordinates>-108.7074662,35.5196433,0</coordinates>
      </Point>
    </Placemark>
    <Placemark>
      <name>Gallup McKinley County Schools</name>
      <description><![CDATA[<b>Name:</b> Miyamura High<br><b>Address:</b> , <br><b>SSID:</b> eduroam<br><b>Enc:</b> WPA2+WPA<br><b>AP:</b> 50<br>]]></description>
      <Point>
        <coordinates>-108.7078907,35.5171199,0</coordinates>
      </Point>
    </Placemark>
    <Placemark>
      <name>Gallup McKinley County Schools</name>
      <description><![CDATA[<b>Name:</b> Navajo Pine High<br><b>Address:</b> , <br><b>SSID:</b> eduroam<br><b>Enc:</b> WPA2+WPA<br><b>AP:</b> 25<br>]]></description>
      <Point>
        <coordinates>-109.036839,35.9042249,0</coordinates>
      </Point>
    </Placemark>
    <Placemark>
      <name>Gallup McKinley County Schools</name>
      <description><![CDATA[<b>Name:</b> Ramah High School<br><b>Address:</b> , <br><b>SSID:</b> eduroam<br><b>Enc:</b> WPA2+WPA<br><b>AP:</b> 30<br>]]></description>
      <Point>
        <coordinates>-108.4969425,35.1219928,0</coordinates>
      </Point>
    </Placemark>
    <Placemark>
      <name>Gallup McKinley County Schools</name>
      <description><![CDATA[<b>Name:</b> Red Rock Elementary<br><b>Address:</b> , <br><b>SSID:</b> eduroam<br><b>Enc:</b> WPA2+WPA<br><b>AP:</b> 32<br>]]></description>
      <Point>
        <coordinates>-108.7256643,35.5176405,0</coordinates>
      </Point>
    </Placemark>
    <Placemark>
      <name>Gallup McKinley County Schools</name>
      <description><![CDATA[<b>Name:</b> Thoreau High School<br><b>Address:</b> , <br><b>SSID:</b> eduroam<br><b>Enc:</b> WPA2+WPA<br><b>AP:</b> 30<br>]]></description>
      <Point>
        <coordinates>-108.2318115,35.4180658,0</coordinates>
      </Point>
    </Placemark>
    <Placemark>
      <name>Gallup McKinley County Schools</name>
      <description><![CDATA[<b>Name:</b> Tohatchi High School<br><b>Address:</b> , <br><b>SSID:</b> eduroam<br><b>Enc:</b> WPA2+WPA<br><b>AP:</b> 25<br>]]></description>
      <Point>
        <coordinates>-108.7528125,35.8624375,0</coordinates>
      </Point>
    </Placemark>
    <Placemark>
      <name>Gallup McKinley County Schools</name>
      <description><![CDATA[<b>Name:</b> Tse Yi' Gai High<br><b>Address:</b> , <br><b>SSID:</b> eduroam<br><b>Enc:</b> WPA2+WPA<br><b>AP:</b> 30<br>]]></description>
      <Point>
        <coordinates>-107.6276212,35.9812514,0</coordinates>
      </Point>
    </Placemark>
    <Placemark>
      <name>New Mexico State University</name>
      <description><![CDATA[<b>Name:</b> NMSU<br><b>Address:</b> , <br><b>SSID:</b> eduroam<br><b>Enc:</b> WPA2+WPA<br><b>AP:</b> 3500<br>]]></description>
      <Point>
        <coordinates>-106.7522031,32.2801232,0</coordinates>
      </Point>
    </Placemark>
    <Placemark>
      <name>New Mexico Tech</name>
      <description><![CDATA[<b>Name:</b> Socorro, New Mexico<br><b>Address:</b> , <br><b>SSID:</b> eduroam<br><b>Enc:</b> WPA2+WPA<br><b>AP:</b> 850<br>]]></description>
      <Point>
        <coordinates>-106.9040725,34.0663313,0</coordinates>
      </Point>
    </Placemark>
    <Placemark>
      <name>University of New Mexico</name>
      <description><![CDATA[<b>Name:</b> UNM<br><b>Address:</b> , <br><b>SSID:</b> eduroam<br><b>Enc:</b> WPA2+WPA<br><b>AP:</b> -<br>]]></description>
      <Point>
        <coordinates>-106.6202364,35.0843068,0</coordinates>
      </Point>
    </Placemark>
  </Document>
</kml>
