<?xml version="1.0" encoding="UTF-8"?>
<kml xmlns="http://www.opengis.net/kml/2.2">
  <Document>
    <name>eduroam — Iowa</name>
    <description><![CDATA[7 eduroam service locations in Iowa.<br><br>Published by <a href="https://scs.nevada.edu/eduroam">NSHE System Computing Services</a>. Learn more about eduroam Support Organizations from <a href="https://incommon.org/eduroam">Internet2</a>, the eduroam National Roaming Operator for the United States.<br>These maps are derived from data published by GÉANT (<a href="https://monitor.eduroam.org/kml/us.kml">monitor.eduroam.org</a>). This is not an official GÉANT or eduroam publication.<br>eduroam is a registered trademark of the GÉANT Association.<br>Region boundaries are derived from US Census Bureau cartographic boundary files, which as works of the US federal government are in the public domain.<br>Maps generated by eduroam-us-regional-maps, which is BSD 3-Clause licensed.]]></description>
    <open>1</open>
    <Placemark>
      <name>Ames Laboratory</name>
      <description><![CDATA[<b>Name:</b> Ames Laboratory<br><b>Address:</b> , <br><b>SSID:</b> eduroam<br><b>Enc:</b> WPA2+WPA<br><b>AP:</b> 185<br>]]></description>
      <Point>
        <coordinates>-93.6483192,42.02997,0</coordinates>
      </Point>
    </Placemark>
    <Placemark>
      <name>Drake University</name>
      <description><![CDATA[<b>Name:</b> Drake University<br><b>Address:</b> , <br><b>SSID:</b> eduroam<br><b>Enc:</b> WPA2+WPA<br><b>AP:</b> 1188<br>]]></description>
      <Point>
        <coordinates>-93.6552984,41.6029128,0</coordinates>
      </Point>
    </Placemark>
    <Placemark>
      <name>Grinnell College</name>
      <description><![CDATA[<b>Name:</b> Grinnell College<br><b>Address:</b> , <br><b>SSID:</b> eduroam<br><b>Enc:</b> WPA3+WPA2+WPA<br><b>AP:</b> 800<br>]]></description>
      <Point>
        <coordinates>-92.7200895,41.747494,0</coordinates>
      </Point>
    </Placemark>
    <Placemark>
      <name>Iowa State University</name>
      <description><![CDATA[<b>Name:</b> Main Campus. Iowa State University<br><b>Address:</b> , <br><b>SSID:</b> eduroam<br><b>Enc:</b> WPA2<br><b>AP:</b> 10000<br>]]></description>
      <Point>
        <coordinates>-93.646,42.0255,0</coordinates>
      </Point>
    </Placemark>
    <Placemark>
      <name>University of Iowa</name>
      <description><![CDATA[<b>Name:</b> ITS Help Desk<br><b>Address:</b> , <br><b>SSID:</b> eduroam<br><b>Enc:</b> WPA2 + WPA3<br><b>AP:</b> 11000<br>]]></description>
      <Point>
        <coordinates>-91.535692,41.6592255,0</coordinates>
      </Point>
    </Placemark>
    <Placemark>
      <name>University of Iowa Hospitals and Clinics</name>
      <description><![CDATA[<b>Name:</b> UIHC Campus<br><b>Address:</b> , <br><b>SSID:</b> eduroam<br><b>Enc:</b> WPA2<br><b>AP:</b> 3300<br>]]></description>
      <Point>
        <coordinates>-91.547979,41.658974,0</coordinates>
      </Point>
    </Placemark>
    <Placemark>
      <name>University of Northern Iowa</name>
      <description><![CDATA[<b>Name:</b> Main Campus<br><b>Address:</b> , <br><b>SSID:</b> eduroam<br><b>Enc:</b> WPA2<br><b>AP:</b> 2380<br>]]></description>
      <Point>
        <coordinates>-92.4591686,42.5155844,0</coordinates>
      </Point>
    </Placemark>
  </Document>
</kml>
