<?xml version="1.0" encoding="UTF-8"?>
<kml xmlns="http://www.opengis.net/kml/2.2">
  <Document>
    <name>eduroam — Hawaii</name>
    <description><![CDATA[4 eduroam service locations in Hawaii.<br><br>Published by <a href="https://scs.nevada.edu/eduroam">NSHE System Computing Services</a>. Learn more about eduroam Support Organizations from <a href="https://incommon.org/eduroam">Internet2</a>, the eduroam National Roaming Operator for the United States.<br>Service location data comes from the eduroam location database published by GÉANT (<a href="https://monitor.eduroam.org/kml/us.kml">monitor.eduroam.org</a>). These maps are derived from it and are not an official GÉANT or eduroam publication.<br>eduroam is a registered trademark of GÉANT Vereniging.<br>Region boundaries are derived from US Census Bureau cartographic boundary files, which as works of the US federal government are in the public domain.<br>Maps generated by eduroam-us-regional-maps, which is BSD 3-Clause licensed.]]></description>
    <open>1</open>
    <Placemark>
      <name>Brigham Young University-Hawaii</name>
      <description><![CDATA[<b>Name:</b> BYU-Hawaii<br><b>Address:</b> , <br><b>SSID:</b> eduroam<br><b>Enc:</b> WPA2<br><b>AP:</b> 450<br>]]></description>
      <Point>
        <coordinates>-157.9267467,21.6419036,0</coordinates>
      </Point>
    </Placemark>
    <Placemark>
      <name>Department of Veterans Affairs</name>
      <description><![CDATA[<b>Name:</b> Honolulu VA Medical Center<br><b>Address:</b> , <br><b>SSID:</b> eduroam<br><b>Enc:</b> WPA2<br><b>AP:</b> -<br>]]></description>
      <Point>
        <coordinates>-157.88947,21.36153,0</coordinates>
      </Point>
    </Placemark>
    <Placemark>
      <name>NSF's National Optical-Infrared Astronomy Research Laboratory</name>
      <description><![CDATA[<b>Name:</b> NSF's NOIRLab - Gemini Observatory Northern Operations<br><b>Address:</b> , <br><b>SSID:</b> eduroam<br><b>Enc:</b> WPA2+WPA<br><b>AP:</b> 10<br>]]></description>
      <Point>
        <coordinates>-155.084887,19.7216023,0</coordinates>
      </Point>
    </Placemark>
    <Placemark>
      <name>University of Hawaii</name>
      <description><![CDATA[<b>Name:</b> Main Campus<br><b>Address:</b> , <br><b>SSID:</b> eduroam<br><b>Enc:</b> WPA2+WPA<br><b>AP:</b> -<br>]]></description>
      <Point>
        <coordinates>-157.8164134,21.2989893,0</coordinates>
      </Point>
    </Placemark>
  </Document>
</kml>
