<?xml version="1.0" encoding="UTF-8"?>
<kml xmlns="http://www.opengis.net/kml/2.2">
  <Document>
    <name>eduroam — North Carolina</name>
    <description><![CDATA[133 eduroam service locations in North Carolina.<br><br>Published by <a href="https://scs.nevada.edu/eduroam">NSHE System Computing Services</a>. Learn more about eduroam Support Organizations from <a href="https://incommon.org/eduroam">Internet2</a>, the eduroam National Roaming Operator for the United States.<br>Service location data comes from the eduroam location database published by GÉANT (<a href="https://monitor.eduroam.org/kml/us.kml">monitor.eduroam.org</a>). These maps are derived from it and are not an official GÉANT or eduroam publication.<br>eduroam is a registered trademark of GÉANT Vereniging.<br>Region boundaries are derived from US Census Bureau cartographic boundary files, which as works of the US federal government are in the public domain.<br>Maps generated by eduroam-us-regional-maps, which is BSD 3-Clause licensed.]]></description>
    <open>1</open>
    <Placemark>
      <name>Advocate Health</name>
      <description><![CDATA[<b>Name:</b> The-Pearl-CLT<br><b>Address:</b> , <br><b>SSID:</b> eduroam<br><b>Enc:</b> WPA2<br><b>AP:</b> -<br>]]></description>
      <Point>
        <coordinates>-80.8413028,35.2137785,0</coordinates>
      </Point>
    </Placemark>
    <Placemark>
      <name>Appalachian State University</name>
      <description><![CDATA[<b>Name:</b> Appalachian State University<br><b>Address:</b> , <br><b>SSID:</b> eduroam<br><b>Enc:</b> WPA2+WPA<br><b>AP:</b> -<br>]]></description>
      <Point>
        <coordinates>-81.6839919,36.2135255,0</coordinates>
      </Point>
    </Placemark>
    <Placemark>
      <name>Appalachian State University</name>
      <description><![CDATA[<b>Name:</b> Appalachian State University - Main Campus<br><b>Address:</b> , <br><b>SSID:</b> eduroam<br><b>Enc:</b> WPA2<br><b>AP:</b> 2759<br>]]></description>
      <Point>
        <coordinates>-81.6821732,36.2163733,0</coordinates>
      </Point>
    </Placemark>
    <Placemark>
      <name>Campbell University</name>
      <description><![CDATA[<b>Name:</b> Campbell University Main Campus<br><b>Address:</b> , <br><b>SSID:</b> eduroam<br><b>Enc:</b> WPA2<br><b>AP:</b> 1220<br>]]></description>
      <Point>
        <coordinates>-78.7401962,35.4113969,0</coordinates>
      </Point>
    </Placemark>
    <Placemark>
      <name>Carilion Clinic</name>
      <description><![CDATA[<b>Name:</b> Carilion Clinic Center for Simulation, Research and Patient Safety<br><b>Address:</b> , <br><b>SSID:</b> eduroam<br><b>Enc:</b> WPA2<br><b>AP:</b> 6<br>]]></description>
      <Point>
        <coordinates>-78.3984375,35.8843041,0</coordinates>
      </Point>
    </Placemark>
    <Placemark>
      <name>City of Greensboro</name>
      <description><![CDATA[<b>Name:</b> Brown Recreation Center<br><b>Address:</b> , <br><b>SSID:</b> eduroam<br><b>Enc:</b> WPA2<br><b>AP:</b> 2<br>]]></description>
      <Point>
        <coordinates>-79.7847546,36.0147527,0</coordinates>
      </Point>
    </Placemark>
    <Placemark>
      <name>City of Greensboro</name>
      <description><![CDATA[<b>Name:</b> Caldcleugh<br><b>Address:</b> , <br><b>SSID:</b> eduroam<br><b>Enc:</b> WPA2<br><b>AP:</b> 1<br>]]></description>
      <Point>
        <coordinates>-79.8024888,36.0495365,0</coordinates>
      </Point>
    </Placemark>
    <Placemark>
      <name>City of Greensboro</name>
      <description><![CDATA[<b>Name:</b> Craft Recreation Center<br><b>Address:</b> , <br><b>SSID:</b> eduroam<br><b>Enc:</b> WPA2<br><b>AP:</b> 2<br>]]></description>
      <Point>
        <coordinates>-79.7770387,36.1364962,0</coordinates>
      </Point>
    </Placemark>
    <Placemark>
      <name>City of Greensboro</name>
      <description><![CDATA[<b>Name:</b> Fire Station 1<br><b>Address:</b> , <br><b>SSID:</b> eduroam<br><b>Enc:</b> WPA3+WPA2+WPA<br><b>AP:</b> 1<br>]]></description>
      <Point>
        <coordinates>-79.7821708,36.0970569,0</coordinates>
      </Point>
    </Placemark>
    <Placemark>
      <name>City of Greensboro</name>
      <description><![CDATA[<b>Name:</b> Fire Station 10<br><b>Address:</b> , <br><b>SSID:</b> eduroam<br><b>Enc:</b> WPA3+WPA2+WPA<br><b>AP:</b> 1<br>]]></description>
      <Point>
        <coordinates>-79.8626936,36.0369263,0</coordinates>
      </Point>
    </Placemark>
    <Placemark>
      <name>City of Greensboro</name>
      <description><![CDATA[<b>Name:</b> Fire Station 14<br><b>Address:</b> , <br><b>SSID:</b> eduroam<br><b>Enc:</b> WPA2+WPA<br><b>AP:</b> 1<br>]]></description>
      <Point>
        <coordinates>-79.761673,36.131171,0</coordinates>
      </Point>
    </Placemark>
    <Placemark>
      <name>City of Greensboro</name>
      <description><![CDATA[<b>Name:</b> Fire Station 17<br><b>Address:</b> , <br><b>SSID:</b> eduroam<br><b>Enc:</b> WPA2+WPA<br><b>AP:</b> 1<br>]]></description>
      <Point>
        <coordinates>-79.9347704,36.1280254,0</coordinates>
      </Point>
    </Placemark>
    <Placemark>
      <name>City of Greensboro</name>
      <description><![CDATA[<b>Name:</b> Fire Station 18<br><b>Address:</b> , <br><b>SSID:</b> eduroam<br><b>Enc:</b> WPA2+WPA<br><b>AP:</b> 1<br>]]></description>
      <Point>
        <coordinates>-79.8924622,36.0989887,0</coordinates>
      </Point>
    </Placemark>
    <Placemark>
      <name>City of Greensboro</name>
      <description><![CDATA[<b>Name:</b> Fire Station 19<br><b>Address:</b> , <br><b>SSID:</b> eduroam<br><b>Enc:</b> WPA2+WPA<br><b>AP:</b> 1<br>]]></description>
      <Point>
        <coordinates>-79.9273591,36.0823574,0</coordinates>
      </Point>
    </Placemark>
    <Placemark>
      <name>City of Greensboro</name>
      <description><![CDATA[<b>Name:</b> Fire Station 2<br><b>Address:</b> , <br><b>SSID:</b> eduroam<br><b>Enc:</b> WPA3+WPA2+WPA<br><b>AP:</b> 1<br>]]></description>
      <Point>
        <coordinates>-79.7916074,36.1514144,0</coordinates>
      </Point>
    </Placemark>
    <Placemark>
      <name>City of Greensboro</name>
      <description><![CDATA[<b>Name:</b> Fire Station 20<br><b>Address:</b> , <br><b>SSID:</b> eduroam<br><b>Enc:</b> WPA2+WPA<br><b>AP:</b> 1<br>]]></description>
      <Point>
        <coordinates>-79.960969,36.0935133,0</coordinates>
      </Point>
    </Placemark>
    <Placemark>
      <name>City of Greensboro</name>
      <description><![CDATA[<b>Name:</b> Fire Station 21<br><b>Address:</b> , <br><b>SSID:</b> eduroam<br><b>Enc:</b> WPA3+WPA2+WPA<br><b>AP:</b> 1<br>]]></description>
      <Point>
        <coordinates>-79.884051,36.133802,0</coordinates>
      </Point>
    </Placemark>
    <Placemark>
      <name>City of Greensboro</name>
      <description><![CDATA[<b>Name:</b> Fire Station 4<br><b>Address:</b> , <br><b>SSID:</b> eduroam<br><b>Enc:</b> WPA3+WPA2+WPA<br><b>AP:</b> 1<br>]]></description>
      <Point>
        <coordinates>-79.7848983,36.0670351,0</coordinates>
      </Point>
    </Placemark>
    <Placemark>
      <name>City of Greensboro</name>
      <description><![CDATA[<b>Name:</b> Fire Station 40<br><b>Address:</b> , <br><b>SSID:</b> eduroam<br><b>Enc:</b> WPA3+WPA2+WPA<br><b>AP:</b> 1<br>]]></description>
      <Point>
        <coordinates>-79.8227305,36.1192042,0</coordinates>
      </Point>
    </Placemark>
    <Placemark>
      <name>City of Greensboro</name>
      <description><![CDATA[<b>Name:</b> Fire Station 41<br><b>Address:</b> , <br><b>SSID:</b> eduroam<br><b>Enc:</b> WPA2+WPA<br><b>AP:</b> 1<br>]]></description>
      <Point>
        <coordinates>-79.8423216,36.1451501,0</coordinates>
      </Point>
    </Placemark>
    <Placemark>
      <name>City of Greensboro</name>
      <description><![CDATA[<b>Name:</b> Fire Station 43<br><b>Address:</b> , <br><b>SSID:</b> eduroam<br><b>Enc:</b> WPA2+WPA<br><b>AP:</b> 1<br>]]></description>
      <Point>
        <coordinates>-79.8136091,36.1426827,0</coordinates>
      </Point>
    </Placemark>
    <Placemark>
      <name>City of Greensboro</name>
      <description><![CDATA[<b>Name:</b> Fire Station 48<br><b>Address:</b> , <br><b>SSID:</b> eduroam<br><b>Enc:</b> WPA2+WPA<br><b>AP:</b> 1<br>]]></description>
      <Point>
        <coordinates>-79.8306372,36.0217048,0</coordinates>
      </Point>
    </Placemark>
    <Placemark>
      <name>City of Greensboro</name>
      <description><![CDATA[<b>Name:</b> Fire Station 49<br><b>Address:</b> , <br><b>SSID:</b> eduroam<br><b>Enc:</b> WPA2+WPA<br><b>AP:</b> 1<br>]]></description>
      <Point>
        <coordinates>-79.8635022,36.0916523,0</coordinates>
      </Point>
    </Placemark>
    <Placemark>
      <name>City of Greensboro</name>
      <description><![CDATA[<b>Name:</b> Fire Station 5<br><b>Address:</b> , <br><b>SSID:</b> eduroam<br><b>Enc:</b> WPA3+WPA2+WPA<br><b>AP:</b> 2<br>]]></description>
      <Point>
        <coordinates>-79.8144388,36.0902282,0</coordinates>
      </Point>
    </Placemark>
    <Placemark>
      <name>City of Greensboro</name>
      <description><![CDATA[<b>Name:</b> Fire Station 52<br><b>Address:</b> , <br><b>SSID:</b> eduroam<br><b>Enc:</b> WPA2+WPA<br><b>AP:</b> 1<br>]]></description>
      <Point>
        <coordinates>-79.8867865,36.0603415,0</coordinates>
      </Point>
    </Placemark>
    <Placemark>
      <name>City of Greensboro</name>
      <description><![CDATA[<b>Name:</b> Fire Station 53<br><b>Address:</b> , <br><b>SSID:</b> eduroam<br><b>Enc:</b> WPA2+WPA<br><b>AP:</b> 1<br>]]></description>
      <Point>
        <coordinates>-79.7614071,36.0419823,0</coordinates>
      </Point>
    </Placemark>
    <Placemark>
      <name>City of Greensboro</name>
      <description><![CDATA[<b>Name:</b> Fire Station 56<br><b>Address:</b> , <br><b>SSID:</b> eduroam<br><b>Enc:</b> WPA3+WPA2+WPA<br><b>AP:</b> 1<br>]]></description>
      <Point>
        <coordinates>-79.7416918,36.0645047,0</coordinates>
      </Point>
    </Placemark>
    <Placemark>
      <name>City of Greensboro</name>
      <description><![CDATA[<b>Name:</b> Fire Station 57<br><b>Address:</b> , <br><b>SSID:</b> eduroam<br><b>Enc:</b> WPA3+WPA2+WPA<br><b>AP:</b> 1<br>]]></description>
      <Point>
        <coordinates>-79.67848,36.0709228,0</coordinates>
      </Point>
    </Placemark>
    <Placemark>
      <name>City of Greensboro</name>
      <description><![CDATA[<b>Name:</b> Fire Station 59<br><b>Address:</b> , <br><b>SSID:</b> eduroam<br><b>Enc:</b> WPA3+WPA2+WPA<br><b>AP:</b> 1<br>]]></description>
      <Point>
        <coordinates>-79.710123,36.1762443,0</coordinates>
      </Point>
    </Placemark>
    <Placemark>
      <name>City of Greensboro</name>
      <description><![CDATA[<b>Name:</b> Fire Station 61<br><b>Address:</b> , <br><b>SSID:</b> eduroam<br><b>Enc:</b> WPA3+WPA2+WPA<br><b>AP:</b> 1<br>]]></description>
      <Point>
        <coordinates>-79.7956881,36.0147576,0</coordinates>
      </Point>
    </Placemark>
    <Placemark>
      <name>City of Greensboro</name>
      <description><![CDATA[<b>Name:</b> Fire Station 63<br><b>Address:</b> , <br><b>SSID:</b> eduroam<br><b>Enc:</b> WPA3+WPA2+WPA<br><b>AP:</b> 1<br>]]></description>
      <Point>
        <coordinates>-79.7094436,36.0864242,0</coordinates>
      </Point>
    </Placemark>
    <Placemark>
      <name>City of Greensboro</name>
      <description><![CDATA[<b>Name:</b> Fire Station 7<br><b>Address:</b> , <br><b>SSID:</b> eduroam<br><b>Enc:</b> WPA3+WPA2+WPA<br><b>AP:</b> 2<br>]]></description>
      <Point>
        <coordinates>-79.7605341,36.0867944,0</coordinates>
      </Point>
    </Placemark>
    <Placemark>
      <name>City of Greensboro</name>
      <description><![CDATA[<b>Name:</b> Fire Station 8<br><b>Address:</b> , <br><b>SSID:</b> eduroam<br><b>Enc:</b> WPA3+WPA2+WPA<br><b>AP:</b> 1<br>]]></description>
      <Point>
        <coordinates>-79.8219048,36.048677,0</coordinates>
      </Point>
    </Placemark>
    <Placemark>
      <name>City of Greensboro</name>
      <description><![CDATA[<b>Name:</b> Glenwood Recreation Center<br><b>Address:</b> , <br><b>SSID:</b> eduroam<br><b>Enc:</b> WPA2<br><b>AP:</b> -<br>]]></description>
      <Point>
        <coordinates>-79.8227583,36.0494616,0</coordinates>
      </Point>
    </Placemark>
    <Placemark>
      <name>City of Greensboro</name>
      <description><![CDATA[<b>Name:</b> Greensboro Cultural Center<br><b>Address:</b> , <br><b>SSID:</b> eduroam<br><b>Enc:</b> WPA2<br><b>AP:</b> 12<br>]]></description>
      <Point>
        <coordinates>-79.7884331,36.0735978,0</coordinates>
      </Point>
    </Placemark>
    <Placemark>
      <name>City of Greensboro</name>
      <description><![CDATA[<b>Name:</b> Greensboro Parks &amp; Recreation HQ<br><b>Address:</b> , <br><b>SSID:</b> eduroam<br><b>Enc:</b> WPA2<br><b>AP:</b> 3<br>]]></description>
      <Point>
        <coordinates>-79.7914092,36.0700596,0</coordinates>
      </Point>
    </Placemark>
    <Placemark>
      <name>City of Greensboro</name>
      <description><![CDATA[<b>Name:</b> Greensboro Public Library - Benjamin Branch<br><b>Address:</b> , <br><b>SSID:</b> eduroam<br><b>Enc:</b> WPA2<br><b>AP:</b> 3<br>]]></description>
      <Point>
        <coordinates>-79.8301396,36.1035199,0</coordinates>
      </Point>
    </Placemark>
    <Placemark>
      <name>City of Greensboro</name>
      <description><![CDATA[<b>Name:</b> Greensboro Public Library - Central Branch<br><b>Address:</b> , <br><b>SSID:</b> eduroam<br><b>Enc:</b> WPA2<br><b>AP:</b> 14<br>]]></description>
      <Point>
        <coordinates>-79.7868566,36.0748076,0</coordinates>
      </Point>
    </Placemark>
    <Placemark>
      <name>City of Greensboro</name>
      <description><![CDATA[<b>Name:</b> Greensboro Public Library - Glenn McNairy Branch<br><b>Address:</b> , <br><b>SSID:</b> eduroam<br><b>Enc:</b> WPA2<br><b>AP:</b> 6<br>]]></description>
      <Point>
        <coordinates>-79.8129525,36.1434244,0</coordinates>
      </Point>
    </Placemark>
    <Placemark>
      <name>City of Greensboro</name>
      <description><![CDATA[<b>Name:</b> Greensboro Public Library - Glenwood Branch<br><b>Address:</b> , <br><b>SSID:</b> eduroam<br><b>Enc:</b> WPA2<br><b>AP:</b> 3<br>]]></description>
      <Point>
        <coordinates>-79.820876,36.0520338,0</coordinates>
      </Point>
    </Placemark>
    <Placemark>
      <name>City of Greensboro</name>
      <description><![CDATA[<b>Name:</b> Greensboro Public Library - Hemphill Branch<br><b>Address:</b> , <br><b>SSID:</b> eduroam<br><b>Enc:</b> WPA2<br><b>AP:</b> 5<br>]]></description>
      <Point>
        <coordinates>-79.8472844,36.0190401,0</coordinates>
      </Point>
    </Placemark>
    <Placemark>
      <name>City of Greensboro</name>
      <description><![CDATA[<b>Name:</b> Greensboro Public Library - Kathleen Clay Family Branch<br><b>Address:</b> , <br><b>SSID:</b> eduroam<br><b>Enc:</b> WPA2<br><b>AP:</b> 5<br>]]></description>
      <Point>
        <coordinates>-79.8775897,36.1057102,0</coordinates>
      </Point>
    </Placemark>
    <Placemark>
      <name>City of Greensboro</name>
      <description><![CDATA[<b>Name:</b> Greensboro Public Library - McGirt-Horton Branch<br><b>Address:</b> , <br><b>SSID:</b> eduroam<br><b>Enc:</b> WPA2<br><b>AP:</b> 4<br>]]></description>
      <Point>
        <coordinates>-79.744503,36.09516,0</coordinates>
      </Point>
    </Placemark>
    <Placemark>
      <name>City of Greensboro</name>
      <description><![CDATA[<b>Name:</b> Greensboro Public Library - Vance Chavis Branch<br><b>Address:</b> , <br><b>SSID:</b> eduroam<br><b>Enc:</b> WPA2<br><b>AP:</b> 3<br>]]></description>
      <Point>
        <coordinates>-79.771438,36.0640718,0</coordinates>
      </Point>
    </Placemark>
    <Placemark>
      <name>City of Greensboro</name>
      <description><![CDATA[<b>Name:</b> Greensboro Sportsplex<br><b>Address:</b> , <br><b>SSID:</b> eduroam<br><b>Enc:</b> WPA2<br><b>AP:</b> 4<br>]]></description>
      <Point>
        <coordinates>-79.7485747,36.1107643,0</coordinates>
      </Point>
    </Placemark>
    <Placemark>
      <name>City of Greensboro</name>
      <description><![CDATA[<b>Name:</b> Griffin Recreation Center<br><b>Address:</b> , <br><b>SSID:</b> eduroam<br><b>Enc:</b> WPA2<br><b>AP:</b> 2<br>]]></description>
      <Point>
        <coordinates>-79.9130609,36.0372894,0</coordinates>
      </Point>
    </Placemark>
    <Placemark>
      <name>City of Greensboro</name>
      <description><![CDATA[<b>Name:</b> J. Edward Kitchen Operations Center<br><b>Address:</b> , <br><b>SSID:</b> eduroam<br><b>Enc:</b> WPA2<br><b>AP:</b> 12<br>]]></description>
      <Point>
        <coordinates>-79.7929789,36.0416971,0</coordinates>
      </Point>
    </Placemark>
    <Placemark>
      <name>City of Greensboro</name>
      <description><![CDATA[<b>Name:</b> Lewis Recreation Center<br><b>Address:</b> , <br><b>SSID:</b> eduroam<br><b>Enc:</b> WPA2<br><b>AP:</b> 2<br>]]></description>
      <Point>
        <coordinates>-79.8352329,36.1179844,0</coordinates>
      </Point>
    </Placemark>
    <Placemark>
      <name>City of Greensboro</name>
      <description><![CDATA[<b>Name:</b> Lindley Recreation Center<br><b>Address:</b> , <br><b>SSID:</b> eduroam<br><b>Enc:</b> WPA2<br><b>AP:</b> 2<br>]]></description>
      <Point>
        <coordinates>-79.8419786,36.0651867,0</coordinates>
      </Point>
    </Placemark>
    <Placemark>
      <name>City of Greensboro</name>
      <description><![CDATA[<b>Name:</b> MMOB<br><b>Address:</b> , <br><b>SSID:</b> eduroam<br><b>Enc:</b> WPA2+WPA<br><b>AP:</b> 12<br>]]></description>
      <Point>
        <coordinates>-79.7929898,36.0723568,0</coordinates>
      </Point>
    </Placemark>
    <Placemark>
      <name>City of Greensboro</name>
      <description><![CDATA[<b>Name:</b> Smith Active Adult Center<br><b>Address:</b> , <br><b>SSID:</b> eduroam<br><b>Enc:</b> WPA2<br><b>AP:</b> 2<br>]]></description>
      <Point>
        <coordinates>-79.7732045,36.1062401,0</coordinates>
      </Point>
    </Placemark>
    <Placemark>
      <name>City of Greensboro</name>
      <description><![CDATA[<b>Name:</b> Warnersville Recreation Center<br><b>Address:</b> , <br><b>SSID:</b> eduroam<br><b>Enc:</b> WPA2<br><b>AP:</b> 2<br>]]></description>
      <Point>
        <coordinates>-79.7973622,36.0563754,0</coordinates>
      </Point>
    </Placemark>
    <Placemark>
      <name>City of Greensboro</name>
      <description><![CDATA[<b>Name:</b> Windsor Recreation Center<br><b>Address:</b> , <br><b>SSID:</b> eduroam<br><b>Enc:</b> WPA2<br><b>AP:</b> 2<br>]]></description>
      <Point>
        <coordinates>-79.7704078,36.0648269,0</coordinates>
      </Point>
    </Placemark>
    <Placemark>
      <name>City of High Point</name>
      <description><![CDATA[<b>Name:</b> City of High Point - City Hall<br><b>Address:</b> , <br><b>SSID:</b> eduroam<br><b>Enc:</b> WPA2<br><b>AP:</b> 18<br>]]></description>
      <Point>
        <coordinates>-80.0020331,35.9550696,0</coordinates>
      </Point>
    </Placemark>
    <Placemark>
      <name>City of High Point</name>
      <description><![CDATA[<b>Name:</b> City of High Point - City Lake<br><b>Address:</b> , <br><b>SSID:</b> eduroam<br><b>Enc:</b> WPA2<br><b>AP:</b> 8<br>]]></description>
      <Point>
        <coordinates>-79.9483211,35.9957737,0</coordinates>
      </Point>
    </Placemark>
    <Placemark>
      <name>City of High Point</name>
      <description><![CDATA[<b>Name:</b> City of High Point - Library<br><b>Address:</b> , <br><b>SSID:</b> eduroam<br><b>Enc:</b> WPA2<br><b>AP:</b> 13<br>]]></description>
      <Point>
        <coordinates>-80.0133952,35.965786,0</coordinates>
      </Point>
    </Placemark>
    <Placemark>
      <name>City of High Point</name>
      <description><![CDATA[<b>Name:</b> City of High Point - Museum<br><b>Address:</b> , <br><b>SSID:</b> eduroam<br><b>Enc:</b> WPA2<br><b>AP:</b> 1<br>]]></description>
      <Point>
        <coordinates>-79.9921524,35.9799283,0</coordinates>
      </Point>
    </Placemark>
    <Placemark>
      <name>City of High Point</name>
      <description><![CDATA[<b>Name:</b> City of High Point - Oak Hollow Campground<br><b>Address:</b> , <br><b>SSID:</b> eduroam<br><b>Enc:</b> WPA2<br><b>AP:</b> 4<br>]]></description>
      <Point>
        <coordinates>-80.0077263,36.0111823,0</coordinates>
      </Point>
    </Placemark>
    <Placemark>
      <name>City of High Point</name>
      <description><![CDATA[<b>Name:</b> CIty of High Point - P&amp;R Allen Jay<br><b>Address:</b> , <br><b>SSID:</b> eduroam<br><b>Enc:</b> WPA2<br><b>AP:</b> 3<br>]]></description>
      <Point>
        <coordinates>-79.9547499,35.93185,0</coordinates>
      </Point>
    </Placemark>
    <Placemark>
      <name>City of High Point</name>
      <description><![CDATA[<b>Name:</b> City of High Point - P&amp;R Deep River<br><b>Address:</b> , <br><b>SSID:</b> eduroam<br><b>Enc:</b> WPA2<br><b>AP:</b> 3<br>]]></description>
      <Point>
        <coordinates>-79.9801152,36.0388226,0</coordinates>
      </Point>
    </Placemark>
    <Placemark>
      <name>City of High Point</name>
      <description><![CDATA[<b>Name:</b> City of High Point - P&amp;R Morehead<br><b>Address:</b> , <br><b>SSID:</b> eduroam<br><b>Enc:</b> WPA2<br><b>AP:</b> 3<br>]]></description>
      <Point>
        <coordinates>-79.9934768,35.9612377,0</coordinates>
      </Point>
    </Placemark>
    <Placemark>
      <name>City of High Point</name>
      <description><![CDATA[<b>Name:</b> City of High Point - P&amp;R Northpoint<br><b>Address:</b> , <br><b>SSID:</b> eduroam<br><b>Enc:</b> WPA2<br><b>AP:</b> 2<br>]]></description>
      <Point>
        <coordinates>-80.0216159,35.9875116,0</coordinates>
      </Point>
    </Placemark>
    <Placemark>
      <name>City of High Point</name>
      <description><![CDATA[<b>Name:</b> City of High Point - P&amp;R Oakview<br><b>Address:</b> , <br><b>SSID:</b> eduroam<br><b>Enc:</b> WPA2<br><b>AP:</b> 4<br>]]></description>
      <Point>
        <coordinates>-80.0151854,35.9970292,0</coordinates>
      </Point>
    </Placemark>
    <Placemark>
      <name>City of High Point</name>
      <description><![CDATA[<b>Name:</b> City of High Point - P&amp;R Southside<br><b>Address:</b> , <br><b>SSID:</b> eduroam<br><b>Enc:</b> WPA2<br><b>AP:</b> 4<br>]]></description>
      <Point>
        <coordinates>-80.0085999,35.9477673,0</coordinates>
      </Point>
    </Placemark>
    <Placemark>
      <name>City of High Point</name>
      <description><![CDATA[<b>Name:</b> City of High Point - Washington Terrace<br><b>Address:</b> , <br><b>SSID:</b> eduroam<br><b>Enc:</b> WPA2<br><b>AP:</b> 2<br>]]></description>
      <Point>
        <coordinates>-79.9838292,35.9683043,0</coordinates>
      </Point>
    </Placemark>
    <Placemark>
      <name>City of Winston-Salem</name>
      <description><![CDATA[<b>Name:</b> Benton Convention Center<br><b>Address:</b> , <br><b>SSID:</b> eduroam<br><b>Enc:</b> WPA3+WPA2+WPA<br><b>AP:</b> 91<br>]]></description>
      <Point>
        <coordinates>-80.2479884,36.1005772,0</coordinates>
      </Point>
    </Placemark>
    <Placemark>
      <name>City of Winston-Salem</name>
      <description><![CDATA[<b>Name:</b> Merchel Park<br><b>Address:</b> , <br><b>SSID:</b> eduroam<br><b>Enc:</b> WPA3+WPA2+WPA<br><b>AP:</b> 5<br>]]></description>
      <Point>
        <coordinates>-80.2458429,36.097941,0</coordinates>
      </Point>
    </Placemark>
    <Placemark>
      <name>Cone Health</name>
      <description><![CDATA[<b>Name:</b> Cone Health<br><b>Address:</b> , <br><b>SSID:</b> eduroam<br><b>Enc:</b> WPA2<br><b>AP:</b> -<br>]]></description>
      <Point>
        <coordinates>-79.7872518,36.0910599,0</coordinates>
      </Point>
    </Placemark>
    <Placemark>
      <name>Davidson College</name>
      <description><![CDATA[<b>Name:</b> Davidson main campus<br><b>Address:</b> , <br><b>SSID:</b> eduroam<br><b>Enc:</b> WPA2<br><b>AP:</b> 1020<br>]]></description>
      <Point>
        <coordinates>-80.8492993,35.5006602,0</coordinates>
      </Point>
    </Placemark>
    <Placemark>
      <name>Department of Veterans Affairs</name>
      <description><![CDATA[<b>Name:</b> Asheville VA Medical Center<br><b>Address:</b> , <br><b>SSID:</b> eduroam<br><b>Enc:</b> WPA2<br><b>AP:</b> -<br>]]></description>
      <Point>
        <coordinates>-82.4821607,35.5876722,0</coordinates>
      </Point>
    </Placemark>
    <Placemark>
      <name>Department of Veterans Affairs</name>
      <description><![CDATA[<b>Name:</b> Brier Creek CBOC<br><b>Address:</b> , <br><b>SSID:</b> eduroam<br><b>Enc:</b> WPA2<br><b>AP:</b> -<br>]]></description>
      <Point>
        <coordinates>-78.78293,35.9006,0</coordinates>
      </Point>
    </Placemark>
    <Placemark>
      <name>Department of Veterans Affairs</name>
      <description><![CDATA[<b>Name:</b> Charlotte North CBOC<br><b>Address:</b> , <br><b>SSID:</b> eduroam<br><b>Enc:</b> WPA2<br><b>AP:</b> -<br>]]></description>
      <Point>
        <coordinates>-80.731473,35.283915,0</coordinates>
      </Point>
    </Placemark>
    <Placemark>
      <name>Department of Veterans Affairs</name>
      <description><![CDATA[<b>Name:</b> Charlotte South HCS<br><b>Address:</b> , <br><b>SSID:</b> eduroam<br><b>Enc:</b> WPA2<br><b>AP:</b> -<br>]]></description>
      <Point>
        <coordinates>-80.912454,35.197894,0</coordinates>
      </Point>
    </Placemark>
    <Placemark>
      <name>Department of Veterans Affairs</name>
      <description><![CDATA[<b>Name:</b> Clayton East Raleigh CBOC<br><b>Address:</b> , <br><b>SSID:</b> eduroam<br><b>Enc:</b> WPA2<br><b>AP:</b> -<br>]]></description>
      <Point>
        <coordinates>-78.47163,35.66421,0</coordinates>
      </Point>
    </Placemark>
    <Placemark>
      <name>Department of Veterans Affairs</name>
      <description><![CDATA[<b>Name:</b> Cumberland County HCC<br><b>Address:</b> , <br><b>SSID:</b> eduroam<br><b>Enc:</b> WPA2<br><b>AP:</b> -<br>]]></description>
      <Point>
        <coordinates>-79.02981,35.033229,0</coordinates>
      </Point>
    </Placemark>
    <Placemark>
      <name>Department of Veterans Affairs</name>
      <description><![CDATA[<b>Name:</b> Durham VA Medical Center<br><b>Address:</b> , <br><b>SSID:</b> eduroam<br><b>Enc:</b> WPA2<br><b>AP:</b> -<br>]]></description>
      <Point>
        <coordinates>-78.93712,36.01121,0</coordinates>
      </Point>
    </Placemark>
    <Placemark>
      <name>Department of Veterans Affairs</name>
      <description><![CDATA[<b>Name:</b> Fayetteville VA Medical Center<br><b>Address:</b> , <br><b>SSID:</b> eduroam<br><b>Enc:</b> WPA2<br><b>AP:</b> -<br>]]></description>
      <Point>
        <coordinates>-78.87718,35.08956,0</coordinates>
      </Point>
    </Placemark>
    <Placemark>
      <name>Department of Veterans Affairs</name>
      <description><![CDATA[<b>Name:</b> Greenville CBOC<br><b>Address:</b> , <br><b>SSID:</b> eduroam<br><b>Enc:</b> WPA2<br><b>AP:</b> -<br>]]></description>
      <Point>
        <coordinates>-77.39919,35.61711,0</coordinates>
      </Point>
    </Placemark>
    <Placemark>
      <name>Department of Veterans Affairs</name>
      <description><![CDATA[<b>Name:</b> Jacksonville CBOC<br><b>Address:</b> , <br><b>SSID:</b> eduroam<br><b>Enc:</b> WPA2<br><b>AP:</b> -<br>]]></description>
      <Point>
        <coordinates>-77.41314,34.79487,0</coordinates>
      </Point>
    </Placemark>
    <Placemark>
      <name>Department of Veterans Affairs</name>
      <description><![CDATA[<b>Name:</b> Kernersville HCS<br><b>Address:</b> , <br><b>SSID:</b> eduroam<br><b>Enc:</b> WPA2<br><b>AP:</b> -<br>]]></description>
      <Point>
        <coordinates>-80.049146,36.093341,0</coordinates>
      </Point>
    </Placemark>
    <Placemark>
      <name>Department of Veterans Affairs</name>
      <description><![CDATA[<b>Name:</b> Morehead City CBOC<br><b>Address:</b> , <br><b>SSID:</b> eduroam<br><b>Enc:</b> WPA2<br><b>AP:</b> -<br>]]></description>
      <Point>
        <coordinates>-76.743008,34.725327,0</coordinates>
      </Point>
    </Placemark>
    <Placemark>
      <name>Department of Veterans Affairs</name>
      <description><![CDATA[<b>Name:</b> Salisbury VA Medical Center<br><b>Address:</b> , <br><b>SSID:</b> eduroam<br><b>Enc:</b> WPA2<br><b>AP:</b> -<br>]]></description>
      <Point>
        <coordinates>-80.489646,35.68204,0</coordinates>
      </Point>
    </Placemark>
    <Placemark>
      <name>Department of Veterans Affairs</name>
      <description><![CDATA[<b>Name:</b> Wilmington HCC<br><b>Address:</b> , <br><b>SSID:</b> eduroam<br><b>Enc:</b> WPA2<br><b>AP:</b> -<br>]]></description>
      <Point>
        <coordinates>-77.91991,34.27003,0</coordinates>
      </Point>
    </Placemark>
    <Placemark>
      <name>Duke University</name>
      <description><![CDATA[<b>Name:</b> Main Campus<br><b>Address:</b> , <br><b>SSID:</b> eduroam<br><b>Enc:</b> WPA2+WPA<br><b>AP:</b> -<br>]]></description>
      <Point>
        <coordinates>-78.9374782,36.00178,0</coordinates>
      </Point>
    </Placemark>
    <Placemark>
      <name>East Carolina University</name>
      <description><![CDATA[<b>Name:</b> East Carolina University Health Sciences Campus<br><b>Address:</b> , <br><b>SSID:</b> eduroam<br><b>Enc:</b> WPA2<br><b>AP:</b> -<br>]]></description>
      <Point>
        <coordinates>-77.4080698,35.6128318,0</coordinates>
      </Point>
    </Placemark>
    <Placemark>
      <name>East Carolina University</name>
      <description><![CDATA[<b>Name:</b> Main Campus<br><b>Address:</b> , <br><b>SSID:</b> eduroam<br><b>Enc:</b> WPA2<br><b>AP:</b> -<br>]]></description>
      <Point>
        <coordinates>-77.3670906,35.6075907,0</coordinates>
      </Point>
    </Placemark>
    <Placemark>
      <name>Elizabeth City State University</name>
      <description><![CDATA[<b>Name:</b> ECSU Campus<br><b>Address:</b> , <br><b>SSID:</b> eduroam<br><b>Enc:</b> WPA2+WPA<br><b>AP:</b> -<br>]]></description>
      <Point>
        <coordinates>-76.2139606,36.281091,0</coordinates>
      </Point>
    </Placemark>
    <Placemark>
      <name>Elon University</name>
      <description><![CDATA[<b>Name:</b> Elon Univeristy - Charlotte<br><b>Address:</b> , <br><b>SSID:</b> eduroam<br><b>Enc:</b> WPA2 + WPA3<br><b>AP:</b> 23<br>]]></description>
      <Point>
        <coordinates>-80.8654966,35.2119735,0</coordinates>
      </Point>
    </Placemark>
    <Placemark>
      <name>Elon University</name>
      <description><![CDATA[<b>Name:</b> Elon University<br><b>Address:</b> , <br><b>SSID:</b> eduroam<br><b>Enc:</b> WPA2 + WPA3<br><b>AP:</b> 1630<br>]]></description>
      <Point>
        <coordinates>-79.5043958,36.1048546,0</coordinates>
      </Point>
    </Placemark>
    <Placemark>
      <name>Elon University</name>
      <description><![CDATA[<b>Name:</b> Elon University School of Law<br><b>Address:</b> , <br><b>SSID:</b> eduroam<br><b>Enc:</b> WPA2 + WPA3<br><b>AP:</b> 23<br>]]></description>
      <Point>
        <coordinates>-79.7917611,36.073883,0</coordinates>
      </Point>
    </Placemark>
    <Placemark>
      <name>Fayetteville State University</name>
      <description><![CDATA[<b>Name:</b> Fayetteville State University<br><b>Address:</b> , <br><b>SSID:</b> eduroam<br><b>Enc:</b> WPA2+WPA<br><b>AP:</b> 530<br>]]></description>
      <Point>
        <coordinates>-78.8907569,35.0759758,0</coordinates>
      </Point>
    </Placemark>
    <Placemark>
      <name>Guilford Technical Community College</name>
      <description><![CDATA[<b>Name:</b> GTCC Aviation 1 Campus<br><b>Address:</b> , <br><b>SSID:</b> eduroam<br><b>Enc:</b> WPA2<br><b>AP:</b> -<br>]]></description>
      <Point>
        <coordinates>-79.9522332,36.096102,0</coordinates>
      </Point>
    </Placemark>
    <Placemark>
      <name>Guilford Technical Community College</name>
      <description><![CDATA[<b>Name:</b> GTCC Aviation 2&amp;3 Campus<br><b>Address:</b> , <br><b>SSID:</b> eduroam<br><b>Enc:</b> WPA2<br><b>AP:</b> -<br>]]></description>
      <Point>
        <coordinates>-79.9220608,36.0986418,0</coordinates>
      </Point>
    </Placemark>
    <Placemark>
      <name>Guilford Technical Community College</name>
      <description><![CDATA[<b>Name:</b> GTCC Cameron Campus<br><b>Address:</b> , <br><b>SSID:</b> eduroam<br><b>Enc:</b> WPA2<br><b>AP:</b> -<br>]]></description>
      <Point>
        <coordinates>-79.9790765,36.134297,0</coordinates>
      </Point>
    </Placemark>
    <Placemark>
      <name>Guilford Technical Community College</name>
      <description><![CDATA[<b>Name:</b> GTCC High Point Campus<br><b>Address:</b> , <br><b>SSID:</b> eduroam<br><b>Enc:</b> WPA2<br><b>AP:</b> -<br>]]></description>
      <Point>
        <coordinates>-80.0027134,35.9464161,0</coordinates>
      </Point>
    </Placemark>
    <Placemark>
      <name>Guilford Technical Community College</name>
      <description><![CDATA[<b>Name:</b> GTCC Jamestown Campus<br><b>Address:</b> , <br><b>SSID:</b> eduroam<br><b>Enc:</b> WPA2<br><b>AP:</b> -<br>]]></description>
      <Point>
        <coordinates>-79.9188599,35.9982026,0</coordinates>
      </Point>
    </Placemark>
    <Placemark>
      <name>Guilford Technical Community College</name>
      <description><![CDATA[<b>Name:</b> GTCC Wendover Campus<br><b>Address:</b> , <br><b>SSID:</b> eduroam<br><b>Enc:</b> WPA2<br><b>AP:</b> -<br>]]></description>
      <Point>
        <coordinates>-79.7273151,36.0888097,0</coordinates>
      </Point>
    </Placemark>
    <Placemark>
      <name>Meredith College</name>
      <description><![CDATA[<b>Name:</b> Meredith College<br><b>Address:</b> , <br><b>SSID:</b> eduroam<br><b>Enc:</b> WPA2+WPA<br><b>AP:</b> 800<br>]]></description>
      <Point>
        <coordinates>-78.6878971,35.7944904,0</coordinates>
      </Point>
    </Placemark>
    <Placemark>
      <name>Microelectronics Center of North Carolina</name>
      <description><![CDATA[<b>Name:</b> Main Campus<br><b>Address:</b> , <br><b>SSID:</b> eduroam<br><b>Enc:</b> WPA2+WPA<br><b>AP:</b> -<br>]]></description>
      <Point>
        <coordinates>-78.8702181,35.9197913,0</coordinates>
      </Point>
    </Placemark>
    <Placemark>
      <name>North Carolina A &amp; T State University</name>
      <description><![CDATA[<b>Name:</b> Main Campus<br><b>Address:</b> , <br><b>SSID:</b> eduroam<br><b>Enc:</b> WPA2<br><b>AP:</b> -<br>]]></description>
      <Point>
        <coordinates>-79.7690098,36.0767762,0</coordinates>
      </Point>
    </Placemark>
    <Placemark>
      <name>North Carolina Central University</name>
      <description><![CDATA[<b>Name:</b> North Carolina Central University Campus<br><b>Address:</b> , <br><b>SSID:</b> eduroam<br><b>Enc:</b> WPA2+WPA<br><b>AP:</b> 3500<br>]]></description>
      <Point>
        <coordinates>-78.8981013,35.9747369,0</coordinates>
      </Point>
    </Placemark>
    <Placemark>
      <name>North Carolina Institute for Climate Studies</name>
      <description><![CDATA[<b>Name:</b> NCICS<br><b>Address:</b> , <br><b>SSID:</b> eduroam<br><b>Enc:</b> WPA3+WPA2+WPA<br><b>AP:</b> 32<br>]]></description>
      <Point>
        <coordinates>-82.5585632,35.5939749,0</coordinates>
      </Point>
    </Placemark>
    <Placemark>
      <name>North Carolina Research Campus</name>
      <description><![CDATA[<b>Name:</b> Core Labratory<br><b>Address:</b> , <br><b>SSID:</b> eduroam<br><b>Enc:</b> WPA2 + WPA3<br><b>AP:</b> 36<br>]]></description>
      <Point>
        <coordinates>-80.6234301,35.4998411,0</coordinates>
      </Point>
    </Placemark>
    <Placemark>
      <name>North Carolina Research Campus</name>
      <description><![CDATA[<b>Name:</b> NC State Plants for Human Health<br><b>Address:</b> , <br><b>SSID:</b> eduroam<br><b>Enc:</b> WPA2 + WPA3<br><b>AP:</b> 26<br>]]></description>
      <Point>
        <coordinates>-80.6240356,35.5014316,0</coordinates>
      </Point>
    </Placemark>
    <Placemark>
      <name>North Carolina Research Campus</name>
      <description><![CDATA[<b>Name:</b> UNC Nutrition Research Institute<br><b>Address:</b> , <br><b>SSID:</b> eduroam<br><b>Enc:</b> WPA2 + WPA3<br><b>AP:</b> 28<br>]]></description>
      <Point>
        <coordinates>-80.6249363,35.5018313,0</coordinates>
      </Point>
    </Placemark>
    <Placemark>
      <name>North Carolina School of Science and Mathematics</name>
      <description><![CDATA[<b>Name:</b> Durham Campus<br><b>Address:</b> , <br><b>SSID:</b> eduroam<br><b>Enc:</b> WPA2<br><b>AP:</b> 396<br>]]></description>
      <Point>
        <coordinates>-78.9207067,36.0183916,0</coordinates>
      </Point>
    </Placemark>
    <Placemark>
      <name>North Carolina School of Science and Mathematics</name>
      <description><![CDATA[<b>Name:</b> Morganton Campus<br><b>Address:</b> , <br><b>SSID:</b> eduroam<br><b>Enc:</b> WPA2<br><b>AP:</b> 360<br>]]></description>
      <Point>
        <coordinates>-81.6861563,35.7308465,0</coordinates>
      </Point>
    </Placemark>
    <Placemark>
      <name>North Carolina State University at Raleigh</name>
      <description><![CDATA[<b>Name:</b> Main Campus<br><b>Address:</b> , <br><b>SSID:</b> eduroam<br><b>Enc:</b> WPA2<br><b>AP:</b> 7500<br>]]></description>
      <Point>
        <coordinates>-78.6754647,35.7853485,0</coordinates>
      </Point>
    </Placemark>
    <Placemark>
      <name>Northeastern University</name>
      <description><![CDATA[<b>Name:</b> Charlotte Campus<br><b>Address:</b> , <br><b>SSID:</b> eduroam<br><b>Enc:</b> WPA2<br><b>AP:</b> -<br>]]></description>
      <Point>
        <coordinates>-80.8428303,35.2277864,0</coordinates>
      </Point>
    </Placemark>
    <Placemark>
      <name>Queens University of Charlotte</name>
      <description><![CDATA[<b>Name:</b> Queens University of Charlotte<br><b>Address:</b> , <br><b>SSID:</b> eduroam<br><b>Enc:</b> WPA2 + WPA3<br><b>AP:</b> 500<br>]]></description>
      <Point>
        <coordinates>-80.8322871,35.1888237,0</coordinates>
      </Point>
    </Placemark>
    <Placemark>
      <name>Queens University of Charlotte</name>
      <description><![CDATA[<b>Name:</b> Queens University of Charlotte Sports Complex<br><b>Address:</b> , <br><b>SSID:</b> eduroam<br><b>Enc:</b> WPA2 + WPA3<br><b>AP:</b> 10<br>]]></description>
      <Point>
        <coordinates>-80.8557183,35.1591346,0</coordinates>
      </Point>
    </Placemark>
    <Placemark>
      <name>Technology and Data Institute</name>
      <description><![CDATA[<b>Name:</b> TDI Office<br><b>Address:</b> , <br><b>SSID:</b> eduroam<br><b>Enc:</b> WPA2<br><b>AP:</b> 1<br>]]></description>
      <Point>
        <coordinates>-79.8111461,36.0650194,0</coordinates>
      </Point>
    </Placemark>
    <Placemark>
      <name>ULSE INC</name>
      <description><![CDATA[<b>Name:</b> Research Triangle Park<br><b>Address:</b> , <br><b>SSID:</b> eduroam<br><b>Enc:</b> WPA2<br><b>AP:</b> 6<br>]]></description>
      <Point>
        <coordinates>-78.8512081,35.8942714,0</coordinates>
      </Point>
    </Placemark>
    <Placemark>
      <name>UNC Wilmington</name>
      <description><![CDATA[<b>Name:</b> University of North Carolina at Wilmington<br><b>Address:</b> , <br><b>SSID:</b> eduroam<br><b>Enc:</b> WPA2<br><b>AP:</b> -<br>]]></description>
      <Point>
        <coordinates>-77.8710285,34.2253022,0</coordinates>
      </Point>
    </Placemark>
    <Placemark>
      <name>Union Square Campus, Inc.</name>
      <description><![CDATA[<b>Name:</b> Main Campus<br><b>Address:</b> , <br><b>SSID:</b> eduroam<br><b>Enc:</b> WPA2+WPA<br><b>AP:</b> 90<br>]]></description>
      <Point>
        <coordinates>-79.7896656,36.0643996,0</coordinates>
      </Point>
    </Placemark>
    <Placemark>
      <name>University of North Carolina - General Administration</name>
      <description><![CDATA[<b>Name:</b> Main Campus<br><b>Address:</b> , <br><b>SSID:</b> eduroam<br><b>Enc:</b> WPA2+WPA<br><b>AP:</b> -<br>]]></description>
      <Point>
        <coordinates>-79.0469134,35.9049122,0</coordinates>
      </Point>
    </Placemark>
    <Placemark>
      <name>University of North Carolina at Asheville</name>
      <description><![CDATA[<b>Name:</b> Main Campus<br><b>Address:</b> , <br><b>SSID:</b> eduroam<br><b>Enc:</b> WPA2+WPA<br><b>AP:</b> -<br>]]></description>
      <Point>
        <coordinates>-82.571107,35.618957,0</coordinates>
      </Point>
    </Placemark>
    <Placemark>
      <name>University of North Carolina at Chapel Hill</name>
      <description><![CDATA[<b>Name:</b> Main Campus<br><b>Address:</b> , <br><b>SSID:</b> eduroam<br><b>Enc:</b> WPA2+WPA<br><b>AP:</b> -<br>]]></description>
      <Point>
        <coordinates>-79.046745,35.9042624,0</coordinates>
      </Point>
    </Placemark>
    <Placemark>
      <name>University of North Carolina at Charlotte</name>
      <description><![CDATA[<b>Name:</b> UNC Charlotte - Center City Campus<br><b>Address:</b> , <br><b>SSID:</b> eduroam<br><b>Enc:</b> WPA2+WPA<br><b>AP:</b> -<br>]]></description>
      <Point>
        <coordinates>-80.8349193,35.2284396,0</coordinates>
      </Point>
    </Placemark>
    <Placemark>
      <name>University of North Carolina at Charlotte</name>
      <description><![CDATA[<b>Name:</b> UNC Charlotte - Main Campus<br><b>Address:</b> , <br><b>SSID:</b> eduroam<br><b>Enc:</b> WPA2+WPA<br><b>AP:</b> -<br>]]></description>
      <Point>
        <coordinates>-80.7309637,35.3053732,0</coordinates>
      </Point>
    </Placemark>
    <Placemark>
      <name>University of North Carolina at Charlotte</name>
      <description><![CDATA[<b>Name:</b> UNC Charlotte - North Carolina Research Campus (NCRC)<br><b>Address:</b> , <br><b>SSID:</b> eduroam<br><b>Enc:</b> WPA2+WPA<br><b>AP:</b> -<br>]]></description>
      <Point>
        <coordinates>-80.6244215,35.4997977,0</coordinates>
      </Point>
    </Placemark>
    <Placemark>
      <name>University of North Carolina at Greensboro</name>
      <description><![CDATA[<b>Name:</b> Joint School of Nanoscience and Nanoengineering<br><b>Address:</b> , <br><b>SSID:</b> eduroam<br><b>Enc:</b> WPA2<br><b>AP:</b> 32<br>]]></description>
      <Point>
        <coordinates>-79.7452819,36.0566713,0</coordinates>
      </Point>
    </Placemark>
    <Placemark>
      <name>University of North Carolina at Greensboro</name>
      <description><![CDATA[<b>Name:</b> Main Campus<br><b>Address:</b> , <br><b>SSID:</b> eduroam<br><b>Enc:</b> WPA2<br><b>AP:</b> 3268<br>]]></description>
      <Point>
        <coordinates>-79.8126621,36.0654377,0</coordinates>
      </Point>
    </Placemark>
    <Placemark>
      <name>University of North Carolina at Pembroke</name>
      <description><![CDATA[<b>Name:</b> UNCP<br><b>Address:</b> , <br><b>SSID:</b> eduroam<br><b>Enc:</b> WPA2<br><b>AP:</b> 1600<br>]]></description>
      <Point>
        <coordinates>-79.2006534,34.6910291,0</coordinates>
      </Point>
    </Placemark>
    <Placemark>
      <name>University of North Carolina School of the Arts</name>
      <description><![CDATA[<b>Name:</b> UNCSA<br><b>Address:</b> , <br><b>SSID:</b> eduroam<br><b>Enc:</b> WPA2<br><b>AP:</b> 500<br>]]></description>
      <Point>
        <coordinates>-80.2373708,36.0765305,0</coordinates>
      </Point>
    </Placemark>
    <Placemark>
      <name>University of North Carolina School of the Arts</name>
      <description><![CDATA[<b>Name:</b> University of North Carolina School of the Arts<br><b>Address:</b> , <br><b>SSID:</b> eduroam<br><b>Enc:</b> WPA2<br><b>AP:</b> 500<br>]]></description>
      <Point>
        <coordinates>-80.2362564,36.0759677,0</coordinates>
      </Point>
    </Placemark>
    <Placemark>
      <name>Wake Forest University</name>
      <description><![CDATA[<b>Name:</b> Wake Forest University<br><b>Address:</b> , <br><b>SSID:</b> eduroam<br><b>Enc:</b> WPA2+WPA<br><b>AP:</b> -<br>]]></description>
      <Point>
        <coordinates>-80.277972,36.1319172,0</coordinates>
      </Point>
    </Placemark>
    <Placemark>
      <name>Western Carolina University</name>
      <description><![CDATA[<b>Name:</b> Western Carolina University - Biltmore Park<br><b>Address:</b> , <br><b>SSID:</b> eduroam<br><b>Enc:</b> WPA2<br><b>AP:</b> -<br>]]></description>
      <Point>
        <coordinates>-82.5542601,35.4852267,0</coordinates>
      </Point>
    </Placemark>
    <Placemark>
      <name>Western Carolina University</name>
      <description><![CDATA[<b>Name:</b> Western Carolina University - Cullowhee<br><b>Address:</b> , <br><b>SSID:</b> eduroam<br><b>Enc:</b> WPA2<br><b>AP:</b> 2800<br>]]></description>
      <Point>
        <coordinates>-83.18091,35.3113479,0</coordinates>
      </Point>
    </Placemark>
    <Placemark>
      <name>William Peace University</name>
      <description><![CDATA[<b>Name:</b> William Peace University<br><b>Address:</b> , <br><b>SSID:</b> eduroam<br><b>Enc:</b> WPA2<br><b>AP:</b> 240<br>]]></description>
      <Point>
        <coordinates>-78.637452,35.789286,0</coordinates>
      </Point>
    </Placemark>
    <Placemark>
      <name>Wilmington North Carolina Convention Center</name>
      <description><![CDATA[<b>Name:</b> Wilmington Convention Center<br><b>Address:</b> , <br><b>SSID:</b> eduroam<br><b>Enc:</b> WPA2<br><b>AP:</b> 28<br>]]></description>
      <Point>
        <coordinates>-77.9511675,34.2423581,0</coordinates>
      </Point>
    </Placemark>
    <Placemark>
      <name>Winston-Salem State University</name>
      <description><![CDATA[<b>Name:</b> Winston-Salem State University<br><b>Address:</b> , <br><b>SSID:</b> eduroam<br><b>Enc:</b> WPA2+WPA<br><b>AP:</b> -<br>]]></description>
      <Point>
        <coordinates>-80.2250862,36.0890605,0</coordinates>
      </Point>
    </Placemark>
    <Placemark>
      <name>yoyodyne labs</name>
      <description><![CDATA[<b>Name:</b> LAB1<br><b>Address:</b> , <br><b>SSID:</b> eduroam<br><b>Enc:</b> WPA2<br><b>AP:</b> 3<br>]]></description>
      <Point>
        <coordinates>-80.3272872,36.0973351,0</coordinates>
      </Point>
    </Placemark>
  </Document>
</kml>
