<?xml version="1.0" encoding="UTF-8"?>
<kml xmlns="http://www.opengis.net/kml/2.2">
  <Document>
    <name>eduroam — New Jersey</name>
    <description><![CDATA[37 eduroam service locations in New Jersey.<br><br>Published by <a href="https://scs.nevada.edu/eduroam">NSHE System Computing Services</a>. Learn more about eduroam Support Organizations from <a href="https://incommon.org/eduroam">Internet2</a>, the eduroam National Roaming Operator for the United States.<br>These maps are derived from data published by GÉANT (<a href="https://monitor.eduroam.org/kml/us.kml">monitor.eduroam.org</a>). This is not an official GÉANT or eduroam publication.<br>eduroam is a registered trademark of the GÉANT Association.<br>Region boundaries are derived from US Census Bureau cartographic boundary files, which as works of the US federal government are in the public domain.<br>Maps generated by eduroam-us-regional-maps, which is BSD 3-Clause licensed.]]></description>
    <open>1</open>
    <Placemark>
      <name>Brookdale Community College</name>
      <description><![CDATA[<b>Name:</b> Brookdale Community College - Freehold Campus<br><b>Address:</b> , <br><b>SSID:</b> eduroam<br><b>Enc:</b> WPA2<br><b>AP:</b> 55<br>]]></description>
      <Point>
        <coordinates>-74.2838614,40.2431531,0</coordinates>
      </Point>
    </Placemark>
    <Placemark>
      <name>Brookdale Community College</name>
      <description><![CDATA[<b>Name:</b> Brookdale Community College - Lincroft Campus<br><b>Address:</b> , <br><b>SSID:</b> eduroam<br><b>Enc:</b> WPA2<br><b>AP:</b> 559<br>]]></description>
      <Point>
        <coordinates>-74.1339973,40.3270495,0</coordinates>
      </Point>
    </Placemark>
    <Placemark>
      <name>Brookdale Community College</name>
      <description><![CDATA[<b>Name:</b> Brookdale Community College - Wall Campus<br><b>Address:</b> , <br><b>SSID:</b> eduroam<br><b>Enc:</b> WPA2<br><b>AP:</b> 28<br>]]></description>
      <Point>
        <coordinates>-74.0638792,40.1833017,0</coordinates>
      </Point>
    </Placemark>
    <Placemark>
      <name>Department of Veterans Affairs</name>
      <description><![CDATA[<b>Name:</b> East Orange VA Medical Center<br><b>Address:</b> , <br><b>SSID:</b> eduroam<br><b>Enc:</b> WPA2<br><b>AP:</b> -<br>]]></description>
      <Point>
        <coordinates>-74.2360853,40.7528,0</coordinates>
      </Point>
    </Placemark>
    <Placemark>
      <name>Department of Veterans Affairs</name>
      <description><![CDATA[<b>Name:</b> Lyons VA Medical Center<br><b>Address:</b> , <br><b>SSID:</b> eduroam<br><b>Enc:</b> WPA2<br><b>AP:</b> -<br>]]></description>
      <Point>
        <coordinates>-74.5530942,40.666474,0</coordinates>
      </Point>
    </Placemark>
    <Placemark>
      <name>Department of Veterans Affairs</name>
      <description><![CDATA[<b>Name:</b> Toms River CBOC<br><b>Address:</b> , <br><b>SSID:</b> eduroam<br><b>Enc:</b> WPA2<br><b>AP:</b> -<br>]]></description>
      <Point>
        <coordinates>-74.1816089,39.971928,0</coordinates>
      </Point>
    </Placemark>
    <Placemark>
      <name>Fairleigh Dickinson University</name>
      <description><![CDATA[<b>Name:</b> Florham Campus<br><b>Address:</b> , <br><b>SSID:</b> eduroam<br><b>Enc:</b> WPA2<br><b>AP:</b> 244<br>]]></description>
      <Point>
        <coordinates>-74.432137,40.776203,0</coordinates>
      </Point>
    </Placemark>
    <Placemark>
      <name>Fairleigh Dickinson University</name>
      <description><![CDATA[<b>Name:</b> Metropolitan Campus<br><b>Address:</b> , <br><b>SSID:</b> eduroam<br><b>Enc:</b> WPA2<br><b>AP:</b> 180<br>]]></description>
      <Point>
        <coordinates>-74.0298271,40.8975546,0</coordinates>
      </Point>
    </Placemark>
    <Placemark>
      <name>Georgian Court University</name>
      <description><![CDATA[<b>Name:</b> Georgian Court University<br><b>Address:</b> , <br><b>SSID:</b> eduroam<br><b>Enc:</b> WPA2<br><b>AP:</b> -<br>]]></description>
      <Point>
        <coordinates>-74.2277168,40.0988607,0</coordinates>
      </Point>
    </Placemark>
    <Placemark>
      <name>Institute for Advanced Study - Hamilton</name>
      <description><![CDATA[<b>Name:</b> ep<br><b>Address:</b> , <br><b>SSID:</b> eduroam<br><b>Enc:</b> WPA2+WPA<br><b>AP:</b> 1<br>]]></description>
      <Point>
        <coordinates>-74.674057,40.190194,0</coordinates>
      </Point>
    </Placemark>
    <Placemark>
      <name>Institute for Advanced Study - Princeton</name>
      <description><![CDATA[<b>Name:</b> Main Campus<br><b>Address:</b> , <br><b>SSID:</b> eduroam<br><b>Enc:</b> WPA2+WPA<br><b>AP:</b> 350<br>]]></description>
      <Point>
        <coordinates>-74.6667284,40.3319263,0</coordinates>
      </Point>
    </Placemark>
    <Placemark>
      <name>Kean University</name>
      <description><![CDATA[<b>Name:</b> Kean University - Union Campus<br><b>Address:</b> , <br><b>SSID:</b> eduroam<br><b>Enc:</b> WPA3+WPA2+WPA<br><b>AP:</b> 2100<br>]]></description>
      <Point>
        <coordinates>-74.2309413,40.6798676,0</coordinates>
      </Point>
    </Placemark>
    <Placemark>
      <name>Monmouth University</name>
      <description><![CDATA[<b>Name:</b> Monmouth University - West Long Branch<br><b>Address:</b> , <br><b>SSID:</b> eduroam<br><b>Enc:</b> WPA2<br><b>AP:</b> 700<br>]]></description>
      <Point>
        <coordinates>-74.005833,40.2800286,0</coordinates>
      </Point>
    </Placemark>
    <Placemark>
      <name>Montclair State University</name>
      <description><![CDATA[<b>Name:</b> Bloomfield College at Montclair State University<br><b>Address:</b> , <br><b>SSID:</b> eduroam<br><b>Enc:</b> WPA2+WPA<br><b>AP:</b> -<br>]]></description>
      <Point>
        <coordinates>-74.194833,40.7951957,0</coordinates>
      </Point>
    </Placemark>
    <Placemark>
      <name>Montclair State University</name>
      <description><![CDATA[<b>Name:</b> Montclair State University<br><b>Address:</b> , <br><b>SSID:</b> eduroam<br><b>Enc:</b> WPA2+WPA<br><b>AP:</b> -<br>]]></description>
      <Point>
        <coordinates>-74.1978853,40.8622696,0</coordinates>
      </Point>
    </Placemark>
    <Placemark>
      <name>New Jersey Institute of Technology</name>
      <description><![CDATA[<b>Name:</b> New Jersey Institute of Technology<br><b>Address:</b> , <br><b>SSID:</b> eduroam<br><b>Enc:</b> WPA2<br><b>AP:</b> 1600<br>]]></description>
      <Point>
        <coordinates>-74.1770294,40.742853,0</coordinates>
      </Point>
    </Placemark>
    <Placemark>
      <name>New Jersey Institute of Technology</name>
      <description><![CDATA[<b>Name:</b> NJIT Central King Building<br><b>Address:</b> , <br><b>SSID:</b> eduroam<br><b>Enc:</b> WPA2<br><b>AP:</b> 178<br>]]></description>
      <Point>
        <coordinates>-74.1778214,40.7420906,0</coordinates>
      </Point>
    </Placemark>
    <Placemark>
      <name>New Jersey Institute of Technology</name>
      <description><![CDATA[<b>Name:</b> NJIT EDC III (VentureLink)<br><b>Address:</b> , <br><b>SSID:</b> eduroam<br><b>Enc:</b> WPA2<br><b>AP:</b> 25<br>]]></description>
      <Point>
        <coordinates>-74.1822469,40.7424466,0</coordinates>
      </Point>
    </Placemark>
    <Placemark>
      <name>New Jersey Institute of Technology</name>
      <description><![CDATA[<b>Name:</b> NJIT FSB<br><b>Address:</b> , <br><b>SSID:</b> eduroam<br><b>Enc:</b> WPA2<br><b>AP:</b> 15<br>]]></description>
      <Point>
        <coordinates>-74.1838964,40.7438903,0</coordinates>
      </Point>
    </Placemark>
    <Placemark>
      <name>New Jersey Institute of Technology</name>
      <description><![CDATA[<b>Name:</b> NJIT Guttenberg Information Technologies Center<br><b>Address:</b> , <br><b>SSID:</b> eduroam<br><b>Enc:</b> WPA2<br><b>AP:</b> 100<br>]]></description>
      <Point>
        <coordinates>-74.1798018,40.7442462,0</coordinates>
      </Point>
    </Placemark>
    <Placemark>
      <name>New Jersey Institute of Technology</name>
      <description><![CDATA[<b>Name:</b> NJIT Life Sciences and Engineering Center<br><b>Address:</b> , <br><b>SSID:</b> eduroam<br><b>Enc:</b> WPA2<br><b>AP:</b> 74<br>]]></description>
      <Point>
        <coordinates>-74.1787712,40.7407504,0</coordinates>
      </Point>
    </Placemark>
    <Placemark>
      <name>New Jersey Institute of Technology</name>
      <description><![CDATA[<b>Name:</b> NJIT Robert W. Van Houten Library<br><b>Address:</b> , <br><b>SSID:</b> eduroam<br><b>Enc:</b> WPA2<br><b>AP:</b> 54<br>]]></description>
      <Point>
        <coordinates>-74.1780795,40.7437328,0</coordinates>
      </Point>
    </Placemark>
    <Placemark>
      <name>New Jersey Institute of Technology</name>
      <description><![CDATA[<b>Name:</b> NJIT The Green<br><b>Address:</b> , <br><b>SSID:</b> eduroam<br><b>Enc:</b> WPA2<br><b>AP:</b> 66<br>]]></description>
      <Point>
        <coordinates>-74.1793409,40.7423345,0</coordinates>
      </Point>
    </Placemark>
    <Placemark>
      <name>New Jersey Institute of Technology</name>
      <description><![CDATA[<b>Name:</b> NJIT Warren Street Village<br><b>Address:</b> , <br><b>SSID:</b> eduroam<br><b>Enc:</b> WPA2<br><b>AP:</b> 160<br>]]></description>
      <Point>
        <coordinates>-74.1803901,40.7409838,0</coordinates>
      </Point>
    </Placemark>
    <Placemark>
      <name>New Jersey Institute of Technology</name>
      <description><![CDATA[<b>Name:</b> NJIT Wellness and Events Center<br><b>Address:</b> , <br><b>SSID:</b> eduroam<br><b>Enc:</b> WPA2<br><b>AP:</b> 195<br>]]></description>
      <Point>
        <coordinates>-74.180875,40.7421591,0</coordinates>
      </Point>
    </Placemark>
    <Placemark>
      <name>Princeton Plasma Physics Laboratory</name>
      <description><![CDATA[<b>Name:</b> Main Campus<br><b>Address:</b> , <br><b>SSID:</b> eduroam<br><b>Enc:</b> WPA2<br><b>AP:</b> -<br>]]></description>
      <Point>
        <coordinates>-74.6034453,40.3501246,0</coordinates>
      </Point>
    </Placemark>
    <Placemark>
      <name>Princeton University</name>
      <description><![CDATA[<b>Name:</b> Princeton University Main Campus<br><b>Address:</b> , <br><b>SSID:</b> eduroam<br><b>Enc:</b> WPA3+WPA2+WPA<br><b>AP:</b> 13000<br>]]></description>
      <Point>
        <coordinates>-74.6593338,40.348707,0</coordinates>
      </Point>
    </Placemark>
    <Placemark>
      <name>Rider University</name>
      <description><![CDATA[<b>Name:</b> Rider University<br><b>Address:</b> , <br><b>SSID:</b> eduroam<br><b>Enc:</b> WPA2+WPA<br><b>AP:</b> 1500<br>]]></description>
      <Point>
        <coordinates>-74.7412303,40.2809082,0</coordinates>
      </Point>
    </Placemark>
    <Placemark>
      <name>Rowan University</name>
      <description><![CDATA[<b>Name:</b> Rowan University - Cooper Medical School of Rowan Univeristy<br><b>Address:</b> , <br><b>SSID:</b> eduroam<br><b>Enc:</b> WPA2+WPA<br><b>AP:</b> 265<br>]]></description>
      <Point>
        <coordinates>-75.1195585,39.9407068,0</coordinates>
      </Point>
    </Placemark>
    <Placemark>
      <name>Rowan University</name>
      <description><![CDATA[<b>Name:</b> Rowan University - Glassboro Campus<br><b>Address:</b> , <br><b>SSID:</b> eduroam<br><b>Enc:</b> WPA2+WPA<br><b>AP:</b> 2750<br>]]></description>
      <Point>
        <coordinates>-75.1182734,39.7089194,0</coordinates>
      </Point>
    </Placemark>
    <Placemark>
      <name>Rowan University</name>
      <description><![CDATA[<b>Name:</b> Rowan University - School of Osteopathic Medicine<br><b>Address:</b> , <br><b>SSID:</b> eduroam<br><b>Enc:</b> WPA2+WPA<br><b>AP:</b> 375<br>]]></description>
      <Point>
        <coordinates>-75.0066062,39.8308751,0</coordinates>
      </Point>
    </Placemark>
    <Placemark>
      <name>Rutgers University-New Brunswick</name>
      <description><![CDATA[<b>Name:</b> Rutgers University - New Brunswick/Piscataway Campus<br><b>Address:</b> , <br><b>SSID:</b> eduroam<br><b>Enc:</b> WPA2+WPA<br><b>AP:</b> -<br>]]></description>
      <Point>
        <coordinates>-74.4628215,40.5219389,0</coordinates>
      </Point>
    </Placemark>
    <Placemark>
      <name>Saint Peter's University</name>
      <description><![CDATA[<b>Name:</b> Saint Peter's University Jersey City<br><b>Address:</b> , <br><b>SSID:</b> eduroam<br><b>Enc:</b> WPA3+WPA2+WPA<br><b>AP:</b> 440<br>]]></description>
      <Point>
        <coordinates>-74.0715029,40.7272231,0</coordinates>
      </Point>
    </Placemark>
    <Placemark>
      <name>Stevens Institute of Technology</name>
      <description><![CDATA[<b>Name:</b> Stevens Institute of Technology - Hoboken Main Campus<br><b>Address:</b> , <br><b>SSID:</b> eduroam<br><b>Enc:</b> WPA3+WPA2+WPA<br><b>AP:</b> 1700<br>]]></description>
      <Point>
        <coordinates>-74.023957,40.74485,0</coordinates>
      </Point>
    </Placemark>
    <Placemark>
      <name>The College of New Jersey</name>
      <description><![CDATA[<b>Name:</b> (TCNJ) - main campus<br><b>Address:</b> , <br><b>SSID:</b> eduroam<br><b>Enc:</b> WPA2<br><b>AP:</b> 2800<br>]]></description>
      <Point>
        <coordinates>-74.7781468,40.269732,0</coordinates>
      </Point>
    </Placemark>
    <Placemark>
      <name>William Paterson University of New Jersey</name>
      <description><![CDATA[<b>Name:</b> Main Campus<br><b>Address:</b> , <br><b>SSID:</b> eduroam<br><b>Enc:</b> WPA2<br><b>AP:</b> -<br>]]></description>
      <Point>
        <coordinates>-74.1995851,40.9440293,0</coordinates>
      </Point>
    </Placemark>
    <Placemark>
      <name>William Paterson University of New Jersey</name>
      <description><![CDATA[<b>Name:</b> Valley Road Campus<br><b>Address:</b> , <br><b>SSID:</b> eduroam<br><b>Enc:</b> WPA2+WPA<br><b>AP:</b> -<br>]]></description>
      <Point>
        <coordinates>-74.2225951,40.9673628,0</coordinates>
      </Point>
    </Placemark>
  </Document>
</kml>
