<?xml version="1.0" encoding="UTF-8"?>
<kml xmlns="http://www.opengis.net/kml/2.2">
  <Document>
    <name>eduroam — New York</name>
    <description><![CDATA[164 eduroam service locations in New York.<br><br>Published by <a href="https://scs.nevada.edu/eduroam">NSHE System Computing Services</a>. Learn more about eduroam Support Organizations from <a href="https://incommon.org/eduroam">Internet2</a>, the eduroam National Roaming Operator for the United States.<br>Service location data comes from the eduroam location database published by GÉANT (<a href="https://monitor.eduroam.org/kml/us.kml">monitor.eduroam.org</a>). These maps are derived from it and are not an official GÉANT or eduroam publication.<br>eduroam is a registered trademark of GÉANT Vereniging.<br>Region boundaries are derived from US Census Bureau cartographic boundary files, which as works of the US federal government are in the public domain.<br>Maps generated by eduroam-us-regional-maps, which is BSD 3-Clause licensed.]]></description>
    <open>1</open>
    <Placemark>
      <name>Adelphi University</name>
      <description><![CDATA[<b>Name:</b> Main Campus<br><b>Address:</b> , <br><b>SSID:</b> eduroam<br><b>Enc:</b> WPA2+WPA<br><b>AP:</b> -<br>]]></description>
      <Point>
        <coordinates>-73.6506244,40.7220719,0</coordinates>
      </Point>
    </Placemark>
    <Placemark>
      <name>Alfred University</name>
      <description><![CDATA[<b>Name:</b> Alfred<br><b>Address:</b> , <br><b>SSID:</b> eduroam<br><b>Enc:</b> WPA2<br><b>AP:</b> 20<br>]]></description>
      <Point>
        <coordinates>-77.786103,42.2558218,0</coordinates>
      </Point>
    </Placemark>
    <Placemark>
      <name>Brookhaven National Laboratory</name>
      <description><![CDATA[<b>Name:</b> BNL Main Campus<br><b>Address:</b> , <br><b>SSID:</b> eduroam<br><b>Enc:</b> WPA2+WPA<br><b>AP:</b> 560<br>]]></description>
      <Point>
        <coordinates>-72.879522,40.8679451,0</coordinates>
      </Point>
    </Placemark>
    <Placemark>
      <name>Brooklyn Law School</name>
      <description><![CDATA[<b>Name:</b> Brooklyn Law School<br><b>Address:</b> , <br><b>SSID:</b> eduroam<br><b>Enc:</b> WPA2+WPA<br><b>AP:</b> 210<br>]]></description>
      <Point>
        <coordinates>-73.9897127,40.6919566,0</coordinates>
      </Point>
    </Placemark>
    <Placemark>
      <name>Cisco Systems</name>
      <description><![CDATA[<b>Name:</b> Campus1<br><b>Address:</b> , <br><b>SSID:</b> eduroam<br><b>Enc:</b> WPA2<br><b>AP:</b> 1<br>]]></description>
      <Point>
        <coordinates>-73.9963009,40.7364749,0</coordinates>
      </Point>
    </Placemark>
    <Placemark>
      <name>City University of New York</name>
      <description><![CDATA[<b>Name:</b> Advanced Science Research Center<br><b>Address:</b> , <br><b>SSID:</b> eduroam<br><b>Enc:</b> WPA2<br><b>AP:</b> 100<br>]]></description>
      <Point>
        <coordinates>-73.9509354,40.8158375,0</coordinates>
      </Point>
    </Placemark>
    <Placemark>
      <name>City University of New York</name>
      <description><![CDATA[<b>Name:</b> Borough of Manhattan Community College Center for Continuing Education and Workforce Development<br><b>Address:</b> , <br><b>SSID:</b> eduroam<br><b>Enc:</b> WPA2<br><b>AP:</b> 150<br>]]></description>
      <Point>
        <coordinates>-74.0137577,40.7054843,0</coordinates>
      </Point>
    </Placemark>
    <Placemark>
      <name>City University of New York</name>
      <description><![CDATA[<b>Name:</b> Borough of Manhattan Community College Fiterman Hall<br><b>Address:</b> , <br><b>SSID:</b> eduroam<br><b>Enc:</b> WPA2<br><b>AP:</b> 130<br>]]></description>
      <Point>
        <coordinates>-74.0110598,40.7137175,0</coordinates>
      </Point>
    </Placemark>
    <Placemark>
      <name>City University of New York</name>
      <description><![CDATA[<b>Name:</b> Borough of Manhattan Community College Main Campus<br><b>Address:</b> , <br><b>SSID:</b> eduroam<br><b>Enc:</b> WPA2<br><b>AP:</b> 300<br>]]></description>
      <Point>
        <coordinates>-74.0114555,40.7188555,0</coordinates>
      </Point>
    </Placemark>
    <Placemark>
      <name>City University of New York</name>
      <description><![CDATA[<b>Name:</b> Borough of Manhattan Community College Murray Street Building<br><b>Address:</b> , <br><b>SSID:</b> eduroam<br><b>Enc:</b> WPA2<br><b>AP:</b> 150<br>]]></description>
      <Point>
        <coordinates>-74.010839,40.714323,0</coordinates>
      </Point>
    </Placemark>
    <Placemark>
      <name>City University of New York</name>
      <description><![CDATA[<b>Name:</b> Bronx Community College<br><b>Address:</b> , <br><b>SSID:</b> eduroam<br><b>Enc:</b> WPA2<br><b>AP:</b> 321<br>]]></description>
      <Point>
        <coordinates>-73.9129287,40.8575157,0</coordinates>
      </Point>
    </Placemark>
    <Placemark>
      <name>City University of New York</name>
      <description><![CDATA[<b>Name:</b> College of Staten Island<br><b>Address:</b> , <br><b>SSID:</b> eduroam<br><b>Enc:</b> WPA2<br><b>AP:</b> 418<br>]]></description>
      <Point>
        <coordinates>-74.1534291,40.6087254,0</coordinates>
      </Point>
    </Placemark>
    <Placemark>
      <name>City University of New York</name>
      <description><![CDATA[<b>Name:</b> Craig Newmark Graduate School of Journalism<br><b>Address:</b> , <br><b>SSID:</b> eduroam<br><b>Enc:</b> WPA2<br><b>AP:</b> 46<br>]]></description>
      <Point>
        <coordinates>-73.9888456,40.7553426,0</coordinates>
      </Point>
    </Placemark>
    <Placemark>
      <name>City University of New York</name>
      <description><![CDATA[<b>Name:</b> CUNY Central Office 205 East 42nd Street<br><b>Address:</b> , <br><b>SSID:</b> eduroam<br><b>Enc:</b> WPA2<br><b>AP:</b> 104<br>]]></description>
      <Point>
        <coordinates>-73.9735038,40.7509381,0</coordinates>
      </Point>
    </Placemark>
    <Placemark>
      <name>City University of New York</name>
      <description><![CDATA[<b>Name:</b> CUNY Central Office 230 West 41st Street<br><b>Address:</b> , <br><b>SSID:</b> eduroam<br><b>Enc:</b> WPA2<br><b>AP:</b> 28<br>]]></description>
      <Point>
        <coordinates>-73.9888607,40.7557231,0</coordinates>
      </Point>
    </Placemark>
    <Placemark>
      <name>City University of New York</name>
      <description><![CDATA[<b>Name:</b> CUNY Central Office 555 W 57th Street<br><b>Address:</b> , <br><b>SSID:</b> eduroam<br><b>Enc:</b> WPA2<br><b>AP:</b> 78<br>]]></description>
      <Point>
        <coordinates>-73.9903111,40.7704561,0</coordinates>
      </Point>
    </Placemark>
    <Placemark>
      <name>City University of New York</name>
      <description><![CDATA[<b>Name:</b> CUNY School of Labor and Urban Studies<br><b>Address:</b> , <br><b>SSID:</b> eduroam<br><b>Enc:</b> WPA2<br><b>AP:</b> 48<br>]]></description>
      <Point>
        <coordinates>-73.9816849,40.7550559,0</coordinates>
      </Point>
    </Placemark>
    <Placemark>
      <name>City University of New York</name>
      <description><![CDATA[<b>Name:</b> CUNY School of Professional Studies<br><b>Address:</b> , <br><b>SSID:</b> eduroam<br><b>Enc:</b> WPA2<br><b>AP:</b> 63<br>]]></description>
      <Point>
        <coordinates>-73.9900449,40.7483682,0</coordinates>
      </Point>
    </Placemark>
    <Placemark>
      <name>City University of New York</name>
      <description><![CDATA[<b>Name:</b> Graduate School and University Center<br><b>Address:</b> , <br><b>SSID:</b> eduroam<br><b>Enc:</b> WPA2<br><b>AP:</b> 168<br>]]></description>
      <Point>
        <coordinates>-73.9840921,40.7487891,0</coordinates>
      </Point>
    </Placemark>
    <Placemark>
      <name>City University of New York</name>
      <description><![CDATA[<b>Name:</b> John Jay College of Criminal Justice<br><b>Address:</b> , <br><b>SSID:</b> eduroam<br><b>Enc:</b> WPA2<br><b>AP:</b> 600<br>]]></description>
      <Point>
        <coordinates>-73.9897134,40.7711041,0</coordinates>
      </Point>
    </Placemark>
    <Placemark>
      <name>City University of New York</name>
      <description><![CDATA[<b>Name:</b> Lehman College<br><b>Address:</b> , <br><b>SSID:</b> eduroam<br><b>Enc:</b> WPA2<br><b>AP:</b> 574<br>]]></description>
      <Point>
        <coordinates>-73.89316,40.8747493,0</coordinates>
      </Point>
    </Placemark>
    <Placemark>
      <name>City University of New York</name>
      <description><![CDATA[<b>Name:</b> Macaulay Honors College<br><b>Address:</b> , <br><b>SSID:</b> eduroam<br><b>Enc:</b> WPA2<br><b>AP:</b> 19<br>]]></description>
      <Point>
        <coordinates>-73.9801793,40.7739709,0</coordinates>
      </Point>
    </Placemark>
    <Placemark>
      <name>City University of New York</name>
      <description><![CDATA[<b>Name:</b> New York City College of Technology Academic Complex<br><b>Address:</b> , <br><b>SSID:</b> eduroam<br><b>Enc:</b> WPA2<br><b>AP:</b> 173<br>]]></description>
      <Point>
        <coordinates>-73.9868525,40.6955082,0</coordinates>
      </Point>
    </Placemark>
    <Placemark>
      <name>City University of New York</name>
      <description><![CDATA[<b>Name:</b> New York City College of Technology Namm Complex<br><b>Address:</b> , <br><b>SSID:</b> eduroam<br><b>Enc:</b> WPA2<br><b>AP:</b> 176<br>]]></description>
      <Point>
        <coordinates>-73.9875681,40.6954929,0</coordinates>
      </Point>
    </Placemark>
    <Placemark>
      <name>City University of New York</name>
      <description><![CDATA[<b>Name:</b> New York City College of Technology Voorhees Complex<br><b>Address:</b> , <br><b>SSID:</b> eduroam<br><b>Enc:</b> WPA2<br><b>AP:</b> 67<br>]]></description>
      <Point>
        <coordinates>-73.9875024,40.6989759,0</coordinates>
      </Point>
    </Placemark>
    <Placemark>
      <name>City University of New York</name>
      <description><![CDATA[<b>Name:</b> Queens College, CUNY<br><b>Address:</b> , <br><b>SSID:</b> eduroam<br><b>Enc:</b> WPA2<br><b>AP:</b> 750<br>]]></description>
      <Point>
        <coordinates>-73.8194845,40.7382488,0</coordinates>
      </Point>
    </Placemark>
    <Placemark>
      <name>City University of New York</name>
      <description><![CDATA[<b>Name:</b> Queensborough Community College<br><b>Address:</b> , <br><b>SSID:</b> eduroam<br><b>Enc:</b> WPA2<br><b>AP:</b> 297<br>]]></description>
      <Point>
        <coordinates>-73.7557325,40.7557262,0</coordinates>
      </Point>
    </Placemark>
    <Placemark>
      <name>City University of New York</name>
      <description><![CDATA[<b>Name:</b> The City University of New York Central Office<br><b>Address:</b> , <br><b>SSID:</b> eduroam<br><b>Enc:</b> WPA2<br><b>AP:</b> 43<br>]]></description>
      <Point>
        <coordinates>-74.0077944,40.7291207,0</coordinates>
      </Point>
    </Placemark>
    <Placemark>
      <name>City University of New York</name>
      <description><![CDATA[<b>Name:</b> York College<br><b>Address:</b> , <br><b>SSID:</b> eduroam<br><b>Enc:</b> WPA2<br><b>AP:</b> -<br>]]></description>
      <Point>
        <coordinates>-73.7960148,40.7022966,0</coordinates>
      </Point>
    </Placemark>
    <Placemark>
      <name>City University of New York</name>
      <description><![CDATA[<b>Name:</b> York College Child Care Center<br><b>Address:</b> , <br><b>SSID:</b> eduroam<br><b>Enc:</b> WPA2<br><b>AP:</b> -<br>]]></description>
      <Point>
        <coordinates>-73.7980113,40.7019717,0</coordinates>
      </Point>
    </Placemark>
    <Placemark>
      <name>City University of New York</name>
      <description><![CDATA[<b>Name:</b> York College Health and Physical Education Building<br><b>Address:</b> , <br><b>SSID:</b> eduroam<br><b>Enc:</b> WPA2<br><b>AP:</b> -<br>]]></description>
      <Point>
        <coordinates>-73.7951609,40.7005636,0</coordinates>
      </Point>
    </Placemark>
    <Placemark>
      <name>City University of New York</name>
      <description><![CDATA[<b>Name:</b> York College Performing and Fine Arts (PAC)<br><b>Address:</b> , <br><b>SSID:</b> eduroam<br><b>Enc:</b> WPA2<br><b>AP:</b> -<br>]]></description>
      <Point>
        <coordinates>-73.7955063,40.70238,0</coordinates>
      </Point>
    </Placemark>
    <Placemark>
      <name>Clarkson University</name>
      <description><![CDATA[<b>Name:</b> Clarkson University - Downtown Campus<br><b>Address:</b> , <br><b>SSID:</b> eduroam<br><b>Enc:</b> WPA2+WPA<br><b>AP:</b> 60<br>]]></description>
      <Point>
        <coordinates>-74.9798024,44.6682194,0</coordinates>
      </Point>
    </Placemark>
    <Placemark>
      <name>Clarkson University</name>
      <description><![CDATA[<b>Name:</b> Clarkson University - Hill Campus<br><b>Address:</b> , <br><b>SSID:</b> eduroam<br><b>Enc:</b> WPA2+WPA<br><b>AP:</b> 740<br>]]></description>
      <Point>
        <coordinates>-74.9988575,44.6627494,0</coordinates>
      </Point>
    </Placemark>
    <Placemark>
      <name>Cloud5 Communications</name>
      <description><![CDATA[<b>Name:</b> The Heartwood<br><b>Address:</b> , <br><b>SSID:</b> eduroam<br><b>Enc:</b> WPA2<br><b>AP:</b> 48<br>]]></description>
      <Point>
        <coordinates>-73.8968047,41.6878091,0</coordinates>
      </Point>
    </Placemark>
    <Placemark>
      <name>Colgate University</name>
      <description><![CDATA[<b>Name:</b> Colgate University<br><b>Address:</b> , <br><b>SSID:</b> eduroam<br><b>Enc:</b> WPA2+WPA<br><b>AP:</b> 2200<br>]]></description>
      <Point>
        <coordinates>-75.5375417,42.8188803,0</coordinates>
      </Point>
    </Placemark>
    <Placemark>
      <name>Columbia University in the City of New York</name>
      <description><![CDATA[<b>Name:</b> Barnard College<br><b>Address:</b> , <br><b>SSID:</b> eduroam<br><b>Enc:</b> WPA2+WPA<br><b>AP:</b> -<br>]]></description>
      <Point>
        <coordinates>-73.962904,40.809974,0</coordinates>
      </Point>
    </Placemark>
    <Placemark>
      <name>Columbia University in the City of New York</name>
      <description><![CDATA[<b>Name:</b> Columbia University - Nash Building<br><b>Address:</b> , <br><b>SSID:</b> eduroam<br><b>Enc:</b> WPA2<br><b>AP:</b> -<br>]]></description>
      <Point>
        <coordinates>-73.9557745,40.8183027,0</coordinates>
      </Point>
    </Placemark>
    <Placemark>
      <name>Columbia University in the City of New York</name>
      <description><![CDATA[<b>Name:</b> Main Campus<br><b>Address:</b> , <br><b>SSID:</b> eduroam<br><b>Enc:</b> WPA2+WPA<br><b>AP:</b> -<br>]]></description>
      <Point>
        <coordinates>-73.9636046,40.8079104,0</coordinates>
      </Point>
    </Placemark>
    <Placemark>
      <name>Columbia University in the City of New York</name>
      <description><![CDATA[<b>Name:</b> Teachers College<br><b>Address:</b> , <br><b>SSID:</b> eduroam<br><b>Enc:</b> WPA2<br><b>AP:</b> -<br>]]></description>
      <Point>
        <coordinates>-73.9605296,40.8104231,0</coordinates>
      </Point>
    </Placemark>
    <Placemark>
      <name>Cornell University</name>
      <description><![CDATA[<b>Name:</b> Main Campus<br><b>Address:</b> , <br><b>SSID:</b> eduroam<br><b>Enc:</b> WPA2<br><b>AP:</b> 6500<br>]]></description>
      <Point>
        <coordinates>-76.4816644,42.4433991,0</coordinates>
      </Point>
    </Placemark>
    <Placemark>
      <name>CUNY Hunter College</name>
      <description><![CDATA[<b>Name:</b> Main Campus<br><b>Address:</b> , <br><b>SSID:</b> eduroam<br><b>Enc:</b> WPA2+WPA<br><b>AP:</b> -<br>]]></description>
      <Point>
        <coordinates>-73.9647683,40.7687114,0</coordinates>
      </Point>
    </Placemark>
    <Placemark>
      <name>Department of Veterans Affairs</name>
      <description><![CDATA[<b>Name:</b> Bath VA Medical Center<br><b>Address:</b> , <br><b>SSID:</b> eduroam<br><b>Enc:</b> WPA2<br><b>AP:</b> -<br>]]></description>
      <Point>
        <coordinates>-77.347502,42.344002,0</coordinates>
      </Point>
    </Placemark>
    <Placemark>
      <name>Department of Veterans Affairs</name>
      <description><![CDATA[<b>Name:</b> Bronx VA Medical Center<br><b>Address:</b> , <br><b>SSID:</b> eduroam<br><b>Enc:</b> WPA2<br><b>AP:</b> -<br>]]></description>
      <Point>
        <coordinates>-73.9061839,40.8673426,0</coordinates>
      </Point>
    </Placemark>
    <Placemark>
      <name>Department of Veterans Affairs</name>
      <description><![CDATA[<b>Name:</b> Brooklyn VA Medical Center<br><b>Address:</b> , <br><b>SSID:</b> eduroam<br><b>Enc:</b> WPA2<br><b>AP:</b> -<br>]]></description>
      <Point>
        <coordinates>-74.0243286,40.6088857,0</coordinates>
      </Point>
    </Placemark>
    <Placemark>
      <name>Department of Veterans Affairs</name>
      <description><![CDATA[<b>Name:</b> Canandaigua VA Medical Center<br><b>Address:</b> , <br><b>SSID:</b> eduroam<br><b>Enc:</b> WPA2<br><b>AP:</b> -<br>]]></description>
      <Point>
        <coordinates>-77.2711574,42.9009123,0</coordinates>
      </Point>
    </Placemark>
    <Placemark>
      <name>Department of Veterans Affairs</name>
      <description><![CDATA[<b>Name:</b> Castle Point VA Medical Center<br><b>Address:</b> , <br><b>SSID:</b> eduroam<br><b>Enc:</b> WPA2<br><b>AP:</b> -<br>]]></description>
      <Point>
        <coordinates>-73.96315,41.54295,0</coordinates>
      </Point>
    </Placemark>
    <Placemark>
      <name>Department of Veterans Affairs</name>
      <description><![CDATA[<b>Name:</b> Manhattan VA Medical Center<br><b>Address:</b> , <br><b>SSID:</b> eduroam<br><b>Enc:</b> WPA2<br><b>AP:</b> -<br>]]></description>
      <Point>
        <coordinates>-73.97683,40.7371636,0</coordinates>
      </Point>
    </Placemark>
    <Placemark>
      <name>Department of Veterans Affairs</name>
      <description><![CDATA[<b>Name:</b> Montrose VA Medical Center<br><b>Address:</b> , <br><b>SSID:</b> eduroam<br><b>Enc:</b> WPA2<br><b>AP:</b> -<br>]]></description>
      <Point>
        <coordinates>-73.93047,41.23952,0</coordinates>
      </Point>
    </Placemark>
    <Placemark>
      <name>Department of Veterans Affairs</name>
      <description><![CDATA[<b>Name:</b> Northport VA Medical Center<br><b>Address:</b> , <br><b>SSID:</b> eduroam<br><b>Enc:</b> WPA2<br><b>AP:</b> -<br>]]></description>
      <Point>
        <coordinates>-73.3066788,40.8963334,0</coordinates>
      </Point>
    </Placemark>
    <Placemark>
      <name>Department of Veterans Affairs</name>
      <description><![CDATA[<b>Name:</b> Rochester CBOC<br><b>Address:</b> , <br><b>SSID:</b> eduroam<br><b>Enc:</b> WPA2<br><b>AP:</b> -<br>]]></description>
      <Point>
        <coordinates>-77.6336139,43.0698257,0</coordinates>
      </Point>
    </Placemark>
    <Placemark>
      <name>Department of Veterans Affairs</name>
      <description><![CDATA[<b>Name:</b> Rochester Clinton Crossing CBOC<br><b>Address:</b> , <br><b>SSID:</b> eduroam<br><b>Enc:</b> WPA2<br><b>AP:</b> -<br>]]></description>
      <Point>
        <coordinates>-77.59637,43.1146516,0</coordinates>
      </Point>
    </Placemark>
    <Placemark>
      <name>Department of Veterans Affairs</name>
      <description><![CDATA[<b>Name:</b> Syracuse VA Medical Center<br><b>Address:</b> , <br><b>SSID:</b> eduroam<br><b>Enc:</b> WPA2<br><b>AP:</b> -<br>]]></description>
      <Point>
        <coordinates>-76.13906,43.03852,0</coordinates>
      </Point>
    </Placemark>
    <Placemark>
      <name>essensys plc</name>
      <description><![CDATA[<b>Name:</b> Essensys - Rockafella<br><b>Address:</b> , <br><b>SSID:</b> eduroam<br><b>Enc:</b> WPA2<br><b>AP:</b> 18<br>]]></description>
      <Point>
        <coordinates>-73.9784504,40.7575596,0</coordinates>
      </Point>
    </Placemark>
    <Placemark>
      <name>Fordham University</name>
      <description><![CDATA[<b>Name:</b> 400 Westchester<br><b>Address:</b> , <br><b>SSID:</b> eduroam<br><b>Enc:</b> WPA2+WPA<br><b>AP:</b> 35<br>]]></description>
      <Point>
        <coordinates>-73.728943,41.0294476,0</coordinates>
      </Point>
    </Placemark>
    <Placemark>
      <name>Fordham University</name>
      <description><![CDATA[<b>Name:</b> Lincoln Center<br><b>Address:</b> , <br><b>SSID:</b> eduroam<br><b>Enc:</b> WPA2+WPA<br><b>AP:</b> 630<br>]]></description>
      <Point>
        <coordinates>-73.9853904,40.7707175,0</coordinates>
      </Point>
    </Placemark>
    <Placemark>
      <name>Fordham University</name>
      <description><![CDATA[<b>Name:</b> Rose Hill<br><b>Address:</b> , <br><b>SSID:</b> eduroam<br><b>Enc:</b> WPA2+WPA<br><b>AP:</b> 1140<br>]]></description>
      <Point>
        <coordinates>-73.8892181,40.861203,0</coordinates>
      </Point>
    </Placemark>
    <Placemark>
      <name>Fordham University</name>
      <description><![CDATA[<b>Name:</b> The Louis Calder Center<br><b>Address:</b> , <br><b>SSID:</b> eduroam<br><b>Enc:</b> WPA2+WPA<br><b>AP:</b> 14<br>]]></description>
      <Point>
        <coordinates>-73.7302978,41.1245569,0</coordinates>
      </Point>
    </Placemark>
    <Placemark>
      <name>Hamilton College</name>
      <description><![CDATA[<b>Name:</b> Burke Library<br><b>Address:</b> , <br><b>SSID:</b> eduroam<br><b>Enc:</b> WPA2<br><b>AP:</b> 15<br>]]></description>
      <Point>
        <coordinates>-75.405987,43.0537401,0</coordinates>
      </Point>
    </Placemark>
    <Placemark>
      <name>Hobart &amp; William Smith Colleges</name>
      <description><![CDATA[<b>Name:</b> Hobart and William Smith Colleges<br><b>Address:</b> , <br><b>SSID:</b> eduroam<br><b>Enc:</b> WPA2<br><b>AP:</b> 950<br>]]></description>
      <Point>
        <coordinates>-76.9852746,42.8594989,0</coordinates>
      </Point>
    </Placemark>
    <Placemark>
      <name>Hofstra University</name>
      <description><![CDATA[<b>Name:</b> Hofstra University<br><b>Address:</b> , <br><b>SSID:</b> eduroam<br><b>Enc:</b> WPA2<br><b>AP:</b> -<br>]]></description>
      <Point>
        <coordinates>-73.6010439,40.7144815,0</coordinates>
      </Point>
    </Placemark>
    <Placemark>
      <name>Icahn School of Medicine at Mount Sinai Network</name>
      <description><![CDATA[<b>Name:</b> Icahn School of Medicine at Mount Sinai<br><b>Address:</b> , <br><b>SSID:</b> eduroam<br><b>Enc:</b> WPA2<br><b>AP:</b> 6000<br>]]></description>
      <Point>
        <coordinates>-73.9537414,40.7900118,0</coordinates>
      </Point>
    </Placemark>
    <Placemark>
      <name>Integration Partners</name>
      <description><![CDATA[<b>Name:</b> New York<br><b>Address:</b> , <br><b>SSID:</b> eduroam<br><b>Enc:</b> WPA2+WPA<br><b>AP:</b> -<br>]]></description>
      <Point>
        <coordinates>-73.9922843,40.7429529,0</coordinates>
      </Point>
    </Placemark>
    <Placemark>
      <name>Iona University</name>
      <description><![CDATA[<b>Name:</b> Iona University New Rochelle<br><b>Address:</b> , <br><b>SSID:</b> eduroam<br><b>Enc:</b> WPA2<br><b>AP:</b> 762<br>]]></description>
      <Point>
        <coordinates>-73.7843927,40.9274542,0</coordinates>
      </Point>
    </Placemark>
    <Placemark>
      <name>Ithaca College</name>
      <description><![CDATA[<b>Name:</b> Ithaca College Campus<br><b>Address:</b> , <br><b>SSID:</b> eduroam<br><b>Enc:</b> WPA2+WPA<br><b>AP:</b> 1515<br>]]></description>
      <Point>
        <coordinates>-76.4972884,42.4214847,0</coordinates>
      </Point>
    </Placemark>
    <Placemark>
      <name>Le Moyne College</name>
      <description><![CDATA[<b>Name:</b> Le Moyne - Campus<br><b>Address:</b> , <br><b>SSID:</b> eduroam<br><b>Enc:</b> WPA2<br><b>AP:</b> 800<br>]]></description>
      <Point>
        <coordinates>-76.0890901,43.0496767,0</coordinates>
      </Point>
    </Placemark>
    <Placemark>
      <name>Marist College</name>
      <description><![CDATA[<b>Name:</b> Marist Campus<br><b>Address:</b> , <br><b>SSID:</b> eduroam<br><b>Enc:</b> WPA2+WPA<br><b>AP:</b> 1300<br>]]></description>
      <Point>
        <coordinates>-73.9341204,41.7224565,0</coordinates>
      </Point>
    </Placemark>
    <Placemark>
      <name>New York Institute of Technology</name>
      <description><![CDATA[<b>Name:</b> NYIT New York Campus<br><b>Address:</b> , <br><b>SSID:</b> eduroam<br><b>Enc:</b> WPA2<br><b>AP:</b> -<br>]]></description>
      <Point>
        <coordinates>-73.982399,40.7696147,0</coordinates>
      </Point>
    </Placemark>
    <Placemark>
      <name>New York Institute of Technology</name>
      <description><![CDATA[<b>Name:</b> NYIT Old Westbury Campus<br><b>Address:</b> , <br><b>SSID:</b> eduroam<br><b>Enc:</b> WPA2<br><b>AP:</b> -<br>]]></description>
      <Point>
        <coordinates>-73.6073715,40.8166848,0</coordinates>
      </Point>
    </Placemark>
    <Placemark>
      <name>New York Law School</name>
      <description><![CDATA[<b>Name:</b> New York Law School<br><b>Address:</b> , <br><b>SSID:</b> eduroam<br><b>Enc:</b> WPA2<br><b>AP:</b> 110<br>]]></description>
      <Point>
        <coordinates>-74.0068097,40.7178578,0</coordinates>
      </Point>
    </Placemark>
    <Placemark>
      <name>New York University</name>
      <description><![CDATA[<b>Name:</b> New York<br><b>Address:</b> , <br><b>SSID:</b> eduroam<br><b>Enc:</b> WPA2+WPA<br><b>AP:</b> -<br>]]></description>
      <Point>
        <coordinates>-73.9963578,40.7289619,0</coordinates>
      </Point>
    </Placemark>
    <Placemark>
      <name>NYSERNet</name>
      <description><![CDATA[<b>Name:</b> Colo@32<br><b>Address:</b> , <br><b>SSID:</b> eduroam<br><b>Enc:</b> WPA2+WPA<br><b>AP:</b> 1<br>]]></description>
      <Point>
        <coordinates>-74.0045606,40.7200005,0</coordinates>
      </Point>
    </Placemark>
    <Placemark>
      <name>NYSERNet</name>
      <description><![CDATA[<b>Name:</b> Syracuse<br><b>Address:</b> , <br><b>SSID:</b> eduroam<br><b>Enc:</b> WPA2+WPA<br><b>AP:</b> 5<br>]]></description>
      <Point>
        <coordinates>-76.152849,43.049957,0</coordinates>
      </Point>
    </Placemark>
    <Placemark>
      <name>NYU Langone Health comprising NYU Langone Hospitals, a not-for-profit corporation, and New York Univ</name>
      <description><![CDATA[<b>Name:</b> Tisch Hospital<br><b>Address:</b> , <br><b>SSID:</b> eduroam<br><b>Enc:</b> WPA2+WPA<br><b>AP:</b> 1200<br>]]></description>
      <Point>
        <coordinates>-73.9739553,40.742193,0</coordinates>
      </Point>
    </Placemark>
    <Placemark>
      <name>Rensselaer Polytechnic Institute</name>
      <description><![CDATA[<b>Name:</b> Main Campus<br><b>Address:</b> , <br><b>SSID:</b> eduroam<br><b>Enc:</b> WPA2<br><b>AP:</b> 1000<br>]]></description>
      <Point>
        <coordinates>-73.67874,42.7298257,0</coordinates>
      </Point>
    </Placemark>
    <Placemark>
      <name>Rochester Institute of Technology</name>
      <description><![CDATA[<b>Name:</b> Main Campus<br><b>Address:</b> , <br><b>SSID:</b> eduroam<br><b>Enc:</b> WPA3+WPA2+WPA<br><b>AP:</b> 7500<br>]]></description>
      <Point>
        <coordinates>-77.6759061,43.0830474,0</coordinates>
      </Point>
    </Placemark>
    <Placemark>
      <name>Rockefeller University</name>
      <description><![CDATA[<b>Name:</b> The Rockefeller University<br><b>Address:</b> , <br><b>SSID:</b> eduroam<br><b>Enc:</b> WPA2+WPA<br><b>AP:</b> 747<br>]]></description>
      <Point>
        <coordinates>-73.9566565,40.7627311,0</coordinates>
      </Point>
    </Placemark>
    <Placemark>
      <name>Siena University</name>
      <description><![CDATA[<b>Name:</b> Foy Hall<br><b>Address:</b> , <br><b>SSID:</b> eduroam<br><b>Enc:</b> WPA2+WPA<br><b>AP:</b> -<br>]]></description>
      <Point>
        <coordinates>-73.7526725,42.7193861,0</coordinates>
      </Point>
    </Placemark>
    <Placemark>
      <name>Siena University</name>
      <description><![CDATA[<b>Name:</b> Morrell Science Center<br><b>Address:</b> , <br><b>SSID:</b> eduroam<br><b>Enc:</b> WPA2+WPA<br><b>AP:</b> -<br>]]></description>
      <Point>
        <coordinates>-73.7509881,42.7198826,0</coordinates>
      </Point>
    </Placemark>
    <Placemark>
      <name>Siena University</name>
      <description><![CDATA[<b>Name:</b> Roger Bacon Hall<br><b>Address:</b> , <br><b>SSID:</b> eduroam<br><b>Enc:</b> WPA2+WPA<br><b>AP:</b> -<br>]]></description>
      <Point>
        <coordinates>-73.7516034,42.7195455,0</coordinates>
      </Point>
    </Placemark>
    <Placemark>
      <name>Siena University</name>
      <description><![CDATA[<b>Name:</b> Sarazen Student Union<br><b>Address:</b> , <br><b>SSID:</b> eduroam<br><b>Enc:</b> WPA2+WPA<br><b>AP:</b> -<br>]]></description>
      <Point>
        <coordinates>-73.7524526,42.7175534,0</coordinates>
      </Point>
    </Placemark>
    <Placemark>
      <name>Siena University</name>
      <description><![CDATA[<b>Name:</b> Siena Hall<br><b>Address:</b> , <br><b>SSID:</b> eduroam<br><b>Enc:</b> WPA2+WPA<br><b>AP:</b> -<br>]]></description>
      <Point>
        <coordinates>-73.7534488,42.7184419,0</coordinates>
      </Point>
    </Placemark>
    <Placemark>
      <name>Siena University</name>
      <description><![CDATA[<b>Name:</b> Snyder Hall<br><b>Address:</b> , <br><b>SSID:</b> eduroam<br><b>Enc:</b> WPA2+WPA<br><b>AP:</b> -<br>]]></description>
      <Point>
        <coordinates>-73.7478392,42.7218394,0</coordinates>
      </Point>
    </Placemark>
    <Placemark>
      <name>Siena University</name>
      <description><![CDATA[<b>Name:</b> Standish Library<br><b>Address:</b> , <br><b>SSID:</b> eduroam<br><b>Enc:</b> WPA2+WPA<br><b>AP:</b> -<br>]]></description>
      <Point>
        <coordinates>-73.7513459,42.7187099,0</coordinates>
      </Point>
    </Placemark>
    <Placemark>
      <name>Siena University</name>
      <description><![CDATA[<b>Name:</b> Trustco Bank Center<br><b>Address:</b> , <br><b>SSID:</b> eduroam<br><b>Enc:</b> WPA2+WPA<br><b>AP:</b> -<br>]]></description>
      <Point>
        <coordinates>-73.7573574,42.716574,0</coordinates>
      </Point>
    </Placemark>
    <Placemark>
      <name>Skidmore College</name>
      <description><![CDATA[<b>Name:</b> Main Campus<br><b>Address:</b> , <br><b>SSID:</b> eduroam<br><b>Enc:</b> WPA2+WPA<br><b>AP:</b> 400<br>]]></description>
      <Point>
        <coordinates>-73.7841772,43.0972812,0</coordinates>
      </Point>
    </Placemark>
    <Placemark>
      <name>St Lawrence University</name>
      <description><![CDATA[<b>Name:</b> Main Campus<br><b>Address:</b> , <br><b>SSID:</b> eduroam<br><b>Enc:</b> WPA2+WPA<br><b>AP:</b> 625<br>]]></description>
      <Point>
        <coordinates>-75.161333,44.592148,0</coordinates>
      </Point>
    </Placemark>
    <Placemark>
      <name>St. John's University</name>
      <description><![CDATA[<b>Name:</b> St. John's University<br><b>Address:</b> , <br><b>SSID:</b> eduroam<br><b>Enc:</b> WPA2<br><b>AP:</b> 1400<br>]]></description>
      <Point>
        <coordinates>-73.7946869,40.721591,0</coordinates>
      </Point>
    </Placemark>
    <Placemark>
      <name>St. Joseph's University, New York</name>
      <description><![CDATA[<b>Name:</b> Brooklyn<br><b>Address:</b> , <br><b>SSID:</b> eduroam<br><b>Enc:</b> WPA2<br><b>AP:</b> -<br>]]></description>
      <Point>
        <coordinates>-73.9677729,40.690509,0</coordinates>
      </Point>
    </Placemark>
    <Placemark>
      <name>St. Joseph's University, New York</name>
      <description><![CDATA[<b>Name:</b> Long Island<br><b>Address:</b> , <br><b>SSID:</b> eduroam<br><b>Enc:</b> WPA2<br><b>AP:</b> -<br>]]></description>
      <Point>
        <coordinates>-73.0262038,40.776206,0</coordinates>
      </Point>
    </Placemark>
    <Placemark>
      <name>Stony Brook University</name>
      <description><![CDATA[<b>Name:</b> DoIT<br><b>Address:</b> , <br><b>SSID:</b> eduroam<br><b>Enc:</b> WPA2+WPA<br><b>AP:</b> 5000<br>]]></description>
      <Point>
        <coordinates>-73.1238995,40.9156618,0</coordinates>
      </Point>
    </Placemark>
    <Placemark>
      <name>SUNY - Erie</name>
      <description><![CDATA[<b>Name:</b> Erie Community College - City Campus<br><b>Address:</b> , <br><b>SSID:</b> eduroam<br><b>Enc:</b> WPA2+WPA<br><b>AP:</b> 150<br>]]></description>
      <Point>
        <coordinates>-78.8729528,42.88214,0</coordinates>
      </Point>
    </Placemark>
    <Placemark>
      <name>SUNY - Erie</name>
      <description><![CDATA[<b>Name:</b> Erie Community College - North Campus<br><b>Address:</b> , <br><b>SSID:</b> eduroam<br><b>Enc:</b> WPA2+WPA<br><b>AP:</b> 150<br>]]></description>
      <Point>
        <coordinates>-78.7218196,42.9613654,0</coordinates>
      </Point>
    </Placemark>
    <Placemark>
      <name>SUNY - Erie</name>
      <description><![CDATA[<b>Name:</b> Erie Community College - South Campus<br><b>Address:</b> , <br><b>SSID:</b> eduroam<br><b>Enc:</b> WPA2+WPA<br><b>AP:</b> 150<br>]]></description>
      <Point>
        <coordinates>-78.7985751,42.7721007,0</coordinates>
      </Point>
    </Placemark>
    <Placemark>
      <name>SUNY - Fulton-Montgomery Community College</name>
      <description><![CDATA[<b>Name:</b> Fulton Montgomery Community College<br><b>Address:</b> , <br><b>SSID:</b> eduroam<br><b>Enc:</b> WPA2<br><b>AP:</b> 75<br>]]></description>
      <Point>
        <coordinates>-74.2933897,42.9830784,0</coordinates>
      </Point>
    </Placemark>
    <Placemark>
      <name>SUNY at Binghamton</name>
      <description><![CDATA[<b>Name:</b> Main Campus<br><b>Address:</b> , <br><b>SSID:</b> eduroam<br><b>Enc:</b> WPA3+WPA2+WPA<br><b>AP:</b> 5000<br>]]></description>
      <Point>
        <coordinates>-75.9673559,42.0889589,0</coordinates>
      </Point>
    </Placemark>
    <Placemark>
      <name>SUNY Brockport</name>
      <description><![CDATA[<b>Name:</b> SUNY Brockport<br><b>Address:</b> , <br><b>SSID:</b> eduroam<br><b>Enc:</b> WPA2+WPA<br><b>AP:</b> 1700<br>]]></description>
      <Point>
        <coordinates>-77.9510886,43.2081742,0</coordinates>
      </Point>
    </Placemark>
    <Placemark>
      <name>SUNY Broome Community College</name>
      <description><![CDATA[<b>Name:</b> SUNY Broome Community College<br><b>Address:</b> , <br><b>SSID:</b> eduroam<br><b>Enc:</b> WPA2+WPA<br><b>AP:</b> 134<br>]]></description>
      <Point>
        <coordinates>-75.9100311,42.1341949,0</coordinates>
      </Point>
    </Placemark>
    <Placemark>
      <name>SUNY Buffalo State College</name>
      <description><![CDATA[<b>Name:</b> Buffalo State Campus<br><b>Address:</b> , <br><b>SSID:</b> eduroam<br><b>Enc:</b> WPA2+WPA<br><b>AP:</b> 350<br>]]></description>
      <Point>
        <coordinates>-78.8805479,42.9336263,0</coordinates>
      </Point>
    </Placemark>
    <Placemark>
      <name>SUNY Canton</name>
      <description><![CDATA[<b>Name:</b> SUNY Canton<br><b>Address:</b> , <br><b>SSID:</b> eduroam<br><b>Enc:</b> WPA2<br><b>AP:</b> 300<br>]]></description>
      <Point>
        <coordinates>-75.1833827,44.6033286,0</coordinates>
      </Point>
    </Placemark>
    <Placemark>
      <name>SUNY Clinton Community College</name>
      <description><![CDATA[<b>Name:</b> Clinton Community College - Court Street<br><b>Address:</b> , <br><b>SSID:</b> eduroam<br><b>Enc:</b> WPA2<br><b>AP:</b> 4<br>]]></description>
      <Point>
        <coordinates>-73.4649921,44.6972555,0</coordinates>
      </Point>
    </Placemark>
    <Placemark>
      <name>SUNY Clinton Community College</name>
      <description><![CDATA[<b>Name:</b> Clinton Community College - CVPH<br><b>Address:</b> , <br><b>SSID:</b> eduroam<br><b>Enc:</b> WPA2<br><b>AP:</b> 8<br>]]></description>
      <Point>
        <coordinates>-73.4690909,44.6999265,0</coordinates>
      </Point>
    </Placemark>
    <Placemark>
      <name>SUNY Clinton Community College</name>
      <description><![CDATA[<b>Name:</b> Clinton Community College - IAM<br><b>Address:</b> , <br><b>SSID:</b> eduroam<br><b>Enc:</b> WPA2<br><b>AP:</b> 10<br>]]></description>
      <Point>
        <coordinates>-73.4417105,44.6498181,0</coordinates>
      </Point>
    </Placemark>
    <Placemark>
      <name>SUNY Clinton Community College</name>
      <description><![CDATA[<b>Name:</b> Clinton Community College - Moore Building<br><b>Address:</b> , <br><b>SSID:</b> eduroam<br><b>Enc:</b> WPA2<br><b>AP:</b> -<br>]]></description>
      <Point>
        <coordinates>-73.4656079,44.6967764,0</coordinates>
      </Point>
    </Placemark>
    <Placemark>
      <name>SUNY College at Oneonta</name>
      <description><![CDATA[<b>Name:</b> Oneonta<br><b>Address:</b> , <br><b>SSID:</b> eduroam<br><b>Enc:</b> WPA2+WPA<br><b>AP:</b> 1400<br>]]></description>
      <Point>
        <coordinates>-75.0624009,42.4679605,0</coordinates>
      </Point>
    </Placemark>
    <Placemark>
      <name>SUNY College at Oswego</name>
      <description><![CDATA[<b>Name:</b> Main Campus<br><b>Address:</b> , <br><b>SSID:</b> eduroam<br><b>Enc:</b> WPA2+WPA<br><b>AP:</b> -<br>]]></description>
      <Point>
        <coordinates>-76.5437989,43.4507985,0</coordinates>
      </Point>
    </Placemark>
    <Placemark>
      <name>SUNY College at Oswego</name>
      <description><![CDATA[<b>Name:</b> Office Of Business and Community Relations<br><b>Address:</b> , <br><b>SSID:</b> eduroam<br><b>Enc:</b> WPA2+WPA<br><b>AP:</b> -<br>]]></description>
      <Point>
        <coordinates>-76.5072637,43.4570584,0</coordinates>
      </Point>
    </Placemark>
    <Placemark>
      <name>SUNY College at Oswego</name>
      <description><![CDATA[<b>Name:</b> Syracuse Campus<br><b>Address:</b> , <br><b>SSID:</b> eduroam<br><b>Enc:</b> WPA2+WPA<br><b>AP:</b> -<br>]]></description>
      <Point>
        <coordinates>-76.1527408,43.0501132,0</coordinates>
      </Point>
    </Placemark>
    <Placemark>
      <name>SUNY Cortland</name>
      <description><![CDATA[<b>Name:</b> Main Campus<br><b>Address:</b> , <br><b>SSID:</b> eduroam<br><b>Enc:</b> WPA2+WPA<br><b>AP:</b> 540<br>]]></description>
      <Point>
        <coordinates>-76.1878125,42.5990625,0</coordinates>
      </Point>
    </Placemark>
    <Placemark>
      <name>SUNY Dutchess</name>
      <description><![CDATA[<b>Name:</b> SUNY Dutchess<br><b>Address:</b> , <br><b>SSID:</b> eduroam<br><b>Enc:</b> WPA2+WPA<br><b>AP:</b> -<br>]]></description>
      <Point>
        <coordinates>-73.9049472,41.7333248,0</coordinates>
      </Point>
    </Placemark>
    <Placemark>
      <name>SUNY Empire</name>
      <description><![CDATA[<b>Name:</b> SUNY Empire - 111W<br><b>Address:</b> , <br><b>SSID:</b> eduroam<br><b>Enc:</b> WPA2+WPA<br><b>AP:</b> 6<br>]]></description>
      <Point>
        <coordinates>-73.8055449,43.0778421,0</coordinates>
      </Point>
    </Placemark>
    <Placemark>
      <name>SUNY Empire</name>
      <description><![CDATA[<b>Name:</b> SUNY Empire - 113W<br><b>Address:</b> , <br><b>SSID:</b> eduroam<br><b>Enc:</b> WPA2+WPA<br><b>AP:</b> 10<br>]]></description>
      <Point>
        <coordinates>-73.8039679,43.0777644,0</coordinates>
      </Point>
    </Placemark>
    <Placemark>
      <name>SUNY Empire</name>
      <description><![CDATA[<b>Name:</b> SUNY Empire - 1UN<br><b>Address:</b> , <br><b>SSID:</b> eduroam<br><b>Enc:</b> WPA2+WPA<br><b>AP:</b> 6<br>]]></description>
      <Point>
        <coordinates>-73.7814775,43.0779027,0</coordinates>
      </Point>
    </Placemark>
    <Placemark>
      <name>SUNY Empire</name>
      <description><![CDATA[<b>Name:</b> SUNY Empire - 2UN<br><b>Address:</b> , <br><b>SSID:</b> eduroam<br><b>Enc:</b> WPA2+WPA<br><b>AP:</b> 8<br>]]></description>
      <Point>
        <coordinates>-73.7824427,43.0773406,0</coordinates>
      </Point>
    </Placemark>
    <Placemark>
      <name>SUNY Empire</name>
      <description><![CDATA[<b>Name:</b> SUNY Empire - 3UN<br><b>Address:</b> , <br><b>SSID:</b> eduroam<br><b>Enc:</b> WPA2+WPA<br><b>AP:</b> 6<br>]]></description>
      <Point>
        <coordinates>-73.7814581,43.0778714,0</coordinates>
      </Point>
    </Placemark>
    <Placemark>
      <name>SUNY Empire</name>
      <description><![CDATA[<b>Name:</b> SUNY Empire - ROCHES<br><b>Address:</b> , <br><b>SSID:</b> eduroam<br><b>Enc:</b> WPA2+WPA<br><b>AP:</b> 26<br>]]></description>
      <Point>
        <coordinates>-77.6041608,43.1155347,0</coordinates>
      </Point>
    </Placemark>
    <Placemark>
      <name>SUNY Empire</name>
      <description><![CDATA[<b>Name:</b> SUNY Empire - SELDEN<br><b>Address:</b> , <br><b>SSID:</b> eduroam<br><b>Enc:</b> WPA2+WPA<br><b>AP:</b> 12<br>]]></description>
      <Point>
        <coordinates>-73.048132,40.8501372,0</coordinates>
      </Point>
    </Placemark>
    <Placemark>
      <name>SUNY Farmingdale State College</name>
      <description><![CDATA[<b>Name:</b> Farmingdale Campus<br><b>Address:</b> , <br><b>SSID:</b> eduroam<br><b>Enc:</b> WPA2<br><b>AP:</b> 904<br>]]></description>
      <Point>
        <coordinates>-73.424351,40.7510877,0</coordinates>
      </Point>
    </Placemark>
    <Placemark>
      <name>SUNY Fashion Institute of Technology</name>
      <description><![CDATA[<b>Name:</b> SUNY Fashion Institute of Technology<br><b>Address:</b> , <br><b>SSID:</b> eduroam<br><b>Enc:</b> WPA2+WPA<br><b>AP:</b> 1200<br>]]></description>
      <Point>
        <coordinates>-73.9948612,40.7472258,0</coordinates>
      </Point>
    </Placemark>
    <Placemark>
      <name>SUNY Finger Lakes Community College</name>
      <description><![CDATA[<b>Name:</b> Finger Lakes Community College - Canandaigua<br><b>Address:</b> , <br><b>SSID:</b> eduroam<br><b>Enc:</b> WPA2<br><b>AP:</b> 153<br>]]></description>
      <Point>
        <coordinates>-77.2410092,42.8671852,0</coordinates>
      </Point>
    </Placemark>
    <Placemark>
      <name>SUNY Finger Lakes Community College</name>
      <description><![CDATA[<b>Name:</b> Finger Lakes Community College - Geneva<br><b>Address:</b> , <br><b>SSID:</b> eduroam<br><b>Enc:</b> WPA2<br><b>AP:</b> 25<br>]]></description>
      <Point>
        <coordinates>-76.9876203,42.866899,0</coordinates>
      </Point>
    </Placemark>
    <Placemark>
      <name>SUNY Finger Lakes Community College</name>
      <description><![CDATA[<b>Name:</b> Finger Lakes Community College - Muller Field Station<br><b>Address:</b> , <br><b>SSID:</b> eduroam<br><b>Enc:</b> WPA2<br><b>AP:</b> 5<br>]]></description>
      <Point>
        <coordinates>-77.5120694,42.7111449,0</coordinates>
      </Point>
    </Placemark>
    <Placemark>
      <name>SUNY Finger Lakes Community College</name>
      <description><![CDATA[<b>Name:</b> Finger Lakes Community College - Newark<br><b>Address:</b> , <br><b>SSID:</b> eduroam<br><b>Enc:</b> WPA2<br><b>AP:</b> 8<br>]]></description>
      <Point>
        <coordinates>-77.0930522,43.0282823,0</coordinates>
      </Point>
    </Placemark>
    <Placemark>
      <name>SUNY Finger Lakes Community College</name>
      <description><![CDATA[<b>Name:</b> Finger Lakes Community College - Victor<br><b>Address:</b> , <br><b>SSID:</b> eduroam<br><b>Enc:</b> WPA2<br><b>AP:</b> 20<br>]]></description>
      <Point>
        <coordinates>-77.441538,42.9943825,0</coordinates>
      </Point>
    </Placemark>
    <Placemark>
      <name>SUNY Finger Lakes Community College</name>
      <description><![CDATA[<b>Name:</b> Finger Lakes Community College - Viticulture Center<br><b>Address:</b> , <br><b>SSID:</b> eduroam<br><b>Enc:</b> WPA2<br><b>AP:</b> 6<br>]]></description>
      <Point>
        <coordinates>-77.0078115,42.870619,0</coordinates>
      </Point>
    </Placemark>
    <Placemark>
      <name>SUNY Fredonia</name>
      <description><![CDATA[<b>Name:</b> SUNY Fredonia - Main<br><b>Address:</b> , <br><b>SSID:</b> eduroam<br><b>Enc:</b> WPA2<br><b>AP:</b> 10<br>]]></description>
      <Point>
        <coordinates>-79.3407522,42.4531174,0</coordinates>
      </Point>
    </Placemark>
    <Placemark>
      <name>SUNY Geneseo</name>
      <description><![CDATA[<b>Name:</b> SUNY Geneseo<br><b>Address:</b> , <br><b>SSID:</b> eduroam<br><b>Enc:</b> WPA2<br><b>AP:</b> 1552<br>]]></description>
      <Point>
        <coordinates>-77.8238627,42.7960069,0</coordinates>
      </Point>
    </Placemark>
    <Placemark>
      <name>SUNY Monroe Community College</name>
      <description><![CDATA[<b>Name:</b> SUNY Monroe Community College<br><b>Address:</b> , <br><b>SSID:</b> eduroam<br><b>Enc:</b> WPA2+WPA<br><b>AP:</b> 200<br>]]></description>
      <Point>
        <coordinates>-77.6113216,43.1035781,0</coordinates>
      </Point>
    </Placemark>
    <Placemark>
      <name>SUNY Morrisville</name>
      <description><![CDATA[<b>Name:</b> Morrisville Campus<br><b>Address:</b> , <br><b>SSID:</b> eduroam<br><b>Enc:</b> WPA2+WPA<br><b>AP:</b> 499<br>]]></description>
      <Point>
        <coordinates>-75.6454025,42.8944699,0</coordinates>
      </Point>
    </Placemark>
    <Placemark>
      <name>SUNY Morrisville</name>
      <description><![CDATA[<b>Name:</b> Norwich Campus<br><b>Address:</b> , <br><b>SSID:</b> eduroam<br><b>Enc:</b> WPA2+WPA<br><b>AP:</b> 40<br>]]></description>
      <Point>
        <coordinates>-75.5248261,42.527215,0</coordinates>
      </Point>
    </Placemark>
    <Placemark>
      <name>SUNY Nassau Community College</name>
      <description><![CDATA[<b>Name:</b> SUNY Nassau Community College<br><b>Address:</b> , <br><b>SSID:</b> eduroam<br><b>Enc:</b> WPA2<br><b>AP:</b> 300<br>]]></description>
      <Point>
        <coordinates>-73.5920345,40.7304025,0</coordinates>
      </Point>
    </Placemark>
    <Placemark>
      <name>SUNY New Paltz</name>
      <description><![CDATA[<b>Name:</b> SUNY New Paltz<br><b>Address:</b> , <br><b>SSID:</b> eduroam<br><b>Enc:</b> WPA2 + WPA3<br><b>AP:</b> 1300<br>]]></description>
      <Point>
        <coordinates>-74.0851655,41.7390054,0</coordinates>
      </Point>
    </Placemark>
    <Placemark>
      <name>SUNY Old Westbury</name>
      <description><![CDATA[<b>Name:</b> Campus<br><b>Address:</b> , <br><b>SSID:</b> eduroam<br><b>Enc:</b> WPA2+WPA<br><b>AP:</b> -<br>]]></description>
      <Point>
        <coordinates>-73.5739803,40.7993216,0</coordinates>
      </Point>
    </Placemark>
    <Placemark>
      <name>SUNY Plattsburgh</name>
      <description><![CDATA[<b>Name:</b> SUNY Plattsburgh<br><b>Address:</b> , <br><b>SSID:</b> eduroam<br><b>Enc:</b> WPA2+WPA<br><b>AP:</b> -<br>]]></description>
      <Point>
        <coordinates>-73.4666928,44.6930943,0</coordinates>
      </Point>
    </Placemark>
    <Placemark>
      <name>SUNY Polytechnic Institute</name>
      <description><![CDATA[<b>Name:</b> SUNY Polytechnic Institute<br><b>Address:</b> , <br><b>SSID:</b> eduroam<br><b>Enc:</b> WPA2+WPA<br><b>AP:</b> -<br>]]></description>
      <Point>
        <coordinates>-75.2292252,43.135316,0</coordinates>
      </Point>
    </Placemark>
    <Placemark>
      <name>SUNY Purchase College</name>
      <description><![CDATA[<b>Name:</b> Main Campus<br><b>Address:</b> , <br><b>SSID:</b> eduroam<br><b>Enc:</b> WPA2<br><b>AP:</b> 1100<br>]]></description>
      <Point>
        <coordinates>-73.7004948,41.0470583,0</coordinates>
      </Point>
    </Placemark>
    <Placemark>
      <name>SUNY System Administration</name>
      <description><![CDATA[<b>Name:</b> Rockefeller Institute of Government<br><b>Address:</b> , <br><b>SSID:</b> eduroam<br><b>Enc:</b> WPA2+WPA<br><b>AP:</b> -<br>]]></description>
      <Point>
        <coordinates>-73.7666547,42.6574833,0</coordinates>
      </Point>
    </Placemark>
    <Placemark>
      <name>SUNY System Administration</name>
      <description><![CDATA[<b>Name:</b> SUNY Center for Professional Development<br><b>Address:</b> , <br><b>SSID:</b> eduroam<br><b>Enc:</b> WPA2+WPA<br><b>AP:</b> -<br>]]></description>
      <Point>
        <coordinates>-76.0817945,43.0880352,0</coordinates>
      </Point>
    </Placemark>
    <Placemark>
      <name>SUNY System Administration</name>
      <description><![CDATA[<b>Name:</b> SUNY Global Center<br><b>Address:</b> , <br><b>SSID:</b> eduroam<br><b>Enc:</b> WPA2+WPA<br><b>AP:</b> -<br>]]></description>
      <Point>
        <coordinates>-73.9710481,40.7598312,0</coordinates>
      </Point>
    </Placemark>
    <Placemark>
      <name>SUNY System Administration</name>
      <description><![CDATA[<b>Name:</b> SUNY System Administration<br><b>Address:</b> , <br><b>SSID:</b> eduroam<br><b>Enc:</b> WPA2+WPA<br><b>AP:</b> -<br>]]></description>
      <Point>
        <coordinates>-73.7494865,42.6480051,0</coordinates>
      </Point>
    </Placemark>
    <Placemark>
      <name>SUNY Westchester Community College</name>
      <description><![CDATA[<b>Name:</b> SUNY WCC Yonkers Campus (Cross County)<br><b>Address:</b> , <br><b>SSID:</b> eduroam<br><b>Enc:</b> WPA2+WPA<br><b>AP:</b> -<br>]]></description>
      <Point>
        <coordinates>-73.850911,40.928063,0</coordinates>
      </Point>
    </Placemark>
    <Placemark>
      <name>SUNY Westchester Community College</name>
      <description><![CDATA[<b>Name:</b> SUNY Westchester Educational Opportunity Center<br><b>Address:</b> , <br><b>SSID:</b> eduroam<br><b>Enc:</b> WPA2+WPA<br><b>AP:</b> -<br>]]></description>
      <Point>
        <coordinates>-73.898537,40.9330571,0</coordinates>
      </Point>
    </Placemark>
    <Placemark>
      <name>SUNY Westchester Community College</name>
      <description><![CDATA[<b>Name:</b> SUNY Westchester Main Campus (Valhalla)<br><b>Address:</b> , <br><b>SSID:</b> eduroam<br><b>Enc:</b> WPA2+WPA<br><b>AP:</b> -<br>]]></description>
      <Point>
        <coordinates>-73.7895554,41.0658916,0</coordinates>
      </Point>
    </Placemark>
    <Placemark>
      <name>SUNY Westchester Community College</name>
      <description><![CDATA[<b>Name:</b> SUNY Westchester Mount Vernon Extension Center<br><b>Address:</b> , <br><b>SSID:</b> eduroam<br><b>Enc:</b> WPA2+WPA<br><b>AP:</b> -<br>]]></description>
      <Point>
        <coordinates>-73.8375469,40.9108059,0</coordinates>
      </Point>
    </Placemark>
    <Placemark>
      <name>SUNY Westchester Community College</name>
      <description><![CDATA[<b>Name:</b> SUNY Westchester Ossining Extension Center<br><b>Address:</b> , <br><b>SSID:</b> eduroam<br><b>Enc:</b> WPA2+WPA<br><b>AP:</b> -<br>]]></description>
      <Point>
        <coordinates>-73.8631325,41.1441689,0</coordinates>
      </Point>
    </Placemark>
    <Placemark>
      <name>SUNY Westchester Community College</name>
      <description><![CDATA[<b>Name:</b> SUNY Westchester Peekskill Center for the Digital Arts<br><b>Address:</b> , <br><b>SSID:</b> eduroam<br><b>Enc:</b> WPA2+WPA<br><b>AP:</b> -<br>]]></description>
      <Point>
        <coordinates>-73.9194946,41.2913549,0</coordinates>
      </Point>
    </Placemark>
    <Placemark>
      <name>SUNY Westchester Community College</name>
      <description><![CDATA[<b>Name:</b> SUNY Westchester White Plains Education and Training Center<br><b>Address:</b> , <br><b>SSID:</b> eduroam<br><b>Enc:</b> WPA2+WPA<br><b>AP:</b> -<br>]]></description>
      <Point>
        <coordinates>-73.7708139,41.0280912,0</coordinates>
      </Point>
    </Placemark>
    <Placemark>
      <name>Syracuse University</name>
      <description><![CDATA[<b>Name:</b> Syracuse University<br><b>Address:</b> , <br><b>SSID:</b> eduroam<br><b>Enc:</b> WPA2<br><b>AP:</b> 5500<br>]]></description>
      <Point>
        <coordinates>-76.135104,43.0379704,0</coordinates>
      </Point>
    </Placemark>
    <Placemark>
      <name>The Andrew W. Mellon Foundation</name>
      <description><![CDATA[<b>Name:</b> AWMF<br><b>Address:</b> , <br><b>SSID:</b> eduroam<br><b>Enc:</b> WPA2<br><b>AP:</b> -<br>]]></description>
      <Point>
        <coordinates>-73.9663759,40.7637812,0</coordinates>
      </Point>
    </Placemark>
    <Placemark>
      <name>The Chan Zuckerberg Biohub, Inc.</name>
      <description><![CDATA[<b>Name:</b> CZ Biohub NY<br><b>Address:</b> , <br><b>SSID:</b> eduroam<br><b>Enc:</b> WPA2<br><b>AP:</b> 14<br>]]></description>
      <Point>
        <coordinates>-73.9421392,40.8419115,0</coordinates>
      </Point>
    </Placemark>
    <Placemark>
      <name>The Cooper Union for the Advancement of Science and Art</name>
      <description><![CDATA[<b>Name:</b> The Cooper Union for the Advancement of Science and Art<br><b>Address:</b> , <br><b>SSID:</b> eduroam<br><b>Enc:</b> WPA2<br><b>AP:</b> -<br>]]></description>
      <Point>
        <coordinates>-73.9902112,40.7285196,0</coordinates>
      </Point>
    </Placemark>
    <Placemark>
      <name>The Jackson Laboratory</name>
      <description><![CDATA[<b>Name:</b> New York<br><b>Address:</b> , <br><b>SSID:</b> eduroam<br><b>Enc:</b> WPA2<br><b>AP:</b> 30<br>]]></description>
      <Point>
        <coordinates>-73.9938557,40.7689406,0</coordinates>
      </Point>
    </Placemark>
    <Placemark>
      <name>The New School</name>
      <description><![CDATA[<b>Name:</b> Main Campus<br><b>Address:</b> , <br><b>SSID:</b> eduroam<br><b>Enc:</b> WPA2+WPA<br><b>AP:</b> 500<br>]]></description>
      <Point>
        <coordinates>-73.9971666,40.73551,0</coordinates>
      </Point>
    </Placemark>
    <Placemark>
      <name>Union College</name>
      <description><![CDATA[<b>Name:</b> Union College<br><b>Address:</b> , <br><b>SSID:</b> eduroam<br><b>Enc:</b> WPA2<br><b>AP:</b> 430<br>]]></description>
      <Point>
        <coordinates>-73.9306221,42.8155649,0</coordinates>
      </Point>
    </Placemark>
    <Placemark>
      <name>University at Albany</name>
      <description><![CDATA[<b>Name:</b> Main Campus<br><b>Address:</b> , <br><b>SSID:</b> eduroam<br><b>Enc:</b> WPA2+WPA<br><b>AP:</b> 1200<br>]]></description>
      <Point>
        <coordinates>-73.82498,42.6883506,0</coordinates>
      </Point>
    </Placemark>
    <Placemark>
      <name>University At Buffalo</name>
      <description><![CDATA[<b>Name:</b> North Campus<br><b>Address:</b> , <br><b>SSID:</b> eduroam<br><b>Enc:</b> WPA2<br><b>AP:</b> 2500<br>]]></description>
      <Point>
        <coordinates>-78.8182806,42.9533778,0</coordinates>
      </Point>
    </Placemark>
    <Placemark>
      <name>University At Buffalo</name>
      <description><![CDATA[<b>Name:</b> South Campus<br><b>Address:</b> , <br><b>SSID:</b> eduroam<br><b>Enc:</b> WPA2<br><b>AP:</b> 1000<br>]]></description>
      <Point>
        <coordinates>-78.8182286,42.9534312,0</coordinates>
      </Point>
    </Placemark>
    <Placemark>
      <name>University of Rochester</name>
      <description><![CDATA[<b>Name:</b> Main Campus<br><b>Address:</b> , <br><b>SSID:</b> eduroam<br><b>Enc:</b> WPA2+WPA<br><b>AP:</b> -<br>]]></description>
      <Point>
        <coordinates>-77.6318379,43.1281419,0</coordinates>
      </Point>
    </Placemark>
    <Placemark>
      <name>Vassar College</name>
      <description><![CDATA[<b>Name:</b> Vassar College - Poughkeepsie, NY<br><b>Address:</b> , <br><b>SSID:</b> eduroam<br><b>Enc:</b> WPA2+WPA<br><b>AP:</b> 2220<br>]]></description>
      <Point>
        <coordinates>-73.8962345,41.6863866,0</coordinates>
      </Point>
    </Placemark>
    <Placemark>
      <name>Weill Cornell Medical College</name>
      <description><![CDATA[<b>Name:</b> Main Campus<br><b>Address:</b> , <br><b>SSID:</b> eduroam<br><b>Enc:</b> WPA2+WPA<br><b>AP:</b> -<br>]]></description>
      <Point>
        <coordinates>-73.9543487,40.7644634,0</coordinates>
      </Point>
    </Placemark>
    <Placemark>
      <name>Yeshiva University</name>
      <description><![CDATA[<b>Name:</b> Benjamin N. Cardozo School of Law<br><b>Address:</b> , <br><b>SSID:</b> eduroam<br><b>Enc:</b> WPA2+WPA<br><b>AP:</b> -<br>]]></description>
      <Point>
        <coordinates>-73.9943147,40.7347547,0</coordinates>
      </Point>
    </Placemark>
    <Placemark>
      <name>Yeshiva University</name>
      <description><![CDATA[<b>Name:</b> Ferkauf Graduate School of Psychology<br><b>Address:</b> , <br><b>SSID:</b> eduroam<br><b>Enc:</b> WPA2+WPA<br><b>AP:</b> -<br>]]></description>
      <Point>
        <coordinates>-73.8502363,40.8511231,0</coordinates>
      </Point>
    </Placemark>
    <Placemark>
      <name>Yeshiva University</name>
      <description><![CDATA[<b>Name:</b> Stern College for Women<br><b>Address:</b> , <br><b>SSID:</b> eduroam<br><b>Enc:</b> WPA2+WPA<br><b>AP:</b> -<br>]]></description>
      <Point>
        <coordinates>-73.9792587,40.7467059,0</coordinates>
      </Point>
    </Placemark>
    <Placemark>
      <name>Yeshiva University</name>
      <description><![CDATA[<b>Name:</b> Yeshiva College<br><b>Address:</b> , <br><b>SSID:</b> eduroam<br><b>Enc:</b> WPA2+WPA<br><b>AP:</b> -<br>]]></description>
      <Point>
        <coordinates>-73.9295609,40.8504299,0</coordinates>
      </Point>
    </Placemark>
  </Document>
</kml>
