<?xml version="1.0" encoding="UTF-8"?>
<kml xmlns="http://www.opengis.net/kml/2.2">
  <Document>
    <name>eduroam — Missouri</name>
    <description><![CDATA[71 eduroam service locations in Missouri.<br><br>Published by <a href="https://scs.nevada.edu/eduroam">NSHE System Computing Services</a>. Learn more about eduroam Support Organizations from <a href="https://incommon.org/eduroam">Internet2</a>, the eduroam National Roaming Operator for the United States.<br>These maps are derived from data published by GÉANT (<a href="https://monitor.eduroam.org/kml/us.kml">monitor.eduroam.org</a>). This is not an official GÉANT or eduroam publication.<br>eduroam is a registered trademark of the GÉANT Association.<br>Region boundaries are derived from US Census Bureau cartographic boundary files, which as works of the US federal government are in the public domain.<br>Maps generated by eduroam-us-regional-maps, which is BSD 3-Clause licensed.]]></description>
    <open>1</open>
    <Placemark>
      <name>Cass County Library</name>
      <description><![CDATA[<b>Name:</b> Cass County Public Library - Northern Resource Center<br><b>Address:</b> , <br><b>SSID:</b> eduroam<br><b>Enc:</b> WPA2<br><b>AP:</b> 4<br>]]></description>
      <Point>
        <coordinates>-94.507219,38.81183,0</coordinates>
      </Point>
    </Placemark>
    <Placemark>
      <name>Cass County Library</name>
      <description><![CDATA[<b>Name:</b> Cass County Public Library - Pleasant Hill<br><b>Address:</b> , <br><b>SSID:</b> eduroam<br><b>Enc:</b> WPA2<br><b>AP:</b> 4<br>]]></description>
      <Point>
        <coordinates>-94.2627991,38.7856321,0</coordinates>
      </Point>
    </Placemark>
    <Placemark>
      <name>Cass County Library</name>
      <description><![CDATA[<b>Name:</b> Cass County Public Library Drexel<br><b>Address:</b> , <br><b>SSID:</b> eduroam<br><b>Enc:</b> WPA2<br><b>AP:</b> 4<br>]]></description>
      <Point>
        <coordinates>-94.6081412,38.4796054,0</coordinates>
      </Point>
    </Placemark>
    <Placemark>
      <name>Cass County Library</name>
      <description><![CDATA[<b>Name:</b> Cass County Public Library Garden City<br><b>Address:</b> , <br><b>SSID:</b> eduroam<br><b>Enc:</b> WPA2<br><b>AP:</b> 4<br>]]></description>
      <Point>
        <coordinates>-94.1913069,38.5619516,0</coordinates>
      </Point>
    </Placemark>
    <Placemark>
      <name>Cass County Library</name>
      <description><![CDATA[<b>Name:</b> Cass County Public Library Harrisonville<br><b>Address:</b> , <br><b>SSID:</b> eduroam<br><b>Enc:</b> WPA2<br><b>AP:</b> 4<br>]]></description>
      <Point>
        <coordinates>-94.3460767,38.6535323,0</coordinates>
      </Point>
    </Placemark>
    <Placemark>
      <name>Christian County Library District</name>
      <description><![CDATA[<b>Name:</b> Clever Community Branch<br><b>Address:</b> , <br><b>SSID:</b> eduroam<br><b>Enc:</b> WPA2<br><b>AP:</b> 2<br>]]></description>
      <Point>
        <coordinates>-93.4749351,37.0372636,0</coordinates>
      </Point>
    </Placemark>
    <Placemark>
      <name>Christian County Library District</name>
      <description><![CDATA[<b>Name:</b> Nixa Community Branch<br><b>Address:</b> , <br><b>SSID:</b> eduroam<br><b>Enc:</b> WPA2<br><b>AP:</b> 4<br>]]></description>
      <Point>
        <coordinates>-93.3021186,37.0524502,0</coordinates>
      </Point>
    </Placemark>
    <Placemark>
      <name>Christian County Library District</name>
      <description><![CDATA[<b>Name:</b> Ozark Community Branch<br><b>Address:</b> , <br><b>SSID:</b> eduroam<br><b>Enc:</b> WPA2<br><b>AP:</b> 4<br>]]></description>
      <Point>
        <coordinates>-93.2023456,37.0291214,0</coordinates>
      </Point>
    </Placemark>
    <Placemark>
      <name>Christian County Library District</name>
      <description><![CDATA[<b>Name:</b> Sparta Community Branch<br><b>Address:</b> , <br><b>SSID:</b> eduroam<br><b>Enc:</b> WPA2<br><b>AP:</b> 2<br>]]></description>
      <Point>
        <coordinates>-93.0916242,37.0015574,0</coordinates>
      </Point>
    </Placemark>
    <Placemark>
      <name>Daniel Boone Regional Library</name>
      <description><![CDATA[<b>Name:</b> Columbia Public Library<br><b>Address:</b> , <br><b>SSID:</b> eduroam<br><b>Enc:</b> WPA2<br><b>AP:</b> 18<br>]]></description>
      <Point>
        <coordinates>-92.3398062,38.9511854,0</coordinates>
      </Point>
    </Placemark>
    <Placemark>
      <name>Department of Veterans Affairs</name>
      <description><![CDATA[<b>Name:</b> Belton CBOC<br><b>Address:</b> , <br><b>SSID:</b> eduroam<br><b>Enc:</b> WPA2<br><b>AP:</b> -<br>]]></description>
      <Point>
        <coordinates>-94.5037,38.8098,0</coordinates>
      </Point>
    </Placemark>
    <Placemark>
      <name>Department of Veterans Affairs</name>
      <description><![CDATA[<b>Name:</b> Cameron CBOC<br><b>Address:</b> , <br><b>SSID:</b> eduroam<br><b>Enc:</b> WPA2<br><b>AP:</b> -<br>]]></description>
      <Point>
        <coordinates>-94.23636,39.75379,0</coordinates>
      </Point>
    </Placemark>
    <Placemark>
      <name>Department of Veterans Affairs</name>
      <description><![CDATA[<b>Name:</b> Excelsior Springs CBOC<br><b>Address:</b> , <br><b>SSID:</b> eduroam<br><b>Enc:</b> WPA2<br><b>AP:</b> -<br>]]></description>
      <Point>
        <coordinates>-94.26385,39.33516,0</coordinates>
      </Point>
    </Placemark>
    <Placemark>
      <name>Department of Veterans Affairs</name>
      <description><![CDATA[<b>Name:</b> Honor CBOC<br><b>Address:</b> , <br><b>SSID:</b> eduroam<br><b>Enc:</b> WPA2<br><b>AP:</b> -<br>]]></description>
      <Point>
        <coordinates>-94.45128,39.04589,0</coordinates>
      </Point>
    </Placemark>
    <Placemark>
      <name>Department of Veterans Affairs</name>
      <description><![CDATA[<b>Name:</b> Kansas City VA Medical Center<br><b>Address:</b> , <br><b>SSID:</b> eduroam<br><b>Enc:</b> WPA2<br><b>AP:</b> -<br>]]></description>
      <Point>
        <coordinates>-94.52647,39.06437,0</coordinates>
      </Point>
    </Placemark>
    <Placemark>
      <name>Department of Veterans Affairs</name>
      <description><![CDATA[<b>Name:</b> Nevada CBOC<br><b>Address:</b> , <br><b>SSID:</b> eduroam<br><b>Enc:</b> WPA2<br><b>AP:</b> -<br>]]></description>
      <Point>
        <coordinates>-94.3439,37.83686,0</coordinates>
      </Point>
    </Placemark>
    <Placemark>
      <name>Department of Veterans Affairs</name>
      <description><![CDATA[<b>Name:</b> Warrensburg CBOC<br><b>Address:</b> , <br><b>SSID:</b> eduroam<br><b>Enc:</b> WPA2<br><b>AP:</b> -<br>]]></description>
      <Point>
        <coordinates>-93.71927,38.77171,0</coordinates>
      </Point>
    </Placemark>
    <Placemark>
      <name>Missouri University of Science and Technology</name>
      <description><![CDATA[<b>Name:</b> Main Campus<br><b>Address:</b> , <br><b>SSID:</b> eduroam<br><b>Enc:</b> WPA2+WPA<br><b>AP:</b> 800<br>]]></description>
      <Point>
        <coordinates>-91.7740231,37.9542535,0</coordinates>
      </Point>
    </Placemark>
    <Placemark>
      <name>MOREnet (Missouri Research and Education Network)</name>
      <description><![CDATA[<b>Name:</b> MOREnet<br><b>Address:</b> , <br><b>SSID:</b> eduroam<br><b>Enc:</b> WPA2<br><b>AP:</b> 6<br>]]></description>
      <Point>
        <coordinates>-92.3749605,38.9602573,0</coordinates>
      </Point>
    </Placemark>
    <Placemark>
      <name>Rolla 31</name>
      <description><![CDATA[<b>Name:</b> Rolla Technical Center<br><b>Address:</b> , <br><b>SSID:</b> eduroam<br><b>Enc:</b> WPA2<br><b>AP:</b> 1<br>]]></description>
      <Point>
        <coordinates>-91.7487862,37.9473885,0</coordinates>
      </Point>
    </Placemark>
    <Placemark>
      <name>Rolla 31</name>
      <description><![CDATA[<b>Name:</b> Rolla Technical Institute<br><b>Address:</b> , <br><b>SSID:</b> eduroam<br><b>Enc:</b> WPA2<br><b>AP:</b> 1<br>]]></description>
      <Point>
        <coordinates>-91.7513636,37.9506675,0</coordinates>
      </Point>
    </Placemark>
    <Placemark>
      <name>Rolla Public Library</name>
      <description><![CDATA[<b>Name:</b> Rolla Public Library<br><b>Address:</b> , <br><b>SSID:</b> eduroam<br><b>Enc:</b> WPA2<br><b>AP:</b> 2<br>]]></description>
      <Point>
        <coordinates>-91.771321,37.9509179,0</coordinates>
      </Point>
    </Placemark>
    <Placemark>
      <name>Saint Louis College of Pharmacy</name>
      <description><![CDATA[<b>Name:</b> Saint Louis College of Pharmacy Campus<br><b>Address:</b> , <br><b>SSID:</b> eduroam<br><b>Enc:</b> WPA2+WPA<br><b>AP:</b> 300<br>]]></description>
      <Point>
        <coordinates>-90.2608435,38.6366023,0</coordinates>
      </Point>
    </Placemark>
    <Placemark>
      <name>Saint Louis University-Main Campus</name>
      <description><![CDATA[<b>Name:</b> Saint Louis University<br><b>Address:</b> , <br><b>SSID:</b> eduroam<br><b>Enc:</b> WPA2<br><b>AP:</b> -<br>]]></description>
      <Point>
        <coordinates>-90.2312165,38.6374442,0</coordinates>
      </Point>
    </Placemark>
    <Placemark>
      <name>St Louis County Library</name>
      <description><![CDATA[<b>Name:</b> Bridgeton Trails Branch<br><b>Address:</b> , <br><b>SSID:</b> eduroam<br><b>Enc:</b> WPA2<br><b>AP:</b> 5<br>]]></description>
      <Point>
        <coordinates>-90.4309381,38.7492424,0</coordinates>
      </Point>
    </Placemark>
    <Placemark>
      <name>St Louis County Library</name>
      <description><![CDATA[<b>Name:</b> Clark Family Branch<br><b>Address:</b> , <br><b>SSID:</b> eduroam<br><b>Enc:</b> WPA2<br><b>AP:</b> 5<br>]]></description>
      <Point>
        <coordinates>-90.4050077,38.6301602,0</coordinates>
      </Point>
    </Placemark>
    <Placemark>
      <name>St Louis County Library</name>
      <description><![CDATA[<b>Name:</b> Cliff Cave Branch<br><b>Address:</b> , <br><b>SSID:</b> eduroam<br><b>Enc:</b> WPA2<br><b>AP:</b> 5<br>]]></description>
      <Point>
        <coordinates>-90.3038441,38.4758128,0</coordinates>
      </Point>
    </Placemark>
    <Placemark>
      <name>St Louis County Library</name>
      <description><![CDATA[<b>Name:</b> Daniel Boone Branch<br><b>Address:</b> , <br><b>SSID:</b> eduroam<br><b>Enc:</b> WPA2<br><b>AP:</b> 5<br>]]></description>
      <Point>
        <coordinates>-90.5864898,38.6018593,0</coordinates>
      </Point>
    </Placemark>
    <Placemark>
      <name>St Louis County Library</name>
      <description><![CDATA[<b>Name:</b> Eureka Hills Branch<br><b>Address:</b> , <br><b>SSID:</b> eduroam<br><b>Enc:</b> WPA2<br><b>AP:</b> 5<br>]]></description>
      <Point>
        <coordinates>-90.6662092,38.506094,0</coordinates>
      </Point>
    </Placemark>
    <Placemark>
      <name>St Louis County Library</name>
      <description><![CDATA[<b>Name:</b> Florissant Valley Branch<br><b>Address:</b> , <br><b>SSID:</b> eduroam<br><b>Enc:</b> WPA2<br><b>AP:</b> 5<br>]]></description>
      <Point>
        <coordinates>-90.3260865,38.7859282,0</coordinates>
      </Point>
    </Placemark>
    <Placemark>
      <name>St Louis County Library</name>
      <description><![CDATA[<b>Name:</b> Grand Glaize Branch<br><b>Address:</b> , <br><b>SSID:</b> eduroam<br><b>Enc:</b> WPA2<br><b>AP:</b> 5<br>]]></description>
      <Point>
        <coordinates>-90.4976714,38.5712369,0</coordinates>
      </Point>
    </Placemark>
    <Placemark>
      <name>St Louis County Library</name>
      <description><![CDATA[<b>Name:</b> Grant's View Branch<br><b>Address:</b> , <br><b>SSID:</b> eduroam<br><b>Enc:</b> WPA2<br><b>AP:</b> 5<br>]]></description>
      <Point>
        <coordinates>-90.3513117,38.5454854,0</coordinates>
      </Point>
    </Placemark>
    <Placemark>
      <name>St Louis County Library</name>
      <description><![CDATA[<b>Name:</b> Guy and Judy Jaffe Family Branch<br><b>Address:</b> , <br><b>SSID:</b> eduroam<br><b>Enc:</b> WPA2<br><b>AP:</b> 5<br>]]></description>
      <Point>
        <coordinates>-90.5695409,38.6534486,0</coordinates>
      </Point>
    </Placemark>
    <Placemark>
      <name>St Louis County Library</name>
      <description><![CDATA[<b>Name:</b> Jamestown Bluffs Branch<br><b>Address:</b> , <br><b>SSID:</b> eduroam<br><b>Enc:</b> WPA2<br><b>AP:</b> 15<br>]]></description>
      <Point>
        <coordinates>-90.2784291,38.8172546,0</coordinates>
      </Point>
    </Placemark>
    <Placemark>
      <name>St Louis County Library</name>
      <description><![CDATA[<b>Name:</b> Lewis &amp; Clark Branch<br><b>Address:</b> , <br><b>SSID:</b> eduroam<br><b>Enc:</b> WPA2<br><b>AP:</b> 5<br>]]></description>
      <Point>
        <coordinates>-90.2407825,38.7474549,0</coordinates>
      </Point>
    </Placemark>
    <Placemark>
      <name>St Louis County Library</name>
      <description><![CDATA[<b>Name:</b> Lynn Beckwith, Jr. Administrative Building<br><b>Address:</b> , <br><b>SSID:</b> eduroam<br><b>Enc:</b> WPA2<br><b>AP:</b> 5<br>]]></description>
      <Point>
        <coordinates>-90.4150567,38.6341143,0</coordinates>
      </Point>
    </Placemark>
    <Placemark>
      <name>St Louis County Library</name>
      <description><![CDATA[<b>Name:</b> Meramec Valley Branch<br><b>Address:</b> , <br><b>SSID:</b> eduroam<br><b>Enc:</b> WPA2<br><b>AP:</b> 5<br>]]></description>
      <Point>
        <coordinates>-90.4652754,38.5218416,0</coordinates>
      </Point>
    </Placemark>
    <Placemark>
      <name>St Louis County Library</name>
      <description><![CDATA[<b>Name:</b> Mid-County Branch<br><b>Address:</b> , <br><b>SSID:</b> eduroam<br><b>Enc:</b> WPA2<br><b>AP:</b> 5<br>]]></description>
      <Point>
        <coordinates>-90.3375526,38.6520453,0</coordinates>
      </Point>
    </Placemark>
    <Placemark>
      <name>St Louis County Library</name>
      <description><![CDATA[<b>Name:</b> Natural Bridge Branch<br><b>Address:</b> , <br><b>SSID:</b> eduroam<br><b>Enc:</b> WPA2<br><b>AP:</b> 5<br>]]></description>
      <Point>
        <coordinates>-90.3018565,38.7049953,0</coordinates>
      </Point>
    </Placemark>
    <Placemark>
      <name>St Louis County Library</name>
      <description><![CDATA[<b>Name:</b> Oak Bend Branch<br><b>Address:</b> , <br><b>SSID:</b> eduroam<br><b>Enc:</b> WPA2<br><b>AP:</b> 5<br>]]></description>
      <Point>
        <coordinates>-90.3910208,38.5692603,0</coordinates>
      </Point>
    </Placemark>
    <Placemark>
      <name>St Louis County Library</name>
      <description><![CDATA[<b>Name:</b> Parkview Branch<br><b>Address:</b> , <br><b>SSID:</b> eduroam<br><b>Enc:</b> WPA2<br><b>AP:</b> 5<br>]]></description>
      <Point>
        <coordinates>-90.3394113,38.6954449,0</coordinates>
      </Point>
    </Placemark>
    <Placemark>
      <name>St Louis County Library</name>
      <description><![CDATA[<b>Name:</b> Prairie Commons Branch<br><b>Address:</b> , <br><b>SSID:</b> eduroam<br><b>Enc:</b> WPA2<br><b>AP:</b> 5<br>]]></description>
      <Point>
        <coordinates>-90.3776792,38.7828335,0</coordinates>
      </Point>
    </Placemark>
    <Placemark>
      <name>St Louis County Library</name>
      <description><![CDATA[<b>Name:</b> Rock Road Branch<br><b>Address:</b> , <br><b>SSID:</b> eduroam<br><b>Enc:</b> WPA2<br><b>AP:</b> 5<br>]]></description>
      <Point>
        <coordinates>-90.3793352,38.7278896,0</coordinates>
      </Point>
    </Placemark>
    <Placemark>
      <name>St Louis County Library</name>
      <description><![CDATA[<b>Name:</b> St. Louis County Library Administrative Building<br><b>Address:</b> , <br><b>SSID:</b> eduroam<br><b>Enc:</b> WPA2<br><b>AP:</b> 6<br>]]></description>
      <Point>
        <coordinates>-90.4150567,38.6341143,0</coordinates>
      </Point>
    </Placemark>
    <Placemark>
      <name>St Louis County Library</name>
      <description><![CDATA[<b>Name:</b> Thornhill Branch<br><b>Address:</b> , <br><b>SSID:</b> eduroam<br><b>Enc:</b> WPA2<br><b>AP:</b> 5<br>]]></description>
      <Point>
        <coordinates>-90.4711346,38.6913668,0</coordinates>
      </Point>
    </Placemark>
    <Placemark>
      <name>St Louis County Library</name>
      <description><![CDATA[<b>Name:</b> Weber Road Branch<br><b>Address:</b> , <br><b>SSID:</b> eduroam<br><b>Enc:</b> WPA2<br><b>AP:</b> 5<br>]]></description>
      <Point>
        <coordinates>-90.2980178,38.5509335,0</coordinates>
      </Point>
    </Placemark>
    <Placemark>
      <name>Stowers Institute</name>
      <description><![CDATA[<b>Name:</b> SSF<br><b>Address:</b> , <br><b>SSID:</b> eduroam<br><b>Enc:</b> WPA2<br><b>AP:</b> -<br>]]></description>
      <Point>
        <coordinates>-94.5506566,38.9753581,0</coordinates>
      </Point>
    </Placemark>
    <Placemark>
      <name>Stowers Institute</name>
      <description><![CDATA[<b>Name:</b> Stowers Main Campus<br><b>Address:</b> , <br><b>SSID:</b> eduroam<br><b>Enc:</b> WPA2<br><b>AP:</b> -<br>]]></description>
      <Point>
        <coordinates>-94.5750827,39.0371011,0</coordinates>
      </Point>
    </Placemark>
    <Placemark>
      <name>Trails Regional Library</name>
      <description><![CDATA[<b>Name:</b> Concordia Branch<br><b>Address:</b> , <br><b>SSID:</b> eduroam<br><b>Enc:</b> WPA2<br><b>AP:</b> 2<br>]]></description>
      <Point>
        <coordinates>-93.568045,38.9805218,0</coordinates>
      </Point>
    </Placemark>
    <Placemark>
      <name>Trails Regional Library</name>
      <description><![CDATA[<b>Name:</b> Corder Branch<br><b>Address:</b> , <br><b>SSID:</b> eduroam<br><b>Enc:</b> WPA2<br><b>AP:</b> 2<br>]]></description>
      <Point>
        <coordinates>-93.6405842,39.0996007,0</coordinates>
      </Point>
    </Placemark>
    <Placemark>
      <name>Trails Regional Library</name>
      <description><![CDATA[<b>Name:</b> Holden Branch<br><b>Address:</b> , <br><b>SSID:</b> eduroam<br><b>Enc:</b> WPA2<br><b>AP:</b> 2<br>]]></description>
      <Point>
        <coordinates>-93.9893805,38.7172217,0</coordinates>
      </Point>
    </Placemark>
    <Placemark>
      <name>Trails Regional Library</name>
      <description><![CDATA[<b>Name:</b> Knob Noster<br><b>Address:</b> , <br><b>SSID:</b> eduroam<br><b>Enc:</b> WPA2<br><b>AP:</b> 2<br>]]></description>
      <Point>
        <coordinates>-93.554729,38.7661593,0</coordinates>
      </Point>
    </Placemark>
    <Placemark>
      <name>Trails Regional Library</name>
      <description><![CDATA[<b>Name:</b> Lexington Branch<br><b>Address:</b> , <br><b>SSID:</b> eduroam<br><b>Enc:</b> WPA2<br><b>AP:</b> 2<br>]]></description>
      <Point>
        <coordinates>-93.8831659,39.185782,0</coordinates>
      </Point>
    </Placemark>
    <Placemark>
      <name>Trails Regional Library</name>
      <description><![CDATA[<b>Name:</b> Odessa Branch<br><b>Address:</b> , <br><b>SSID:</b> eduroam<br><b>Enc:</b> WPA2<br><b>AP:</b> 2<br>]]></description>
      <Point>
        <coordinates>-93.9527843,38.9994086,0</coordinates>
      </Point>
    </Placemark>
    <Placemark>
      <name>Trails Regional Library</name>
      <description><![CDATA[<b>Name:</b> Warrensburg Branch<br><b>Address:</b> , <br><b>SSID:</b> eduroam<br><b>Enc:</b> WPA2<br><b>AP:</b> 8<br>]]></description>
      <Point>
        <coordinates>-93.7404939,38.7672532,0</coordinates>
      </Point>
    </Placemark>
    <Placemark>
      <name>Trails Regional Library</name>
      <description><![CDATA[<b>Name:</b> Waverly Branch<br><b>Address:</b> , <br><b>SSID:</b> eduroam<br><b>Enc:</b> WPA2<br><b>AP:</b> 1<br>]]></description>
      <Point>
        <coordinates>-93.5157153,39.2096458,0</coordinates>
      </Point>
    </Placemark>
    <Placemark>
      <name>University of Missouri</name>
      <description><![CDATA[<b>Name:</b> University of Missouri<br><b>Address:</b> , <br><b>SSID:</b> eduroam<br><b>Enc:</b> WPA2+WPA<br><b>AP:</b> -<br>]]></description>
      <Point>
        <coordinates>-92.3288012,38.945325,0</coordinates>
      </Point>
    </Placemark>
    <Placemark>
      <name>University of Missouri</name>
      <description><![CDATA[<b>Name:</b> University of Missouri - Columbia<br><b>Address:</b> , <br><b>SSID:</b> eduroam<br><b>Enc:</b> WPA2<br><b>AP:</b> 3000<br>]]></description>
      <Point>
        <coordinates>-92.3291315,38.9452394,0</coordinates>
      </Point>
    </Placemark>
    <Placemark>
      <name>University of Missouri</name>
      <description><![CDATA[<b>Name:</b> University of Missouri - Kansas City<br><b>Address:</b> , <br><b>SSID:</b> eduroam<br><b>Enc:</b> WPA2<br><b>AP:</b> 1000<br>]]></description>
      <Point>
        <coordinates>-94.5777618,39.0333662,0</coordinates>
      </Point>
    </Placemark>
    <Placemark>
      <name>University of Missouri</name>
      <description><![CDATA[<b>Name:</b> University of Missouri - St. Louis<br><b>Address:</b> , <br><b>SSID:</b> eduroam<br><b>Enc:</b> WPA2<br><b>AP:</b> 1000<br>]]></description>
      <Point>
        <coordinates>-90.30761,38.705651,0</coordinates>
      </Point>
    </Placemark>
    <Placemark>
      <name>University of Missouri</name>
      <description><![CDATA[<b>Name:</b> University of Missouri Science and Technology<br><b>Address:</b> , <br><b>SSID:</b> eduroam<br><b>Enc:</b> WPA2<br><b>AP:</b> 1000<br>]]></description>
      <Point>
        <coordinates>-91.7711209,37.95419,0</coordinates>
      </Point>
    </Placemark>
    <Placemark>
      <name>University of Missouri - Columbia</name>
      <description><![CDATA[<b>Name:</b> Main Campus<br><b>Address:</b> , <br><b>SSID:</b> eduroam<br><b>Enc:</b> WPA2+WPA<br><b>AP:</b> 4500<br>]]></description>
      <Point>
        <coordinates>-92.3287767,38.9452476,0</coordinates>
      </Point>
    </Placemark>
    <Placemark>
      <name>University of Missouri St. Louis</name>
      <description><![CDATA[<b>Name:</b> Computer Education &amp; Training Center<br><b>Address:</b> , <br><b>SSID:</b> eduroam<br><b>Enc:</b> WPA2+WPA<br><b>AP:</b> 10<br>]]></description>
      <Point>
        <coordinates>-90.4553837,38.6082328,0</coordinates>
      </Point>
    </Placemark>
    <Placemark>
      <name>University of Missouri St. Louis</name>
      <description><![CDATA[<b>Name:</b> Innovative Technology Enterprises<br><b>Address:</b> , <br><b>SSID:</b> eduroam<br><b>Enc:</b> WPA2+WPA<br><b>AP:</b> 30<br>]]></description>
      <Point>
        <coordinates>-90.33481,38.728676,0</coordinates>
      </Point>
    </Placemark>
    <Placemark>
      <name>University of Missouri St. Louis</name>
      <description><![CDATA[<b>Name:</b> KWMU - Grand Center<br><b>Address:</b> , <br><b>SSID:</b> eduroam<br><b>Enc:</b> WPA2+WPA<br><b>AP:</b> 25<br>]]></description>
      <Point>
        <coordinates>-90.2336274,38.6390693,0</coordinates>
      </Point>
    </Placemark>
    <Placemark>
      <name>University of Missouri St. Louis</name>
      <description><![CDATA[<b>Name:</b> Main Campus<br><b>Address:</b> , <br><b>SSID:</b> eduroam<br><b>Enc:</b> WPA2+WPA<br><b>AP:</b> 800<br>]]></description>
      <Point>
        <coordinates>-90.3111075,38.7101379,0</coordinates>
      </Point>
    </Placemark>
    <Placemark>
      <name>University of Missouri-Kansas City</name>
      <description><![CDATA[<b>Name:</b> Health Sciences Campus<br><b>Address:</b> , <br><b>SSID:</b> eduroam<br><b>Enc:</b> WPA2<br><b>AP:</b> 400<br>]]></description>
      <Point>
        <coordinates>-94.5746945,39.0824253,0</coordinates>
      </Point>
    </Placemark>
    <Placemark>
      <name>University of Missouri-Kansas City</name>
      <description><![CDATA[<b>Name:</b> Regional Professional Development Center<br><b>Address:</b> , <br><b>SSID:</b> eduroam<br><b>Enc:</b> WPA2<br><b>AP:</b> 5<br>]]></description>
      <Point>
        <coordinates>-94.58573,39.085078,0</coordinates>
      </Point>
    </Placemark>
    <Placemark>
      <name>University of Missouri-Kansas City</name>
      <description><![CDATA[<b>Name:</b> School of Medicine St. Joseph<br><b>Address:</b> , <br><b>SSID:</b> eduroam<br><b>Enc:</b> WPA2<br><b>AP:</b> 20<br>]]></description>
      <Point>
        <coordinates>-94.7714643,39.7698439,0</coordinates>
      </Point>
    </Placemark>
    <Placemark>
      <name>University of Missouri-Kansas City</name>
      <description><![CDATA[<b>Name:</b> Volker Campus<br><b>Address:</b> , <br><b>SSID:</b> eduroam<br><b>Enc:</b> WPA2<br><b>AP:</b> 1200<br>]]></description>
      <Point>
        <coordinates>-94.5779723,39.036187,0</coordinates>
      </Point>
    </Placemark>
    <Placemark>
      <name>Washington University in St Louis</name>
      <description><![CDATA[<b>Name:</b> Main Campus<br><b>Address:</b> , <br><b>SSID:</b> eduroam<br><b>Enc:</b> WPA2+WPA<br><b>AP:</b> 5000<br>]]></description>
      <Point>
        <coordinates>-90.3118525,38.6493493,0</coordinates>
      </Point>
    </Placemark>
  </Document>
</kml>
