<?xml version="1.0" encoding="UTF-8"?>
<kml xmlns="http://www.opengis.net/kml/2.2">
  <Document>
    <name>eduroam — Oregon</name>
    <description><![CDATA[77 eduroam service locations in Oregon.<br><br>Published by <a href="https://scs.nevada.edu/eduroam">NSHE System Computing Services</a>. Learn more about eduroam Support Organizations from <a href="https://incommon.org/eduroam">Internet2</a>, the eduroam National Roaming Operator for the United States.<br>These maps are derived from data published by GÉANT (<a href="https://monitor.eduroam.org/kml/us.kml">monitor.eduroam.org</a>). This is not an official GÉANT or eduroam publication.<br>eduroam is a registered trademark of the GÉANT Association.<br>Region boundaries are derived from US Census Bureau cartographic boundary files, which as works of the US federal government are in the public domain.<br>Maps generated by eduroam-us-regional-maps, which is BSD 3-Clause licensed.]]></description>
    <open>1</open>
    <Placemark>
      <name>Department of Veterans Affairs</name>
      <description><![CDATA[<b>Name:</b> Portland VA Medical Center<br><b>Address:</b> , <br><b>SSID:</b> eduroam<br><b>Enc:</b> WPA2<br><b>AP:</b> -<br>]]></description>
      <Point>
        <coordinates>-122.684116,45.4962771,0</coordinates>
      </Point>
    </Placemark>
    <Placemark>
      <name>Department of Veterans Affairs</name>
      <description><![CDATA[<b>Name:</b> Portland VA Medical Center<br><b>Address:</b> , <br><b>SSID:</b> eduroam<br><b>Enc:</b> WPA2<br><b>AP:</b> -<br>]]></description>
      <Point>
        <coordinates>-122.683529,45.497057,0</coordinates>
      </Point>
    </Placemark>
    <Placemark>
      <name>George Fox University</name>
      <description><![CDATA[<b>Name:</b> George Fox University<br><b>Address:</b> , <br><b>SSID:</b> eduroam<br><b>Enc:</b> WPA2+WPA<br><b>AP:</b> -<br>]]></description>
      <Point>
        <coordinates>-122.969402,45.303629,0</coordinates>
      </Point>
    </Placemark>
    <Placemark>
      <name>Intermountain ESD</name>
      <description><![CDATA[<b>Name:</b> IMESD Headquarters<br><b>Address:</b> , <br><b>SSID:</b> eduroam<br><b>Enc:</b> WPA2<br><b>AP:</b> 13<br>]]></description>
      <Point>
        <coordinates>-118.8032411,45.6537953,0</coordinates>
      </Point>
    </Placemark>
    <Placemark>
      <name>Intermountain ESD</name>
      <description><![CDATA[<b>Name:</b> IMESD La Grande Building<br><b>Address:</b> , <br><b>SSID:</b> eduroam<br><b>Enc:</b> WPA2<br><b>AP:</b> 3<br>]]></description>
      <Point>
        <coordinates>-118.0629397,45.3269471,0</coordinates>
      </Point>
    </Placemark>
    <Placemark>
      <name>Intermountain ESD</name>
      <description><![CDATA[<b>Name:</b> IMESD Migratory Education Center<br><b>Address:</b> , <br><b>SSID:</b> eduroam<br><b>Enc:</b> WPA2<br><b>AP:</b> 4<br>]]></description>
      <Point>
        <coordinates>-119.2705938,45.8296464,0</coordinates>
      </Point>
    </Placemark>
    <Placemark>
      <name>Intermountain ESD</name>
      <description><![CDATA[<b>Name:</b> IMESD Punkin Center<br><b>Address:</b> , <br><b>SSID:</b> eduroam<br><b>Enc:</b> WPA2<br><b>AP:</b> 3<br>]]></description>
      <Point>
        <coordinates>-119.2940631,45.8650614,0</coordinates>
      </Point>
    </Placemark>
    <Placemark>
      <name>Lane ESD</name>
      <description><![CDATA[<b>Name:</b> Lane ESD Main Campus<br><b>Address:</b> , <br><b>SSID:</b> eduroam<br><b>Enc:</b> WPA2<br><b>AP:</b> 17<br>]]></description>
      <Point>
        <coordinates>-123.1488497,44.0753627,0</coordinates>
      </Point>
    </Placemark>
    <Placemark>
      <name>Lane ESD</name>
      <description><![CDATA[<b>Name:</b> Lane ESD Westmorland Campus<br><b>Address:</b> , <br><b>SSID:</b> eduroam<br><b>Enc:</b> WPA2<br><b>AP:</b> -<br>]]></description>
      <Point>
        <coordinates>-123.126822,44.0413808,0</coordinates>
      </Point>
    </Placemark>
    <Placemark>
      <name>Oregon Health &amp; Science University</name>
      <description><![CDATA[<b>Name:</b> Downtown Portland Market Square Building<br><b>Address:</b> , <br><b>SSID:</b> eduroam<br><b>Enc:</b> WPA2+WPA<br><b>AP:</b> 80<br>]]></description>
      <Point>
        <coordinates>-122.681162,45.513278,0</coordinates>
      </Point>
    </Placemark>
    <Placemark>
      <name>Oregon Health &amp; Science University</name>
      <description><![CDATA[<b>Name:</b> OHSU Health - Hillsboro Medical Center<br><b>Address:</b> , <br><b>SSID:</b> eduroam<br><b>Enc:</b> WPA2+WPA<br><b>AP:</b> 350<br>]]></description>
      <Point>
        <coordinates>-122.9782249,45.5195909,0</coordinates>
      </Point>
    </Placemark>
    <Placemark>
      <name>Oregon Health &amp; Science University</name>
      <description><![CDATA[<b>Name:</b> OHSU Main Campus<br><b>Address:</b> , <br><b>SSID:</b> eduroam<br><b>Enc:</b> WPA2+WPA<br><b>AP:</b> 2000<br>]]></description>
      <Point>
        <coordinates>-122.6872675,45.5000365,0</coordinates>
      </Point>
    </Placemark>
    <Placemark>
      <name>Oregon Health &amp; Science University</name>
      <description><![CDATA[<b>Name:</b> OHSU South Water Front<br><b>Address:</b> , <br><b>SSID:</b> eduroam<br><b>Enc:</b> WPA2+WPA<br><b>AP:</b> 1115<br>]]></description>
      <Point>
        <coordinates>-122.6707479,45.4987143,0</coordinates>
      </Point>
    </Placemark>
    <Placemark>
      <name>Oregon Health &amp; Science University</name>
      <description><![CDATA[<b>Name:</b> OHSU West Campus<br><b>Address:</b> , <br><b>SSID:</b> eduroam<br><b>Enc:</b> WPA2+WPA<br><b>AP:</b> 230<br>]]></description>
      <Point>
        <coordinates>-122.8751596,45.52393,0</coordinates>
      </Point>
    </Placemark>
    <Placemark>
      <name>Oregon State University</name>
      <description><![CDATA[<b>Name:</b> Baker County Extension Offices<br><b>Address:</b> , <br><b>SSID:</b> eduroam<br><b>Enc:</b> WPA2<br><b>AP:</b> -<br>]]></description>
      <Point>
        <coordinates>-117.8226911,44.7831968,0</coordinates>
      </Point>
    </Placemark>
    <Placemark>
      <name>Oregon State University</name>
      <description><![CDATA[<b>Name:</b> Benton County Extension Office<br><b>Address:</b> , <br><b>SSID:</b> eduroam<br><b>Enc:</b> WPA2<br><b>AP:</b> -<br>]]></description>
      <Point>
        <coordinates>-123.296951,44.552226,0</coordinates>
      </Point>
    </Placemark>
    <Placemark>
      <name>Oregon State University</name>
      <description><![CDATA[<b>Name:</b> Central Oregon Agricultural Research Center (COARC)<br><b>Address:</b> , <br><b>SSID:</b> eduroam<br><b>Enc:</b> WPA2<br><b>AP:</b> -<br>]]></description>
      <Point>
        <coordinates>-121.1508121,44.6808016,0</coordinates>
      </Point>
    </Placemark>
    <Placemark>
      <name>Oregon State University</name>
      <description><![CDATA[<b>Name:</b> Clackamas County Extension Office<br><b>Address:</b> , <br><b>SSID:</b> eduroam<br><b>Enc:</b> WPA2<br><b>AP:</b> -<br>]]></description>
      <Point>
        <coordinates>-122.6004121,45.3360769,0</coordinates>
      </Point>
    </Placemark>
    <Placemark>
      <name>Oregon State University</name>
      <description><![CDATA[<b>Name:</b> Coastal Oregon Marine Experiment Station &amp; Clatsop County Extension Office<br><b>Address:</b> , <br><b>SSID:</b> eduroam<br><b>Enc:</b> WPA2<br><b>AP:</b> -<br>]]></description>
      <Point>
        <coordinates>-123.819779,46.1890543,0</coordinates>
      </Point>
    </Placemark>
    <Placemark>
      <name>Oregon State University</name>
      <description><![CDATA[<b>Name:</b> Columbia Basin Agriculture Research Center (CBARC)<br><b>Address:</b> , <br><b>SSID:</b> eduroam<br><b>Enc:</b> WPA2<br><b>AP:</b> -<br>]]></description>
      <Point>
        <coordinates>-118.6242357,45.7185593,0</coordinates>
      </Point>
    </Placemark>
    <Placemark>
      <name>Oregon State University</name>
      <description><![CDATA[<b>Name:</b> Columbia County Extension Office<br><b>Address:</b> , <br><b>SSID:</b> eduroam<br><b>Enc:</b> WPA2<br><b>AP:</b> -<br>]]></description>
      <Point>
        <coordinates>-122.8189516,45.8643433,0</coordinates>
      </Point>
    </Placemark>
    <Placemark>
      <name>Oregon State University</name>
      <description><![CDATA[<b>Name:</b> Coos County Extension Office<br><b>Address:</b> , <br><b>SSID:</b> eduroam<br><b>Enc:</b> WPA2<br><b>AP:</b> -<br>]]></description>
      <Point>
        <coordinates>-124.1400471,43.06649,0</coordinates>
      </Point>
    </Placemark>
    <Placemark>
      <name>Oregon State University</name>
      <description><![CDATA[<b>Name:</b> Crook County Extension Office<br><b>Address:</b> , <br><b>SSID:</b> eduroam<br><b>Enc:</b> WPA2<br><b>AP:</b> -<br>]]></description>
      <Point>
        <coordinates>-120.8417803,44.293602,0</coordinates>
      </Point>
    </Placemark>
    <Placemark>
      <name>Oregon State University</name>
      <description><![CDATA[<b>Name:</b> Curry County Extension Office<br><b>Address:</b> , <br><b>SSID:</b> eduroam<br><b>Enc:</b> WPA2<br><b>AP:</b> -<br>]]></description>
      <Point>
        <coordinates>-124.421385,42.405291,0</coordinates>
      </Point>
    </Placemark>
    <Placemark>
      <name>Oregon State University</name>
      <description><![CDATA[<b>Name:</b> Deschutes County Extension Office<br><b>Address:</b> , <br><b>SSID:</b> eduroam<br><b>Enc:</b> WPA2<br><b>AP:</b> -<br>]]></description>
      <Point>
        <coordinates>-121.1838224,44.2388754,0</coordinates>
      </Point>
    </Placemark>
    <Placemark>
      <name>Oregon State University</name>
      <description><![CDATA[<b>Name:</b> Douglas County Extension Office<br><b>Address:</b> , <br><b>SSID:</b> eduroam<br><b>Enc:</b> WPA2<br><b>AP:</b> -<br>]]></description>
      <Point>
        <coordinates>-123.3403521,43.2100875,0</coordinates>
      </Point>
    </Placemark>
    <Placemark>
      <name>Oregon State University</name>
      <description><![CDATA[<b>Name:</b> Eastern Oregon Agricultural Research Center, Burns (EOARC-Burns)<br><b>Address:</b> , <br><b>SSID:</b> eduroam<br><b>Enc:</b> WPA2<br><b>AP:</b> -<br>]]></description>
      <Point>
        <coordinates>-119.0131828,43.5061074,0</coordinates>
      </Point>
    </Placemark>
    <Placemark>
      <name>Oregon State University</name>
      <description><![CDATA[<b>Name:</b> Eastern Oregon Agricultural Research Center, Union (EOARC-Union)<br><b>Address:</b> , <br><b>SSID:</b> eduroam<br><b>Enc:</b> WPA2<br><b>AP:</b> -<br>]]></description>
      <Point>
        <coordinates>-117.8758981,45.2088195,0</coordinates>
      </Point>
    </Placemark>
    <Placemark>
      <name>Oregon State University</name>
      <description><![CDATA[<b>Name:</b> Food Innovation Center (FIC)<br><b>Address:</b> , <br><b>SSID:</b> eduroam<br><b>Enc:</b> WPA2<br><b>AP:</b> -<br>]]></description>
      <Point>
        <coordinates>-122.6782599,45.5315641,0</coordinates>
      </Point>
    </Placemark>
    <Placemark>
      <name>Oregon State University</name>
      <description><![CDATA[<b>Name:</b> Gilliam County Extension Office<br><b>Address:</b> , <br><b>SSID:</b> eduroam<br><b>Enc:</b> WPA2<br><b>AP:</b> -<br>]]></description>
      <Point>
        <coordinates>-120.1845101,45.2364536,0</coordinates>
      </Point>
    </Placemark>
    <Placemark>
      <name>Oregon State University</name>
      <description><![CDATA[<b>Name:</b> Grant County Extension Office<br><b>Address:</b> , <br><b>SSID:</b> eduroam<br><b>Enc:</b> WPA2<br><b>AP:</b> -<br>]]></description>
      <Point>
        <coordinates>-118.955137,44.4166072,0</coordinates>
      </Point>
    </Placemark>
    <Placemark>
      <name>Oregon State University</name>
      <description><![CDATA[<b>Name:</b> Harney County Extension Office<br><b>Address:</b> , <br><b>SSID:</b> eduroam<br><b>Enc:</b> WPA2<br><b>AP:</b> -<br>]]></description>
      <Point>
        <coordinates>-119.057036,43.5897212,0</coordinates>
      </Point>
    </Placemark>
    <Placemark>
      <name>Oregon State University</name>
      <description><![CDATA[<b>Name:</b> Hatfield Marine Science Center<br><b>Address:</b> , <br><b>SSID:</b> eduroam<br><b>Enc:</b> WPA2<br><b>AP:</b> 150<br>]]></description>
      <Point>
        <coordinates>-124.0446309,44.6219021,0</coordinates>
      </Point>
    </Placemark>
    <Placemark>
      <name>Oregon State University</name>
      <description><![CDATA[<b>Name:</b> Hermiston Agricultural Research &amp; Extension Center (HAREC)<br><b>Address:</b> , <br><b>SSID:</b> eduroam<br><b>Enc:</b> WPA2<br><b>AP:</b> -<br>]]></description>
      <Point>
        <coordinates>-119.2877603,45.8169095,0</coordinates>
      </Point>
    </Placemark>
    <Placemark>
      <name>Oregon State University</name>
      <description><![CDATA[<b>Name:</b> Josephine County Extension Office<br><b>Address:</b> , <br><b>SSID:</b> eduroam<br><b>Enc:</b> WPA2<br><b>AP:</b> -<br>]]></description>
      <Point>
        <coordinates>-123.340294,42.425818,0</coordinates>
      </Point>
    </Placemark>
    <Placemark>
      <name>Oregon State University</name>
      <description><![CDATA[<b>Name:</b> Klamath Basin Research and Extension Center (KBREC)<br><b>Address:</b> , <br><b>SSID:</b> eduroam<br><b>Enc:</b> WPA2<br><b>AP:</b> -<br>]]></description>
      <Point>
        <coordinates>-121.7569973,42.1634084,0</coordinates>
      </Point>
    </Placemark>
    <Placemark>
      <name>Oregon State University</name>
      <description><![CDATA[<b>Name:</b> Lake County Extension Office<br><b>Address:</b> , <br><b>SSID:</b> eduroam<br><b>Enc:</b> WPA2<br><b>AP:</b> -<br>]]></description>
      <Point>
        <coordinates>-120.3446327,42.1885393,0</coordinates>
      </Point>
    </Placemark>
    <Placemark>
      <name>Oregon State University</name>
      <description><![CDATA[<b>Name:</b> Lane County Extension Office<br><b>Address:</b> , <br><b>SSID:</b> eduroam<br><b>Enc:</b> WPA2<br><b>AP:</b> -<br>]]></description>
      <Point>
        <coordinates>-123.101897,44.049522,0</coordinates>
      </Point>
    </Placemark>
    <Placemark>
      <name>Oregon State University</name>
      <description><![CDATA[<b>Name:</b> Lincoln County Extension Office<br><b>Address:</b> , <br><b>SSID:</b> eduroam<br><b>Enc:</b> WPA2<br><b>AP:</b> -<br>]]></description>
      <Point>
        <coordinates>-124.0358784,44.6284931,0</coordinates>
      </Point>
    </Placemark>
    <Placemark>
      <name>Oregon State University</name>
      <description><![CDATA[<b>Name:</b> Linn County Extension Office<br><b>Address:</b> , <br><b>SSID:</b> eduroam<br><b>Enc:</b> WPA2<br><b>AP:</b> -<br>]]></description>
      <Point>
        <coordinates>-123.1170513,44.5597014,0</coordinates>
      </Point>
    </Placemark>
    <Placemark>
      <name>Oregon State University</name>
      <description><![CDATA[<b>Name:</b> Main Campus<br><b>Address:</b> , <br><b>SSID:</b> eduroam<br><b>Enc:</b> WPA2<br><b>AP:</b> 4800<br>]]></description>
      <Point>
        <coordinates>-123.2799905,44.5645817,0</coordinates>
      </Point>
    </Placemark>
    <Placemark>
      <name>Oregon State University</name>
      <description><![CDATA[<b>Name:</b> Malheur County Extension Office<br><b>Address:</b> , <br><b>SSID:</b> eduroam<br><b>Enc:</b> WPA2<br><b>AP:</b> -<br>]]></description>
      <Point>
        <coordinates>-116.9736916,44.02328,0</coordinates>
      </Point>
    </Placemark>
    <Placemark>
      <name>Oregon State University</name>
      <description><![CDATA[<b>Name:</b> Malheur Experiment Station (MES)<br><b>Address:</b> , <br><b>SSID:</b> eduroam<br><b>Enc:</b> WPA2<br><b>AP:</b> -<br>]]></description>
      <Point>
        <coordinates>-117.0240128,43.9813337,0</coordinates>
      </Point>
    </Placemark>
    <Placemark>
      <name>Oregon State University</name>
      <description><![CDATA[<b>Name:</b> Marion County Extension Office 44.950190 -123.022308<br><b>Address:</b> , <br><b>SSID:</b> eduroam<br><b>Enc:</b> WPA2<br><b>AP:</b> -<br>]]></description>
      <Point>
        <coordinates>-123.0222724,44.950215,0</coordinates>
      </Point>
    </Placemark>
    <Placemark>
      <name>Oregon State University</name>
      <description><![CDATA[<b>Name:</b> Mid-Columbia Agricultural Research and Extension Center (MCAREC) &amp; HoodRiver Ext<br><b>Address:</b> , <br><b>SSID:</b> eduroam<br><b>Enc:</b> WPA2<br><b>AP:</b> -<br>]]></description>
      <Point>
        <coordinates>-121.5175304,45.6851633,0</coordinates>
      </Point>
    </Placemark>
    <Placemark>
      <name>Oregon State University</name>
      <description><![CDATA[<b>Name:</b> OSU Cascade Campus<br><b>Address:</b> , <br><b>SSID:</b> eduroam<br><b>Enc:</b> WPA2<br><b>AP:</b> 150<br>]]></description>
      <Point>
        <coordinates>-121.3334836,44.0429199,0</coordinates>
      </Point>
    </Placemark>
    <Placemark>
      <name>Oregon State University</name>
      <description><![CDATA[<b>Name:</b> OSU North Willamette Research &amp; Extension Center (NWREC)<br><b>Address:</b> , <br><b>SSID:</b> eduroam<br><b>Enc:</b> WPA2<br><b>AP:</b> -<br>]]></description>
      <Point>
        <coordinates>-122.7499902,45.2829899,0</coordinates>
      </Point>
    </Placemark>
    <Placemark>
      <name>Oregon State University</name>
      <description><![CDATA[<b>Name:</b> OSU Portland Center<br><b>Address:</b> , <br><b>SSID:</b> eduroam<br><b>Enc:</b> WPA2<br><b>AP:</b> 20<br>]]></description>
      <Point>
        <coordinates>-122.6780675,45.5191631,0</coordinates>
      </Point>
    </Placemark>
    <Placemark>
      <name>Oregon State University</name>
      <description><![CDATA[<b>Name:</b> Polk County Extension Office<br><b>Address:</b> , <br><b>SSID:</b> eduroam<br><b>Enc:</b> WPA2<br><b>AP:</b> -<br>]]></description>
      <Point>
        <coordinates>-123.307776,44.9285799,0</coordinates>
      </Point>
    </Placemark>
    <Placemark>
      <name>Oregon State University</name>
      <description><![CDATA[<b>Name:</b> Sherman County Extension Office<br><b>Address:</b> , <br><b>SSID:</b> eduroam<br><b>Enc:</b> WPA2<br><b>AP:</b> -<br>]]></description>
      <Point>
        <coordinates>-120.726761,45.4823106,0</coordinates>
      </Point>
    </Placemark>
    <Placemark>
      <name>Oregon State University</name>
      <description><![CDATA[<b>Name:</b> Southern Oregon Research and Extension Center (SOREC)<br><b>Address:</b> , <br><b>SSID:</b> eduroam<br><b>Enc:</b> WPA2<br><b>AP:</b> -<br>]]></description>
      <Point>
        <coordinates>-122.9382575,42.3312084,0</coordinates>
      </Point>
    </Placemark>
    <Placemark>
      <name>Oregon State University</name>
      <description><![CDATA[<b>Name:</b> Tillamook County Extension Office<br><b>Address:</b> , <br><b>SSID:</b> eduroam<br><b>Enc:</b> WPA2<br><b>AP:</b> -<br>]]></description>
      <Point>
        <coordinates>-123.811083,45.4574215,0</coordinates>
      </Point>
    </Placemark>
    <Placemark>
      <name>Oregon State University</name>
      <description><![CDATA[<b>Name:</b> Umatilla County Extension Office<br><b>Address:</b> , <br><b>SSID:</b> eduroam<br><b>Enc:</b> WPA2<br><b>AP:</b> -<br>]]></description>
      <Point>
        <coordinates>-118.8160619,45.6765562,0</coordinates>
      </Point>
    </Placemark>
    <Placemark>
      <name>Oregon State University</name>
      <description><![CDATA[<b>Name:</b> Umatilla Milton-Freewater Extension Office<br><b>Address:</b> , <br><b>SSID:</b> eduroam<br><b>Enc:</b> WPA2<br><b>AP:</b> -<br>]]></description>
      <Point>
        <coordinates>-118.3971114,45.9412903,0</coordinates>
      </Point>
    </Placemark>
    <Placemark>
      <name>Oregon State University</name>
      <description><![CDATA[<b>Name:</b> Union County Extension Office<br><b>Address:</b> , <br><b>SSID:</b> eduroam<br><b>Enc:</b> WPA2<br><b>AP:</b> -<br>]]></description>
      <Point>
        <coordinates>-118.0441851,45.3464627,0</coordinates>
      </Point>
    </Placemark>
    <Placemark>
      <name>Oregon State University</name>
      <description><![CDATA[<b>Name:</b> Wallowa County Extension Office<br><b>Address:</b> , <br><b>SSID:</b> eduroam<br><b>Enc:</b> WPA2<br><b>AP:</b> -<br>]]></description>
      <Point>
        <coordinates>-117.2789293,45.4300862,0</coordinates>
      </Point>
    </Placemark>
    <Placemark>
      <name>Oregon State University</name>
      <description><![CDATA[<b>Name:</b> Warm Springs Office<br><b>Address:</b> , <br><b>SSID:</b> eduroam<br><b>Enc:</b> WPA2<br><b>AP:</b> -<br>]]></description>
      <Point>
        <coordinates>-121.2713641,44.7644229,0</coordinates>
      </Point>
    </Placemark>
    <Placemark>
      <name>Oregon State University</name>
      <description><![CDATA[<b>Name:</b> Wasco County Extension Office<br><b>Address:</b> , <br><b>SSID:</b> eduroam<br><b>Enc:</b> WPA2<br><b>AP:</b> -<br>]]></description>
      <Point>
        <coordinates>-121.1893441,45.5906302,0</coordinates>
      </Point>
    </Placemark>
    <Placemark>
      <name>Oregon State University</name>
      <description><![CDATA[<b>Name:</b> Washington County Extension Office<br><b>Address:</b> , <br><b>SSID:</b> eduroam<br><b>Enc:</b> WPA2<br><b>AP:</b> -<br>]]></description>
      <Point>
        <coordinates>-122.8522069,45.5326589,0</coordinates>
      </Point>
    </Placemark>
    <Placemark>
      <name>Oregon State University</name>
      <description><![CDATA[<b>Name:</b> Wheeler County Extension Office<br><b>Address:</b> , <br><b>SSID:</b> eduroam<br><b>Enc:</b> WPA2<br><b>AP:</b> -<br>]]></description>
      <Point>
        <coordinates>-120.2155437,44.9979614,0</coordinates>
      </Point>
    </Placemark>
    <Placemark>
      <name>Oregon State University</name>
      <description><![CDATA[<b>Name:</b> Yamhill County Extension Office<br><b>Address:</b> , <br><b>SSID:</b> eduroam<br><b>Enc:</b> WPA2<br><b>AP:</b> -<br>]]></description>
      <Point>
        <coordinates>-123.1743902,45.2233473,0</coordinates>
      </Point>
    </Placemark>
    <Placemark>
      <name>Pacific University</name>
      <description><![CDATA[<b>Name:</b> Forest Grove Campus<br><b>Address:</b> , <br><b>SSID:</b> eduroam<br><b>Enc:</b> WPA3+WPA2+WPA<br><b>AP:</b> 545<br>]]></description>
      <Point>
        <coordinates>-123.1085407,45.5214605,0</coordinates>
      </Point>
    </Placemark>
    <Placemark>
      <name>Pacific University</name>
      <description><![CDATA[<b>Name:</b> Hillsboro Campus<br><b>Address:</b> , <br><b>SSID:</b> eduroam<br><b>Enc:</b> WPA3+WPA2+WPA<br><b>AP:</b> 125<br>]]></description>
      <Point>
        <coordinates>-122.9768593,45.521014,0</coordinates>
      </Point>
    </Placemark>
    <Placemark>
      <name>Portland Community College</name>
      <description><![CDATA[<b>Name:</b> PCC Cascade Campus<br><b>Address:</b> , <br><b>SSID:</b> eduroam<br><b>Enc:</b> WPA2+WPA<br><b>AP:</b> 186<br>]]></description>
      <Point>
        <coordinates>-122.6742856,45.5637568,0</coordinates>
      </Point>
    </Placemark>
    <Placemark>
      <name>Portland Community College</name>
      <description><![CDATA[<b>Name:</b> PCC Hillsboro Center<br><b>Address:</b> , <br><b>SSID:</b> eduroam<br><b>Enc:</b> WPA2+WPA<br><b>AP:</b> 15<br>]]></description>
      <Point>
        <coordinates>-122.978008,45.5203338,0</coordinates>
      </Point>
    </Placemark>
    <Placemark>
      <name>Portland Community College</name>
      <description><![CDATA[<b>Name:</b> PCC Newberg Center<br><b>Address:</b> , <br><b>SSID:</b> eduroam<br><b>Enc:</b> WPA2+WPA<br><b>AP:</b> 12<br>]]></description>
      <Point>
        <coordinates>-122.940064,45.3001778,0</coordinates>
      </Point>
    </Placemark>
    <Placemark>
      <name>Portland Community College</name>
      <description><![CDATA[<b>Name:</b> PCC Rock Creek Campus<br><b>Address:</b> , <br><b>SSID:</b> eduroam<br><b>Enc:</b> WPA2+WPA<br><b>AP:</b> 202<br>]]></description>
      <Point>
        <coordinates>-122.863039,45.564587,0</coordinates>
      </Point>
    </Placemark>
    <Placemark>
      <name>Portland Community College</name>
      <description><![CDATA[<b>Name:</b> PCC Southeast<br><b>Address:</b> , <br><b>SSID:</b> eduroam<br><b>Enc:</b> WPA2+WPA<br><b>AP:</b> 122<br>]]></description>
      <Point>
        <coordinates>-122.5791604,45.5062284,0</coordinates>
      </Point>
    </Placemark>
    <Placemark>
      <name>Portland Community College</name>
      <description><![CDATA[<b>Name:</b> PCC Sylvania Campus<br><b>Address:</b> , <br><b>SSID:</b> eduroam<br><b>Enc:</b> WPA2+WPA<br><b>AP:</b> 289<br>]]></description>
      <Point>
        <coordinates>-122.7307655,45.4380653,0</coordinates>
      </Point>
    </Placemark>
    <Placemark>
      <name>Portland Community College</name>
      <description><![CDATA[<b>Name:</b> PCC Willow Creek<br><b>Address:</b> , <br><b>SSID:</b> eduroam<br><b>Enc:</b> WPA2+WPA<br><b>AP:</b> 35<br>]]></description>
      <Point>
        <coordinates>-122.8699755,45.517731,0</coordinates>
      </Point>
    </Placemark>
    <Placemark>
      <name>Portland State University</name>
      <description><![CDATA[<b>Name:</b> Portland State University<br><b>Address:</b> , <br><b>SSID:</b> eduroam<br><b>Enc:</b> WPA2<br><b>AP:</b> 2785<br>]]></description>
      <Point>
        <coordinates>-122.6842783,45.5118507,0</coordinates>
      </Point>
    </Placemark>
    <Placemark>
      <name>University of Oregon</name>
      <description><![CDATA[<b>Name:</b> Main Campus<br><b>Address:</b> , <br><b>SSID:</b> eduroam<br><b>Enc:</b> WPA2+WPA<br><b>AP:</b> 5000<br>]]></description>
      <Point>
        <coordinates>-123.0705768,44.0443735,0</coordinates>
      </Point>
    </Placemark>
    <Placemark>
      <name>University of Oregon</name>
      <description><![CDATA[<b>Name:</b> OIMB<br><b>Address:</b> , <br><b>SSID:</b> eduroam<br><b>Enc:</b> WPA2+WPA<br><b>AP:</b> 15<br>]]></description>
      <Point>
        <coordinates>-124.3285847,43.344523,0</coordinates>
      </Point>
    </Placemark>
    <Placemark>
      <name>Western Oregon University</name>
      <description><![CDATA[<b>Name:</b> Western Oregon University<br><b>Address:</b> , <br><b>SSID:</b> eduroam<br><b>Enc:</b> WPA2+WPA<br><b>AP:</b> 1000<br>]]></description>
      <Point>
        <coordinates>-123.2364366,44.8512803,0</coordinates>
      </Point>
    </Placemark>
    <Placemark>
      <name>Western University of Health Sciences</name>
      <description><![CDATA[<b>Name:</b> WesternU College of Health Sciences Oregon<br><b>Address:</b> , <br><b>SSID:</b> eduroam<br><b>Enc:</b> WPA2<br><b>AP:</b> 49<br>]]></description>
      <Point>
        <coordinates>-122.9037537,44.521781,0</coordinates>
      </Point>
    </Placemark>
    <Placemark>
      <name>Western University of Health Sciences</name>
      <description><![CDATA[<b>Name:</b> WesternU College of Osteopathic Medicine Northwest<br><b>Address:</b> , <br><b>SSID:</b> eduroam<br><b>Enc:</b> WPA2<br><b>AP:</b> 39<br>]]></description>
      <Point>
        <coordinates>-122.9103591,44.5492685,0</coordinates>
      </Point>
    </Placemark>
    <Placemark>
      <name>Western University of Health Sciences</name>
      <description><![CDATA[<b>Name:</b> WesternU Health Oliver Station<br><b>Address:</b> , <br><b>SSID:</b> eduroam<br><b>Enc:</b> WPA2<br><b>AP:</b> 6<br>]]></description>
      <Point>
        <coordinates>-122.5688164,45.4796202,0</coordinates>
      </Point>
    </Placemark>
  </Document>
</kml>
