<?xml version="1.0" encoding="UTF-8"?>
<kml xmlns="http://www.opengis.net/kml/2.2">
  <Document>
    <name>eduroam — Pennsylvania</name>
    <description><![CDATA[148 eduroam service locations in Pennsylvania.<br><br>Published by <a href="https://scs.nevada.edu/eduroam">NSHE System Computing Services</a>. Learn more about eduroam Support Organizations from <a href="https://incommon.org/eduroam">Internet2</a>, the eduroam National Roaming Operator for the United States.<br>Service location data comes from the eduroam location database published by GÉANT (<a href="https://monitor.eduroam.org/kml/us.kml">monitor.eduroam.org</a>). These maps are derived from it and are not an official GÉANT or eduroam publication.<br>eduroam is a registered trademark of GÉANT Vereniging.<br>Region boundaries are derived from US Census Bureau cartographic boundary files, which as works of the US federal government are in the public domain.<br>Maps generated by eduroam-us-regional-maps, which is BSD 3-Clause licensed.]]></description>
    <open>1</open>
    <Placemark>
      <name>Arcadia University</name>
      <description><![CDATA[<b>Name:</b> Arcadia University Glenside Campus<br><b>Address:</b> , <br><b>SSID:</b> eduroam<br><b>Enc:</b> WPA2<br><b>AP:</b> 2<br>]]></description>
      <Point>
        <coordinates>-75.1647196,40.0915752,0</coordinates>
      </Point>
    </Placemark>
    <Placemark>
      <name>Bryn Mawr College</name>
      <description><![CDATA[<b>Name:</b> Main Campus<br><b>Address:</b> , <br><b>SSID:</b> eduroam<br><b>Enc:</b> WPA2+WPA<br><b>AP:</b> 831<br>]]></description>
      <Point>
        <coordinates>-75.3164723,40.0262767,0</coordinates>
      </Point>
    </Placemark>
    <Placemark>
      <name>Bucknell University</name>
      <description><![CDATA[<b>Name:</b> Bucknell University<br><b>Address:</b> , <br><b>SSID:</b> eduroam<br><b>Enc:</b> WPA3+WPA2+WPA<br><b>AP:</b> 4800<br>]]></description>
      <Point>
        <coordinates>-76.8870138,40.954885,0</coordinates>
      </Point>
    </Placemark>
    <Placemark>
      <name>Carnegie Mellon University</name>
      <description><![CDATA[<b>Name:</b> Main Campus<br><b>Address:</b> , <br><b>SSID:</b> eduroam<br><b>Enc:</b> WPA2+WPA<br><b>AP:</b> -<br>]]></description>
      <Point>
        <coordinates>-79.9440363,40.4432084,0</coordinates>
      </Point>
    </Placemark>
    <Placemark>
      <name>Cedar Crest College</name>
      <description><![CDATA[<b>Name:</b> Cedar Crest College<br><b>Address:</b> , <br><b>SSID:</b> eduroam<br><b>Enc:</b> WPA2+WPA<br><b>AP:</b> 500<br>]]></description>
      <Point>
        <coordinates>-75.5192007,40.5852288,0</coordinates>
      </Point>
    </Placemark>
    <Placemark>
      <name>Dagostino Electronic Services Inc</name>
      <description><![CDATA[<b>Name:</b> Office<br><b>Address:</b> , <br><b>SSID:</b> eduroam<br><b>Enc:</b> WPA2<br><b>AP:</b> 20<br>]]></description>
      <Point>
        <coordinates>-79.9300997,40.3828253,0</coordinates>
      </Point>
    </Placemark>
    <Placemark>
      <name>Delaware County Community College</name>
      <description><![CDATA[<b>Name:</b> Downingtown Campus<br><b>Address:</b> , <br><b>SSID:</b> eduroam<br><b>Enc:</b> WPA2+WPA<br><b>AP:</b> -<br>]]></description>
      <Point>
        <coordinates>-75.7422996,40.0266121,0</coordinates>
      </Point>
    </Placemark>
    <Placemark>
      <name>Delaware County Community College</name>
      <description><![CDATA[<b>Name:</b> Exton Center<br><b>Address:</b> , <br><b>SSID:</b> eduroam<br><b>Enc:</b> WPA2+WPA<br><b>AP:</b> -<br>]]></description>
      <Point>
        <coordinates>-75.597499,40.0292971,0</coordinates>
      </Point>
    </Placemark>
    <Placemark>
      <name>Delaware County Community College</name>
      <description><![CDATA[<b>Name:</b> Marple Campus<br><b>Address:</b> , <br><b>SSID:</b> eduroam<br><b>Enc:</b> WPA2+WPA<br><b>AP:</b> -<br>]]></description>
      <Point>
        <coordinates>-75.3928513,39.9678273,0</coordinates>
      </Point>
    </Placemark>
    <Placemark>
      <name>Delaware County Community College</name>
      <description><![CDATA[<b>Name:</b> Pennocks Bridge Campus<br><b>Address:</b> , <br><b>SSID:</b> eduroam<br><b>Enc:</b> WPA2+WPA<br><b>AP:</b> -<br>]]></description>
      <Point>
        <coordinates>-75.8756658,39.801021,0</coordinates>
      </Point>
    </Placemark>
    <Placemark>
      <name>Delaware County Community College</name>
      <description><![CDATA[<b>Name:</b> Southeast Center<br><b>Address:</b> , <br><b>SSID:</b> eduroam<br><b>Enc:</b> WPA2+WPA<br><b>AP:</b> -<br>]]></description>
      <Point>
        <coordinates>-75.2636048,39.9067922,0</coordinates>
      </Point>
    </Placemark>
    <Placemark>
      <name>Delaware County Community College</name>
      <description><![CDATA[<b>Name:</b> Upper Darby Center<br><b>Address:</b> , <br><b>SSID:</b> eduroam<br><b>Enc:</b> WPA2+WPA<br><b>AP:</b> -<br>]]></description>
      <Point>
        <coordinates>-75.2733798,39.9529889,0</coordinates>
      </Point>
    </Placemark>
    <Placemark>
      <name>Department of Veterans Affairs</name>
      <description><![CDATA[<b>Name:</b> Butler VA Medical Center<br><b>Address:</b> , <br><b>SSID:</b> eduroam<br><b>Enc:</b> WPA2<br><b>AP:</b> -<br>]]></description>
      <Point>
        <coordinates>-79.942857,40.86278,0</coordinates>
      </Point>
    </Placemark>
    <Placemark>
      <name>Department of Veterans Affairs</name>
      <description><![CDATA[<b>Name:</b> Coatesville VA Medical Center<br><b>Address:</b> , <br><b>SSID:</b> eduroam<br><b>Enc:</b> WPA2<br><b>AP:</b> -<br>]]></description>
      <Point>
        <coordinates>-75.7959468,39.9980731,0</coordinates>
      </Point>
    </Placemark>
    <Placemark>
      <name>Department of Veterans Affairs</name>
      <description><![CDATA[<b>Name:</b> Erie VA Medical Center<br><b>Address:</b> , <br><b>SSID:</b> eduroam<br><b>Enc:</b> WPA2<br><b>AP:</b> -<br>]]></description>
      <Point>
        <coordinates>-80.06305,42.10242,0</coordinates>
      </Point>
    </Placemark>
    <Placemark>
      <name>Department of Veterans Affairs</name>
      <description><![CDATA[<b>Name:</b> Heinz VA Medical Center<br><b>Address:</b> , <br><b>SSID:</b> eduroam<br><b>Enc:</b> WPA2<br><b>AP:</b> -<br>]]></description>
      <Point>
        <coordinates>-79.887838,40.49506,0</coordinates>
      </Point>
    </Placemark>
    <Placemark>
      <name>Department of Veterans Affairs</name>
      <description><![CDATA[<b>Name:</b> Lebanon VA Medical Center<br><b>Address:</b> , <br><b>SSID:</b> eduroam<br><b>Enc:</b> WPA2<br><b>AP:</b> -<br>]]></description>
      <Point>
        <coordinates>-76.39873,40.31835,0</coordinates>
      </Point>
    </Placemark>
    <Placemark>
      <name>Department of Veterans Affairs</name>
      <description><![CDATA[<b>Name:</b> Philadelphia VA Medical Center<br><b>Address:</b> , <br><b>SSID:</b> eduroam<br><b>Enc:</b> WPA2<br><b>AP:</b> -<br>]]></description>
      <Point>
        <coordinates>-75.1999959,39.9485231,0</coordinates>
      </Point>
    </Placemark>
    <Placemark>
      <name>Department of Veterans Affairs</name>
      <description><![CDATA[<b>Name:</b> University Drive VA Medical Center<br><b>Address:</b> , <br><b>SSID:</b> eduroam<br><b>Enc:</b> WPA2<br><b>AP:</b> -<br>]]></description>
      <Point>
        <coordinates>-79.959349,40.447449,0</coordinates>
      </Point>
    </Placemark>
    <Placemark>
      <name>Department of Veterans Affairs</name>
      <description><![CDATA[<b>Name:</b> Wellsboro OPC<br><b>Address:</b> , <br><b>SSID:</b> eduroam<br><b>Enc:</b> WPA2<br><b>AP:</b> -<br>]]></description>
      <Point>
        <coordinates>-77.274123,41.737917,0</coordinates>
      </Point>
    </Placemark>
    <Placemark>
      <name>Department of Veterans Affairs</name>
      <description><![CDATA[<b>Name:</b> Wilkes Barre VA Medical Center<br><b>Address:</b> , <br><b>SSID:</b> eduroam<br><b>Enc:</b> WPA2<br><b>AP:</b> -<br>]]></description>
      <Point>
        <coordinates>-75.83834,41.24818,0</coordinates>
      </Point>
    </Placemark>
    <Placemark>
      <name>Drexel University</name>
      <description><![CDATA[<b>Name:</b> 11st Family Health Services<br><b>Address:</b> , <br><b>SSID:</b> eduroam<br><b>Enc:</b> WPA2+WPA<br><b>AP:</b> -<br>]]></description>
      <Point>
        <coordinates>-75.1549423,39.9679706,0</coordinates>
      </Point>
    </Placemark>
    <Placemark>
      <name>Drexel University</name>
      <description><![CDATA[<b>Name:</b> 3 Parkway<br><b>Address:</b> , <br><b>SSID:</b> eduroam<br><b>Enc:</b> WPA2+WPA<br><b>AP:</b> -<br>]]></description>
      <Point>
        <coordinates>-75.1669174,39.9559437,0</coordinates>
      </Point>
    </Placemark>
    <Placemark>
      <name>Drexel University</name>
      <description><![CDATA[<b>Name:</b> Academy of Natural Sciences<br><b>Address:</b> , <br><b>SSID:</b> eduroam<br><b>Enc:</b> WPA2+WPA<br><b>AP:</b> -<br>]]></description>
      <Point>
        <coordinates>-75.1712047,39.9570904,0</coordinates>
      </Point>
    </Placemark>
    <Placemark>
      <name>Drexel University</name>
      <description><![CDATA[<b>Name:</b> Center City Campus<br><b>Address:</b> , <br><b>SSID:</b> eduroam<br><b>Enc:</b> WPA2+WPA<br><b>AP:</b> -<br>]]></description>
      <Point>
        <coordinates>-75.1638118,39.9575736,0</coordinates>
      </Point>
    </Placemark>
    <Placemark>
      <name>Drexel University</name>
      <description><![CDATA[<b>Name:</b> Malvern PA Campus<br><b>Address:</b> , <br><b>SSID:</b> eduroam<br><b>Enc:</b> WPA2+WPA<br><b>AP:</b> -<br>]]></description>
      <Point>
        <coordinates>-75.5295112,40.0532604,0</coordinates>
      </Point>
    </Placemark>
    <Placemark>
      <name>Drexel University</name>
      <description><![CDATA[<b>Name:</b> University City Campus<br><b>Address:</b> , <br><b>SSID:</b> eduroam<br><b>Enc:</b> WPA2+WPA<br><b>AP:</b> -<br>]]></description>
      <Point>
        <coordinates>-75.1898819,39.9564923,0</coordinates>
      </Point>
    </Placemark>
    <Placemark>
      <name>Duquesne University</name>
      <description><![CDATA[<b>Name:</b> Duquesne University<br><b>Address:</b> , <br><b>SSID:</b> eduroam<br><b>Enc:</b> WPA2<br><b>AP:</b> 3600<br>]]></description>
      <Point>
        <coordinates>-79.9902435,40.4369811,0</coordinates>
      </Point>
    </Placemark>
    <Placemark>
      <name>eiNetwork</name>
      <description><![CDATA[<b>Name:</b> Allegheny County Library Association<br><b>Address:</b> , <br><b>SSID:</b> eduroam<br><b>Enc:</b> WPA2<br><b>AP:</b> 2<br>]]></description>
      <Point>
        <coordinates>-80.0350872,40.4406276,0</coordinates>
      </Point>
    </Placemark>
    <Placemark>
      <name>eiNetwork</name>
      <description><![CDATA[<b>Name:</b> Andrew Bayne Memorial Library<br><b>Address:</b> , <br><b>SSID:</b> eduroam<br><b>Enc:</b> WPA2<br><b>AP:</b> -<br>]]></description>
      <Point>
        <coordinates>-80.0543,40.4965156,0</coordinates>
      </Point>
    </Placemark>
    <Placemark>
      <name>eiNetwork</name>
      <description><![CDATA[<b>Name:</b> Andrew Carnegie Free Library &amp; Music Hall<br><b>Address:</b> , <br><b>SSID:</b> eduroam<br><b>Enc:</b> WPA2<br><b>AP:</b> 3<br>]]></description>
      <Point>
        <coordinates>-80.0858808,40.4067424,0</coordinates>
      </Point>
    </Placemark>
    <Placemark>
      <name>eiNetwork</name>
      <description><![CDATA[<b>Name:</b> Avalon Public Library<br><b>Address:</b> , <br><b>SSID:</b> eduroam<br><b>Enc:</b> WPA2<br><b>AP:</b> -<br>]]></description>
      <Point>
        <coordinates>-80.0628129,40.4971343,0</coordinates>
      </Point>
    </Placemark>
    <Placemark>
      <name>eiNetwork</name>
      <description><![CDATA[<b>Name:</b> Baldwin Borough Public Library<br><b>Address:</b> , <br><b>SSID:</b> eduroam<br><b>Enc:</b> WPA2<br><b>AP:</b> 3<br>]]></description>
      <Point>
        <coordinates>-79.9777183,40.3417237,0</coordinates>
      </Point>
    </Placemark>
    <Placemark>
      <name>eiNetwork</name>
      <description><![CDATA[<b>Name:</b> Bethel Park Public Library<br><b>Address:</b> , <br><b>SSID:</b> eduroam<br><b>Enc:</b> WPA2<br><b>AP:</b> 6<br>]]></description>
      <Point>
        <coordinates>-80.0314408,40.3323201,0</coordinates>
      </Point>
    </Placemark>
    <Placemark>
      <name>eiNetwork</name>
      <description><![CDATA[<b>Name:</b> Brentwood Library<br><b>Address:</b> , <br><b>SSID:</b> eduroam<br><b>Enc:</b> WPA2<br><b>AP:</b> 7<br>]]></description>
      <Point>
        <coordinates>-79.9749948,40.3749283,0</coordinates>
      </Point>
    </Placemark>
    <Placemark>
      <name>eiNetwork</name>
      <description><![CDATA[<b>Name:</b> Bridgeville Public Library<br><b>Address:</b> , <br><b>SSID:</b> eduroam<br><b>Enc:</b> WPA2<br><b>AP:</b> 4<br>]]></description>
      <Point>
        <coordinates>-80.1115821,40.3562855,0</coordinates>
      </Point>
    </Placemark>
    <Placemark>
      <name>eiNetwork</name>
      <description><![CDATA[<b>Name:</b> C.C. Mellor Memorial Library<br><b>Address:</b> , <br><b>SSID:</b> eduroam<br><b>Enc:</b> WPA2<br><b>AP:</b> 5<br>]]></description>
      <Point>
        <coordinates>-79.8852159,40.4322898,0</coordinates>
      </Point>
    </Placemark>
    <Placemark>
      <name>eiNetwork</name>
      <description><![CDATA[<b>Name:</b> C.C. Mellor Memorial Library Forest Hills Branch<br><b>Address:</b> , <br><b>SSID:</b> eduroam<br><b>Enc:</b> WPA2<br><b>AP:</b> 2<br>]]></description>
      <Point>
        <coordinates>-79.8404597,40.4174835,0</coordinates>
      </Point>
    </Placemark>
    <Placemark>
      <name>eiNetwork</name>
      <description><![CDATA[<b>Name:</b> Carnegie Free Library of Swissvale<br><b>Address:</b> , <br><b>SSID:</b> eduroam<br><b>Enc:</b> WPA2<br><b>AP:</b> 3<br>]]></description>
      <Point>
        <coordinates>-79.89115,40.4225345,0</coordinates>
      </Point>
    </Placemark>
    <Placemark>
      <name>eiNetwork</name>
      <description><![CDATA[<b>Name:</b> Carnegie Library of McKeesport<br><b>Address:</b> , <br><b>SSID:</b> eduroam<br><b>Enc:</b> WPA2<br><b>AP:</b> 4<br>]]></description>
      <Point>
        <coordinates>-79.8552283,40.3452729,0</coordinates>
      </Point>
    </Placemark>
    <Placemark>
      <name>eiNetwork</name>
      <description><![CDATA[<b>Name:</b> Carnegie Library of Pittsburgh - Allegheny<br><b>Address:</b> , <br><b>SSID:</b> eduroam<br><b>Enc:</b> WPA2<br><b>AP:</b> 9<br>]]></description>
      <Point>
        <coordinates>-80.0065905,40.4564751,0</coordinates>
      </Point>
    </Placemark>
    <Placemark>
      <name>eiNetwork</name>
      <description><![CDATA[<b>Name:</b> Carnegie Library of Pittsburgh - Beechview<br><b>Address:</b> , <br><b>SSID:</b> eduroam<br><b>Enc:</b> WPA2<br><b>AP:</b> 5<br>]]></description>
      <Point>
        <coordinates>-80.0277206,40.407027,0</coordinates>
      </Point>
    </Placemark>
    <Placemark>
      <name>eiNetwork</name>
      <description><![CDATA[<b>Name:</b> Carnegie Library of Pittsburgh - Brookline<br><b>Address:</b> , <br><b>SSID:</b> eduroam<br><b>Enc:</b> WPA2<br><b>AP:</b> 5<br>]]></description>
      <Point>
        <coordinates>-80.0213972,40.3944174,0</coordinates>
      </Point>
    </Placemark>
    <Placemark>
      <name>eiNetwork</name>
      <description><![CDATA[<b>Name:</b> Carnegie Library of Pittsburgh - Carrick<br><b>Address:</b> , <br><b>SSID:</b> eduroam<br><b>Enc:</b> WPA2<br><b>AP:</b> 6<br>]]></description>
      <Point>
        <coordinates>-79.9876081,40.397019,0</coordinates>
      </Point>
    </Placemark>
    <Placemark>
      <name>eiNetwork</name>
      <description><![CDATA[<b>Name:</b> Carnegie Library of Pittsburgh - Downtown<br><b>Address:</b> , <br><b>SSID:</b> eduroam<br><b>Enc:</b> WPA2<br><b>AP:</b> 8<br>]]></description>
      <Point>
        <coordinates>-79.9973738,40.4417769,0</coordinates>
      </Point>
    </Placemark>
    <Placemark>
      <name>eiNetwork</name>
      <description><![CDATA[<b>Name:</b> Carnegie Library of Pittsburgh - East Liberty<br><b>Address:</b> , <br><b>SSID:</b> eduroam<br><b>Enc:</b> WPA2<br><b>AP:</b> 15<br>]]></description>
      <Point>
        <coordinates>-79.9265284,40.4609837,0</coordinates>
      </Point>
    </Placemark>
    <Placemark>
      <name>eiNetwork</name>
      <description><![CDATA[<b>Name:</b> Carnegie Library of Pittsburgh - Hazelwood<br><b>Address:</b> , <br><b>SSID:</b> eduroam<br><b>Enc:</b> WPA2<br><b>AP:</b> 3<br>]]></description>
      <Point>
        <coordinates>-79.9439736,40.4081973,0</coordinates>
      </Point>
    </Placemark>
    <Placemark>
      <name>eiNetwork</name>
      <description><![CDATA[<b>Name:</b> Carnegie Library of Pittsburgh - Hill District<br><b>Address:</b> , <br><b>SSID:</b> eduroam<br><b>Enc:</b> WPA2<br><b>AP:</b> 6<br>]]></description>
      <Point>
        <coordinates>-79.9766632,40.4454755,0</coordinates>
      </Point>
    </Placemark>
    <Placemark>
      <name>eiNetwork</name>
      <description><![CDATA[<b>Name:</b> Carnegie Library of Pittsburgh - Homewood<br><b>Address:</b> , <br><b>SSID:</b> eduroam<br><b>Enc:</b> WPA2<br><b>AP:</b> 6<br>]]></description>
      <Point>
        <coordinates>-79.8991978,40.455314,0</coordinates>
      </Point>
    </Placemark>
    <Placemark>
      <name>eiNetwork</name>
      <description><![CDATA[<b>Name:</b> Carnegie Library of Pittsburgh - Knoxville<br><b>Address:</b> , <br><b>SSID:</b> eduroam<br><b>Enc:</b> WPA2<br><b>AP:</b> 9<br>]]></description>
      <Point>
        <coordinates>-79.9891806,40.4132381,0</coordinates>
      </Point>
    </Placemark>
    <Placemark>
      <name>eiNetwork</name>
      <description><![CDATA[<b>Name:</b> Carnegie Library of Pittsburgh - Lawrenceville<br><b>Address:</b> , <br><b>SSID:</b> eduroam<br><b>Enc:</b> WPA2<br><b>AP:</b> 5<br>]]></description>
      <Point>
        <coordinates>-79.9590953,40.4675773,0</coordinates>
      </Point>
    </Placemark>
    <Placemark>
      <name>eiNetwork</name>
      <description><![CDATA[<b>Name:</b> Carnegie Library of Pittsburgh - Library of Accessible Media for Pennsylvanians<br><b>Address:</b> , <br><b>SSID:</b> eduroam<br><b>Enc:</b> WPA2<br><b>AP:</b> 4<br>]]></description>
      <Point>
        <coordinates>-79.949219,40.4538223,0</coordinates>
      </Point>
    </Placemark>
    <Placemark>
      <name>eiNetwork</name>
      <description><![CDATA[<b>Name:</b> Carnegie Library of Pittsburgh - Library Support Center<br><b>Address:</b> , <br><b>SSID:</b> eduroam<br><b>Enc:</b> WPA2<br><b>AP:</b> 3<br>]]></description>
      <Point>
        <coordinates>-80.0337673,40.4400474,0</coordinates>
      </Point>
    </Placemark>
    <Placemark>
      <name>eiNetwork</name>
      <description><![CDATA[<b>Name:</b> Carnegie Library of Pittsburgh - Main (Oakland)<br><b>Address:</b> , <br><b>SSID:</b> eduroam<br><b>Enc:</b> WPA2<br><b>AP:</b> 50<br>]]></description>
      <Point>
        <coordinates>-79.9502225,40.4432834,0</coordinates>
      </Point>
    </Placemark>
    <Placemark>
      <name>eiNetwork</name>
      <description><![CDATA[<b>Name:</b> Carnegie Library of Pittsburgh - Mt. Washington<br><b>Address:</b> , <br><b>SSID:</b> eduroam<br><b>Enc:</b> WPA2<br><b>AP:</b> 7<br>]]></description>
      <Point>
        <coordinates>-80.0104782,40.4335252,0</coordinates>
      </Point>
    </Placemark>
    <Placemark>
      <name>eiNetwork</name>
      <description><![CDATA[<b>Name:</b> Carnegie Library of Pittsburgh - Sheraden<br><b>Address:</b> , <br><b>SSID:</b> eduroam<br><b>Enc:</b> WPA2<br><b>AP:</b> 2<br>]]></description>
      <Point>
        <coordinates>-80.0565265,40.455194,0</coordinates>
      </Point>
    </Placemark>
    <Placemark>
      <name>eiNetwork</name>
      <description><![CDATA[<b>Name:</b> Carnegie Library of Pittsburgh - South Side<br><b>Address:</b> , <br><b>SSID:</b> eduroam<br><b>Enc:</b> WPA2<br><b>AP:</b> 8<br>]]></description>
      <Point>
        <coordinates>-79.9742162,40.4287109,0</coordinates>
      </Point>
    </Placemark>
    <Placemark>
      <name>eiNetwork</name>
      <description><![CDATA[<b>Name:</b> Carnegie Library of Pittsburgh - Squirrel Hill<br><b>Address:</b> , <br><b>SSID:</b> eduroam<br><b>Enc:</b> WPA2<br><b>AP:</b> 8<br>]]></description>
      <Point>
        <coordinates>-79.9227826,40.4384414,0</coordinates>
      </Point>
    </Placemark>
    <Placemark>
      <name>eiNetwork</name>
      <description><![CDATA[<b>Name:</b> Carnegie Library of Pittsburgh - West End<br><b>Address:</b> , <br><b>SSID:</b> eduroam<br><b>Enc:</b> WPA2<br><b>AP:</b> 3<br>]]></description>
      <Point>
        <coordinates>-80.0340622,40.4400663,0</coordinates>
      </Point>
    </Placemark>
    <Placemark>
      <name>eiNetwork</name>
      <description><![CDATA[<b>Name:</b> Carnegie Library of Pittsburgh - Woods Run<br><b>Address:</b> , <br><b>SSID:</b> eduroam<br><b>Enc:</b> WPA2<br><b>AP:</b> 3<br>]]></description>
      <Point>
        <coordinates>-80.0302409,40.4762369,0</coordinates>
      </Point>
    </Placemark>
    <Placemark>
      <name>eiNetwork</name>
      <description><![CDATA[<b>Name:</b> Carnegie of Homestead<br><b>Address:</b> , <br><b>SSID:</b> eduroam<br><b>Enc:</b> WPA2<br><b>AP:</b> 4<br>]]></description>
      <Point>
        <coordinates>-79.9028894,40.4070515,0</coordinates>
      </Point>
    </Placemark>
    <Placemark>
      <name>eiNetwork</name>
      <description><![CDATA[<b>Name:</b> Castle Shannon Library<br><b>Address:</b> , <br><b>SSID:</b> eduroam<br><b>Enc:</b> WPA2<br><b>AP:</b> 4<br>]]></description>
      <Point>
        <coordinates>-80.0222785,40.3677461,0</coordinates>
      </Point>
    </Placemark>
    <Placemark>
      <name>eiNetwork</name>
      <description><![CDATA[<b>Name:</b> Clairton Public Library<br><b>Address:</b> , <br><b>SSID:</b> eduroam<br><b>Enc:</b> WPA2<br><b>AP:</b> 3<br>]]></description>
      <Point>
        <coordinates>-79.8833024,40.2919041,0</coordinates>
      </Point>
    </Placemark>
    <Placemark>
      <name>eiNetwork</name>
      <description><![CDATA[<b>Name:</b> Community Library of Allegheny Valley<br><b>Address:</b> , <br><b>SSID:</b> eduroam<br><b>Enc:</b> WPA2<br><b>AP:</b> 4<br>]]></description>
      <Point>
        <coordinates>-79.7283827,40.6205092,0</coordinates>
      </Point>
    </Placemark>
    <Placemark>
      <name>eiNetwork</name>
      <description><![CDATA[<b>Name:</b> Cooper-Siegel Community Library<br><b>Address:</b> , <br><b>SSID:</b> eduroam<br><b>Enc:</b> WPA2<br><b>AP:</b> 3<br>]]></description>
      <Point>
        <coordinates>-79.8798977,40.5153432,0</coordinates>
      </Point>
    </Placemark>
    <Placemark>
      <name>eiNetwork</name>
      <description><![CDATA[<b>Name:</b> Coraopolis Memorial Library<br><b>Address:</b> , <br><b>SSID:</b> eduroam<br><b>Enc:</b> WPA2<br><b>AP:</b> 2<br>]]></description>
      <Point>
        <coordinates>-80.1619058,40.5153707,0</coordinates>
      </Point>
    </Placemark>
    <Placemark>
      <name>eiNetwork</name>
      <description><![CDATA[<b>Name:</b> Crafton Public Library<br><b>Address:</b> , <br><b>SSID:</b> eduroam<br><b>Enc:</b> WPA2<br><b>AP:</b> 2<br>]]></description>
      <Point>
        <coordinates>-80.0668289,40.4344498,0</coordinates>
      </Point>
    </Placemark>
    <Placemark>
      <name>eiNetwork</name>
      <description><![CDATA[<b>Name:</b> Dormont Public Library<br><b>Address:</b> , <br><b>SSID:</b> eduroam<br><b>Enc:</b> WPA2<br><b>AP:</b> 3<br>]]></description>
      <Point>
        <coordinates>-80.0359817,40.3942374,0</coordinates>
      </Point>
    </Placemark>
    <Placemark>
      <name>eiNetwork</name>
      <description><![CDATA[<b>Name:</b> Duquesne Branch of the Carnegie Library of Mckeesport<br><b>Address:</b> , <br><b>SSID:</b> eduroam<br><b>Enc:</b> WPA2<br><b>AP:</b> 2<br>]]></description>
      <Point>
        <coordinates>-79.8484531,40.3719817,0</coordinates>
      </Point>
    </Placemark>
    <Placemark>
      <name>eiNetwork</name>
      <description><![CDATA[<b>Name:</b> Green Tree Public Library<br><b>Address:</b> , <br><b>SSID:</b> eduroam<br><b>Enc:</b> WPA2<br><b>AP:</b> 3<br>]]></description>
      <Point>
        <coordinates>-80.0469942,40.4186658,0</coordinates>
      </Point>
    </Placemark>
    <Placemark>
      <name>eiNetwork</name>
      <description><![CDATA[<b>Name:</b> Hampton Community Library<br><b>Address:</b> , <br><b>SSID:</b> eduroam<br><b>Enc:</b> WPA2<br><b>AP:</b> 2<br>]]></description>
      <Point>
        <coordinates>-79.9346335,40.581376,0</coordinates>
      </Point>
    </Placemark>
    <Placemark>
      <name>eiNetwork</name>
      <description><![CDATA[<b>Name:</b> Jefferson Hills Library<br><b>Address:</b> , <br><b>SSID:</b> eduroam<br><b>Enc:</b> WPA2<br><b>AP:</b> 2<br>]]></description>
      <Point>
        <coordinates>-79.9298976,40.2974629,0</coordinates>
      </Point>
    </Placemark>
    <Placemark>
      <name>eiNetwork</name>
      <description><![CDATA[<b>Name:</b> Millvale Community Library<br><b>Address:</b> , <br><b>SSID:</b> eduroam<br><b>Enc:</b> WPA2<br><b>AP:</b> 2<br>]]></description>
      <Point>
        <coordinates>-79.9716161,40.4788516,0</coordinates>
      </Point>
    </Placemark>
    <Placemark>
      <name>eiNetwork</name>
      <description><![CDATA[<b>Name:</b> Monroeville Public Library<br><b>Address:</b> , <br><b>SSID:</b> eduroam<br><b>Enc:</b> WPA2<br><b>AP:</b> 5<br>]]></description>
      <Point>
        <coordinates>-79.7526966,40.430081,0</coordinates>
      </Point>
    </Placemark>
    <Placemark>
      <name>eiNetwork</name>
      <description><![CDATA[<b>Name:</b> Moon Township Public Library<br><b>Address:</b> , <br><b>SSID:</b> eduroam<br><b>Enc:</b> WPA2<br><b>AP:</b> 4<br>]]></description>
      <Point>
        <coordinates>-80.2024567,40.4963115,0</coordinates>
      </Point>
    </Placemark>
    <Placemark>
      <name>eiNetwork</name>
      <description><![CDATA[<b>Name:</b> Mt Lebanon Public Library<br><b>Address:</b> , <br><b>SSID:</b> eduroam<br><b>Enc:</b> WPA2<br><b>AP:</b> 9<br>]]></description>
      <Point>
        <coordinates>-80.0453305,40.3770325,0</coordinates>
      </Point>
    </Placemark>
    <Placemark>
      <name>eiNetwork</name>
      <description><![CDATA[<b>Name:</b> North Versailles Public Library<br><b>Address:</b> , <br><b>SSID:</b> eduroam<br><b>Enc:</b> WPA2<br><b>AP:</b> 2<br>]]></description>
      <Point>
        <coordinates>-79.818333,40.3811855,0</coordinates>
      </Point>
    </Placemark>
    <Placemark>
      <name>eiNetwork</name>
      <description><![CDATA[<b>Name:</b> Northern Tier Library - Richland Center<br><b>Address:</b> , <br><b>SSID:</b> eduroam<br><b>Enc:</b> WPA2<br><b>AP:</b> 8<br>]]></description>
      <Point>
        <coordinates>-79.9524517,40.6416854,0</coordinates>
      </Point>
    </Placemark>
    <Placemark>
      <name>eiNetwork</name>
      <description><![CDATA[<b>Name:</b> Northland Public Library<br><b>Address:</b> , <br><b>SSID:</b> eduroam<br><b>Enc:</b> WPA2<br><b>AP:</b> 11<br>]]></description>
      <Point>
        <coordinates>-80.0347918,40.570993,0</coordinates>
      </Point>
    </Placemark>
    <Placemark>
      <name>eiNetwork</name>
      <description><![CDATA[<b>Name:</b> Oakmont Carnegie Library<br><b>Address:</b> , <br><b>SSID:</b> eduroam<br><b>Enc:</b> WPA2<br><b>AP:</b> 3<br>]]></description>
      <Point>
        <coordinates>-79.8417144,40.522046,0</coordinates>
      </Point>
    </Placemark>
    <Placemark>
      <name>eiNetwork</name>
      <description><![CDATA[<b>Name:</b> Penn Hills Library<br><b>Address:</b> , <br><b>SSID:</b> eduroam<br><b>Enc:</b> WPA2<br><b>AP:</b> 6<br>]]></description>
      <Point>
        <coordinates>-79.8105008,40.4827192,0</coordinates>
      </Point>
    </Placemark>
    <Placemark>
      <name>eiNetwork</name>
      <description><![CDATA[<b>Name:</b> Pleasant Hills Public Library<br><b>Address:</b> , <br><b>SSID:</b> eduroam<br><b>Enc:</b> WPA2<br><b>AP:</b> 4<br>]]></description>
      <Point>
        <coordinates>-79.9619666,40.333766,0</coordinates>
      </Point>
    </Placemark>
    <Placemark>
      <name>eiNetwork</name>
      <description><![CDATA[<b>Name:</b> Plum Borough Community Library<br><b>Address:</b> , <br><b>SSID:</b> eduroam<br><b>Enc:</b> WPA2<br><b>AP:</b> 2<br>]]></description>
      <Point>
        <coordinates>-79.7540508,40.4877315,0</coordinates>
      </Point>
    </Placemark>
    <Placemark>
      <name>eiNetwork</name>
      <description><![CDATA[<b>Name:</b> Robinson Township Library<br><b>Address:</b> , <br><b>SSID:</b> eduroam<br><b>Enc:</b> WPA2<br><b>AP:</b> 2<br>]]></description>
      <Point>
        <coordinates>-80.144192,40.438728,0</coordinates>
      </Point>
    </Placemark>
    <Placemark>
      <name>eiNetwork</name>
      <description><![CDATA[<b>Name:</b> Scott Township Public Library<br><b>Address:</b> , <br><b>SSID:</b> eduroam<br><b>Enc:</b> WPA2<br><b>AP:</b> 3<br>]]></description>
      <Point>
        <coordinates>-80.0839668,40.3870122,0</coordinates>
      </Point>
    </Placemark>
    <Placemark>
      <name>eiNetwork</name>
      <description><![CDATA[<b>Name:</b> Sewickley Public Library<br><b>Address:</b> , <br><b>SSID:</b> eduroam<br><b>Enc:</b> WPA2<br><b>AP:</b> 6<br>]]></description>
      <Point>
        <coordinates>-80.1815346,40.5387757,0</coordinates>
      </Point>
    </Placemark>
    <Placemark>
      <name>eiNetwork</name>
      <description><![CDATA[<b>Name:</b> Shaler North Hills Library<br><b>Address:</b> , <br><b>SSID:</b> eduroam<br><b>Enc:</b> WPA2<br><b>AP:</b> 9<br>]]></description>
      <Point>
        <coordinates>-79.9642725,40.5282665,0</coordinates>
      </Point>
    </Placemark>
    <Placemark>
      <name>eiNetwork</name>
      <description><![CDATA[<b>Name:</b> Sharpsburg Community Library<br><b>Address:</b> , <br><b>SSID:</b> eduroam<br><b>Enc:</b> WPA2<br><b>AP:</b> 2<br>]]></description>
      <Point>
        <coordinates>-79.9302158,40.4944514,0</coordinates>
      </Point>
    </Placemark>
    <Placemark>
      <name>eiNetwork</name>
      <description><![CDATA[<b>Name:</b> South Fayette Township Library<br><b>Address:</b> , <br><b>SSID:</b> eduroam<br><b>Enc:</b> WPA2<br><b>AP:</b> 2<br>]]></description>
      <Point>
        <coordinates>-80.1425967,40.3551201,0</coordinates>
      </Point>
    </Placemark>
    <Placemark>
      <name>eiNetwork</name>
      <description><![CDATA[<b>Name:</b> South Park Township Public Library<br><b>Address:</b> , <br><b>SSID:</b> eduroam<br><b>Enc:</b> WPA2<br><b>AP:</b> 4<br>]]></description>
      <Point>
        <coordinates>-79.9958878,40.2911496,0</coordinates>
      </Point>
    </Placemark>
    <Placemark>
      <name>eiNetwork</name>
      <description><![CDATA[<b>Name:</b> Springdale Free Public Library<br><b>Address:</b> , <br><b>SSID:</b> eduroam<br><b>Enc:</b> WPA2<br><b>AP:</b> 2<br>]]></description>
      <Point>
        <coordinates>-79.7782759,40.5423915,0</coordinates>
      </Point>
    </Placemark>
    <Placemark>
      <name>eiNetwork</name>
      <description><![CDATA[<b>Name:</b> Sto-Rox Public Library<br><b>Address:</b> , <br><b>SSID:</b> eduroam<br><b>Enc:</b> WPA2<br><b>AP:</b> 2<br>]]></description>
      <Point>
        <coordinates>-80.0583164,40.464962,0</coordinates>
      </Point>
    </Placemark>
    <Placemark>
      <name>eiNetwork</name>
      <description><![CDATA[<b>Name:</b> Upper St. Clair Township Library<br><b>Address:</b> , <br><b>SSID:</b> eduroam<br><b>Enc:</b> WPA2<br><b>AP:</b> 6<br>]]></description>
      <Point>
        <coordinates>-80.0717775,40.3333671,0</coordinates>
      </Point>
    </Placemark>
    <Placemark>
      <name>eiNetwork</name>
      <description><![CDATA[<b>Name:</b> Western Allegheny Community Library<br><b>Address:</b> , <br><b>SSID:</b> eduroam<br><b>Enc:</b> WPA2<br><b>AP:</b> 7<br>]]></description>
      <Point>
        <coordinates>-80.2332641,40.4367118,0</coordinates>
      </Point>
    </Placemark>
    <Placemark>
      <name>eiNetwork</name>
      <description><![CDATA[<b>Name:</b> White Oak Branch of Carnegie Library of McKeesport<br><b>Address:</b> , <br><b>SSID:</b> eduroam<br><b>Enc:</b> WPA2<br><b>AP:</b> 2<br>]]></description>
      <Point>
        <coordinates>-79.8136159,40.3529572,0</coordinates>
      </Point>
    </Placemark>
    <Placemark>
      <name>eiNetwork</name>
      <description><![CDATA[<b>Name:</b> Whitehall Public Library<br><b>Address:</b> , <br><b>SSID:</b> eduroam<br><b>Enc:</b> WPA2<br><b>AP:</b> 5<br>]]></description>
      <Point>
        <coordinates>-79.9816664,40.3513309,0</coordinates>
      </Point>
    </Placemark>
    <Placemark>
      <name>eiNetwork</name>
      <description><![CDATA[<b>Name:</b> Wilkinsburg Public Library<br><b>Address:</b> , <br><b>SSID:</b> eduroam<br><b>Enc:</b> WPA2<br><b>AP:</b> 4<br>]]></description>
      <Point>
        <coordinates>-79.8857873,40.4433836,0</coordinates>
      </Point>
    </Placemark>
    <Placemark>
      <name>eiNetwork</name>
      <description><![CDATA[<b>Name:</b> Wilkinsburg Public Library - Eastridge<br><b>Address:</b> , <br><b>SSID:</b> eduroam<br><b>Enc:</b> WPA2<br><b>AP:</b> 2<br>]]></description>
      <Point>
        <coordinates>-79.8565861,40.4565812,0</coordinates>
      </Point>
    </Placemark>
    <Placemark>
      <name>Franklin and Marshall College</name>
      <description><![CDATA[<b>Name:</b> Franklin and Marshall College<br><b>Address:</b> , <br><b>SSID:</b> eduroam<br><b>Enc:</b> WPA2<br><b>AP:</b> 1000<br>]]></description>
      <Point>
        <coordinates>-76.320418,40.0472205,0</coordinates>
      </Point>
    </Placemark>
    <Placemark>
      <name>Gettysburg College</name>
      <description><![CDATA[<b>Name:</b> West Building 209A<br><b>Address:</b> , <br><b>SSID:</b> eduroam<br><b>Enc:</b> WPA2<br><b>AP:</b> 1<br>]]></description>
      <Point>
        <coordinates>-77.240322,39.8381006,0</coordinates>
      </Point>
    </Placemark>
    <Placemark>
      <name>GLOBEX Industries, LLC</name>
      <description><![CDATA[<b>Name:</b> GLOBEX Industries<br><b>Address:</b> , <br><b>SSID:</b> eduroam<br><b>Enc:</b> WPA2<br><b>AP:</b> 5<br>]]></description>
      <Point>
        <coordinates>-75.1115262,40.2881482,0</coordinates>
      </Point>
    </Placemark>
    <Placemark>
      <name>Haverford College</name>
      <description><![CDATA[<b>Name:</b> Main Campus<br><b>Address:</b> , <br><b>SSID:</b> eduroam<br><b>Enc:</b> WPA2+WPA<br><b>AP:</b> -<br>]]></description>
      <Point>
        <coordinates>-75.2989384,40.0115626,0</coordinates>
      </Point>
    </Placemark>
    <Placemark>
      <name>Indiana University of Pennsylvania</name>
      <description><![CDATA[<b>Name:</b> Indiana University of PA Main Campus<br><b>Address:</b> , <br><b>SSID:</b> eduroam<br><b>Enc:</b> WPA2+WPA<br><b>AP:</b> 2300<br>]]></description>
      <Point>
        <coordinates>-79.1614723,40.6140828,0</coordinates>
      </Point>
    </Placemark>
    <Placemark>
      <name>KeystoneREN</name>
      <description><![CDATA[<b>Name:</b> KeystoneREN-HQ<br><b>Address:</b> , <br><b>SSID:</b> eduroam<br><b>Enc:</b> WPA2 + WPA3<br><b>AP:</b> 2<br>]]></description>
      <Point>
        <coordinates>-76.3107994,40.1611199,0</coordinates>
      </Point>
    </Placemark>
    <Placemark>
      <name>La Salle University</name>
      <description><![CDATA[<b>Name:</b> La Salle University<br><b>Address:</b> , <br><b>SSID:</b> eduroam<br><b>Enc:</b> WPA2<br><b>AP:</b> 950<br>]]></description>
      <Point>
        <coordinates>-75.1535381,40.0391519,0</coordinates>
      </Point>
    </Placemark>
    <Placemark>
      <name>Lafayette College</name>
      <description><![CDATA[<b>Name:</b> Lafayette College<br><b>Address:</b> , <br><b>SSID:</b> eduroam<br><b>Enc:</b> WPA2+WPA<br><b>AP:</b> 1157<br>]]></description>
      <Point>
        <coordinates>-75.2079364,40.7003093,0</coordinates>
      </Point>
    </Placemark>
    <Placemark>
      <name>Lafayette College</name>
      <description><![CDATA[<b>Name:</b> Metzgar Fields Athletic Complex<br><b>Address:</b> , <br><b>SSID:</b> eduroam<br><b>Enc:</b> WPA2+WPA<br><b>AP:</b> 30<br>]]></description>
      <Point>
        <coordinates>-75.2384259,40.7360115,0</coordinates>
      </Point>
    </Placemark>
    <Placemark>
      <name>Lancaster Bible College</name>
      <description><![CDATA[<b>Name:</b> Lancaster Bible College<br><b>Address:</b> , <br><b>SSID:</b> eduroam<br><b>Enc:</b> WPA2<br><b>AP:</b> 170<br>]]></description>
      <Point>
        <coordinates>-76.2881167,40.0736288,0</coordinates>
      </Point>
    </Placemark>
    <Placemark>
      <name>Lehigh Carbon Community College</name>
      <description><![CDATA[<b>Name:</b> Main Campus<br><b>Address:</b> , <br><b>SSID:</b> eduroam<br><b>Enc:</b> WPA2<br><b>AP:</b> 150<br>]]></description>
      <Point>
        <coordinates>-75.612015,40.6638381,0</coordinates>
      </Point>
    </Placemark>
    <Placemark>
      <name>Lehigh University</name>
      <description><![CDATA[<b>Name:</b> Lehigh University<br><b>Address:</b> , <br><b>SSID:</b> eduroam<br><b>Enc:</b> WPA2+WPA<br><b>AP:</b> -<br>]]></description>
      <Point>
        <coordinates>-75.3783989,40.6069153,0</coordinates>
      </Point>
    </Placemark>
    <Placemark>
      <name>Millersville University</name>
      <description><![CDATA[<b>Name:</b> Millersville University of Pennsylvania<br><b>Address:</b> , <br><b>SSID:</b> eduroam<br><b>Enc:</b> WPA2<br><b>AP:</b> -<br>]]></description>
      <Point>
        <coordinates>-76.3565442,39.9976256,0</coordinates>
      </Point>
    </Placemark>
    <Placemark>
      <name>Montgomery County Community College</name>
      <description><![CDATA[<b>Name:</b> Montgomery County Community College - Central Campus<br><b>Address:</b> , <br><b>SSID:</b> eduroam<br><b>Enc:</b> WPA2<br><b>AP:</b> 325<br>]]></description>
      <Point>
        <coordinates>-75.2758527,40.1756108,0</coordinates>
      </Point>
    </Placemark>
    <Placemark>
      <name>Montgomery County Community College</name>
      <description><![CDATA[<b>Name:</b> Montgomery County Community College - Culinary Arts Institute<br><b>Address:</b> , <br><b>SSID:</b> eduroam<br><b>Enc:</b> WPA2<br><b>AP:</b> 9<br>]]></description>
      <Point>
        <coordinates>-75.338659,40.246029,0</coordinates>
      </Point>
    </Placemark>
    <Placemark>
      <name>Montgomery County Community College</name>
      <description><![CDATA[<b>Name:</b> Montgomery County Community College - West Campus<br><b>Address:</b> , <br><b>SSID:</b> eduroam<br><b>Enc:</b> WPA2<br><b>AP:</b> 125<br>]]></description>
      <Point>
        <coordinates>-75.6515717,40.2441823,0</coordinates>
      </Point>
    </Placemark>
    <Placemark>
      <name>Neumann University</name>
      <description><![CDATA[<b>Name:</b> Neumann University Main Campus<br><b>Address:</b> , <br><b>SSID:</b> eduroam<br><b>Enc:</b> WPA2+WPA<br><b>AP:</b> 400<br>]]></description>
      <Point>
        <coordinates>-75.440838,39.873933,0</coordinates>
      </Point>
    </Placemark>
    <Placemark>
      <name>Pennsylvania State University</name>
      <description><![CDATA[<b>Name:</b> Main Campus<br><b>Address:</b> , <br><b>SSID:</b> eduroam<br><b>Enc:</b> WPA2<br><b>AP:</b> 18500<br>]]></description>
      <Point>
        <coordinates>-77.856448,40.8047793,0</coordinates>
      </Point>
    </Placemark>
    <Placemark>
      <name>Philadelphia University</name>
      <description><![CDATA[<b>Name:</b> Philadelphia University - Main Campus<br><b>Address:</b> , <br><b>SSID:</b> eduroam<br><b>Enc:</b> WPA2+WPA<br><b>AP:</b> -<br>]]></description>
      <Point>
        <coordinates>-75.1920372,40.0228429,0</coordinates>
      </Point>
    </Placemark>
    <Placemark>
      <name>Robert Morris University</name>
      <description><![CDATA[<b>Name:</b> Facilities Service Center at Robert Morris University<br><b>Address:</b> , <br><b>SSID:</b> eduroam<br><b>Enc:</b> WPA2 + WPA3<br><b>AP:</b> 10<br>]]></description>
      <Point>
        <coordinates>-80.2216779,40.5218714,0</coordinates>
      </Point>
    </Placemark>
    <Placemark>
      <name>Robert Morris University</name>
      <description><![CDATA[<b>Name:</b> Robert Morris University<br><b>Address:</b> , <br><b>SSID:</b> eduroam<br><b>Enc:</b> WPA2 + WPA3<br><b>AP:</b> 1250<br>]]></description>
      <Point>
        <coordinates>-80.2127179,40.5213461,0</coordinates>
      </Point>
    </Placemark>
    <Placemark>
      <name>Robert Morris University</name>
      <description><![CDATA[<b>Name:</b> Robert Morris University Island Sports Center<br><b>Address:</b> , <br><b>SSID:</b> eduroam<br><b>Enc:</b> WPA2 + WPA3<br><b>AP:</b> 30<br>]]></description>
      <Point>
        <coordinates>-80.1519294,40.5185695,0</coordinates>
      </Point>
    </Placemark>
    <Placemark>
      <name>Robert Morris University</name>
      <description><![CDATA[<b>Name:</b> Yorktown Hall at Robert Morris University<br><b>Address:</b> , <br><b>SSID:</b> eduroam<br><b>Enc:</b> WPA2 + WPA3<br><b>AP:</b> 170<br>]]></description>
      <Point>
        <coordinates>-80.2250999,40.5104893,0</coordinates>
      </Point>
    </Placemark>
    <Placemark>
      <name>Saint Joseph's University</name>
      <description><![CDATA[<b>Name:</b> Saint Joseph's University<br><b>Address:</b> , <br><b>SSID:</b> eduroam<br><b>Enc:</b> WPA2<br><b>AP:</b> 960<br>]]></description>
      <Point>
        <coordinates>-75.2384129,39.9943837,0</coordinates>
      </Point>
    </Placemark>
    <Placemark>
      <name>Susquehanna University</name>
      <description><![CDATA[<b>Name:</b> Susquehanna University<br><b>Address:</b> , <br><b>SSID:</b> eduroam<br><b>Enc:</b> WPA2<br><b>AP:</b> 700<br>]]></description>
      <Point>
        <coordinates>-76.8704066,40.7997758,0</coordinates>
      </Point>
    </Placemark>
    <Placemark>
      <name>Swarthmore College</name>
      <description><![CDATA[<b>Name:</b> Main Campus<br><b>Address:</b> , <br><b>SSID:</b> eduroam<br><b>Enc:</b> WPA2+WPA<br><b>AP:</b> -<br>]]></description>
      <Point>
        <coordinates>-75.3513749,39.9044829,0</coordinates>
      </Point>
    </Placemark>
    <Placemark>
      <name>Temple University</name>
      <description><![CDATA[<b>Name:</b> Temple University Ambler Campus<br><b>Address:</b> , <br><b>SSID:</b> eduroam<br><b>Enc:</b> WPA2 + WPA3<br><b>AP:</b> 134<br>]]></description>
      <Point>
        <coordinates>-75.1922343,40.1659174,0</coordinates>
      </Point>
    </Placemark>
    <Placemark>
      <name>Temple University</name>
      <description><![CDATA[<b>Name:</b> Temple University Center City Campus (TUCC)<br><b>Address:</b> , <br><b>SSID:</b> eduroam<br><b>Enc:</b> WPA2 + WPA3<br><b>AP:</b> 100<br>]]></description>
      <Point>
        <coordinates>-75.166205,39.9529792,0</coordinates>
      </Point>
    </Placemark>
    <Placemark>
      <name>Temple University</name>
      <description><![CDATA[<b>Name:</b> Temple University Harrisburg<br><b>Address:</b> , <br><b>SSID:</b> eduroam<br><b>Enc:</b> WPA2 + WPA3<br><b>AP:</b> 15<br>]]></description>
      <Point>
        <coordinates>-76.8809492,40.2624477,0</coordinates>
      </Point>
    </Placemark>
    <Placemark>
      <name>Temple University</name>
      <description><![CDATA[<b>Name:</b> Temple University Health Science Center (TUH)<br><b>Address:</b> , <br><b>SSID:</b> eduroam<br><b>Enc:</b> WPA2 + WPA3<br><b>AP:</b> 840<br>]]></description>
      <Point>
        <coordinates>-75.1527526,40.0044523,0</coordinates>
      </Point>
    </Placemark>
    <Placemark>
      <name>Temple University</name>
      <description><![CDATA[<b>Name:</b> Temple University Main Campus<br><b>Address:</b> , <br><b>SSID:</b> eduroam<br><b>Enc:</b> WPA2 + WPA3<br><b>AP:</b> 5374<br>]]></description>
      <Point>
        <coordinates>-75.1544013,39.981866,0</coordinates>
      </Point>
    </Placemark>
    <Placemark>
      <name>Temple University</name>
      <description><![CDATA[<b>Name:</b> Temple University School of Podiatric Medicine (TUSPM)<br><b>Address:</b> , <br><b>SSID:</b> eduroam<br><b>Enc:</b> WPA2 + WPA3<br><b>AP:</b> 100<br>]]></description>
      <Point>
        <coordinates>-75.1535609,39.9548081,0</coordinates>
      </Point>
    </Placemark>
    <Placemark>
      <name>Thomas Jefferson University Hospital</name>
      <description><![CDATA[<b>Name:</b> Thomas Jefferson University<br><b>Address:</b> , <br><b>SSID:</b> eduroam<br><b>Enc:</b> WPA2<br><b>AP:</b> 5000<br>]]></description>
      <Point>
        <coordinates>-75.1582775,39.9482624,0</coordinates>
      </Point>
    </Placemark>
    <Placemark>
      <name>University of Pennsylvania</name>
      <description><![CDATA[<b>Name:</b> Main Campus<br><b>Address:</b> , <br><b>SSID:</b> eduroam<br><b>Enc:</b> WPA2+WPA<br><b>AP:</b> 9500<br>]]></description>
      <Point>
        <coordinates>-75.1922872,39.9529913,0</coordinates>
      </Point>
    </Placemark>
    <Placemark>
      <name>University of Pittsburgh-Pittsburgh Campus</name>
      <description><![CDATA[<b>Name:</b> Main Campus<br><b>Address:</b> , <br><b>SSID:</b> eduroam<br><b>Enc:</b> WPA2+WPA<br><b>AP:</b> 5000<br>]]></description>
      <Point>
        <coordinates>-79.960835,40.4443533,0</coordinates>
      </Point>
    </Placemark>
    <Placemark>
      <name>University of Scranton</name>
      <description><![CDATA[<b>Name:</b> University of Scranton<br><b>Address:</b> , <br><b>SSID:</b> eduroam<br><b>Enc:</b> WPA2+WPA<br><b>AP:</b> 1000<br>]]></description>
      <Point>
        <coordinates>-75.6587919,41.4067597,0</coordinates>
      </Point>
    </Placemark>
    <Placemark>
      <name>UPMC</name>
      <description><![CDATA[<b>Name:</b> UPMC Presbyterian Hospital<br><b>Address:</b> , <br><b>SSID:</b> eduroam<br><b>Enc:</b> WPA2<br><b>AP:</b> 1300<br>]]></description>
      <Point>
        <coordinates>-79.9609803,40.4425616,0</coordinates>
      </Point>
    </Placemark>
    <Placemark>
      <name>Villanova University</name>
      <description><![CDATA[<b>Name:</b> Villanova University<br><b>Address:</b> , <br><b>SSID:</b> eduroam<br><b>Enc:</b> WPA2<br><b>AP:</b> -<br>]]></description>
      <Point>
        <coordinates>-75.3426159,40.0379514,0</coordinates>
      </Point>
    </Placemark>
    <Placemark>
      <name>Washington &amp; Jefferson College</name>
      <description><![CDATA[<b>Name:</b> Washington &amp; Jefferson College<br><b>Address:</b> , <br><b>SSID:</b> eduroam<br><b>Enc:</b> WPA3+WPA2+WPA<br><b>AP:</b> -<br>]]></description>
      <Point>
        <coordinates>-80.240583,40.1705192,0</coordinates>
      </Point>
    </Placemark>
    <Placemark>
      <name>West Chester University of PA</name>
      <description><![CDATA[<b>Name:</b> West Chester University<br><b>Address:</b> , <br><b>SSID:</b> eduroam<br><b>Enc:</b> WPA2<br><b>AP:</b> 4000<br>]]></description>
      <Point>
        <coordinates>-75.5983935,39.9533579,0</coordinates>
      </Point>
    </Placemark>
    <Placemark>
      <name>West Chester University of PA</name>
      <description><![CDATA[<b>Name:</b> West Chester University - Graduate Center<br><b>Address:</b> , <br><b>SSID:</b> eduroam<br><b>Enc:</b> WPA2<br><b>AP:</b> 49<br>]]></description>
      <Point>
        <coordinates>-75.5892082,39.9974636,0</coordinates>
      </Point>
    </Placemark>
    <Placemark>
      <name>West Chester University of PA</name>
      <description><![CDATA[<b>Name:</b> West Chester University - Nursing Center<br><b>Address:</b> , <br><b>SSID:</b> eduroam<br><b>Enc:</b> WPA2<br><b>AP:</b> 12<br>]]></description>
      <Point>
        <coordinates>-75.598115,40.030755,0</coordinates>
      </Point>
    </Placemark>
    <Placemark>
      <name>Widener University</name>
      <description><![CDATA[<b>Name:</b> Commonwealth Law School<br><b>Address:</b> , <br><b>SSID:</b> eduroam<br><b>Enc:</b> WPA2+WPA<br><b>AP:</b> -<br>]]></description>
      <Point>
        <coordinates>-76.8545287,40.3242007,0</coordinates>
      </Point>
    </Placemark>
    <Placemark>
      <name>Widener University</name>
      <description><![CDATA[<b>Name:</b> Widener University<br><b>Address:</b> , <br><b>SSID:</b> eduroam<br><b>Enc:</b> WPA2+WPA<br><b>AP:</b> -<br>]]></description>
      <Point>
        <coordinates>-75.3553828,39.8616601,0</coordinates>
      </Point>
    </Placemark>
    <Placemark>
      <name>Wistar Institute</name>
      <description><![CDATA[<b>Name:</b> Main Campus<br><b>Address:</b> , <br><b>SSID:</b> eduroam<br><b>Enc:</b> WPA2+WPA<br><b>AP:</b> 60<br>]]></description>
      <Point>
        <coordinates>-75.1960576,39.9512519,0</coordinates>
      </Point>
    </Placemark>
    <Placemark>
      <name>Wistar Institute</name>
      <description><![CDATA[<b>Name:</b> Wistar North<br><b>Address:</b> , <br><b>SSID:</b> eduroam<br><b>Enc:</b> WPA2<br><b>AP:</b> 15<br>]]></description>
      <Point>
        <coordinates>-75.1951199,39.9566741,0</coordinates>
      </Point>
    </Placemark>
    <Placemark>
      <name>York College of Pennsylvania</name>
      <description><![CDATA[<b>Name:</b> Center for Community Engagement<br><b>Address:</b> , <br><b>SSID:</b> eduroam<br><b>Enc:</b> WPA2<br><b>AP:</b> 12<br>]]></description>
      <Point>
        <coordinates>-76.7260991,39.9633252,0</coordinates>
      </Point>
    </Placemark>
    <Placemark>
      <name>York College of Pennsylvania</name>
      <description><![CDATA[<b>Name:</b> Marketview Arts<br><b>Address:</b> , <br><b>SSID:</b> eduroam<br><b>Enc:</b> WPA2<br><b>AP:</b> 14<br>]]></description>
      <Point>
        <coordinates>-76.7297968,39.9638729,0</coordinates>
      </Point>
    </Placemark>
    <Placemark>
      <name>York College of Pennsylvania</name>
      <description><![CDATA[<b>Name:</b> York College of Pennsylvania<br><b>Address:</b> , <br><b>SSID:</b> eduroam<br><b>Enc:</b> WPA2+WPA<br><b>AP:</b> 1450<br>]]></description>
      <Point>
        <coordinates>-76.7292807,39.9453909,0</coordinates>
      </Point>
    </Placemark>
    <Placemark>
      <name>York College of Pennsylvania</name>
      <description><![CDATA[<b>Name:</b> York Country Day School<br><b>Address:</b> , <br><b>SSID:</b> eduroam<br><b>Enc:</b> WPA2+WPA<br><b>AP:</b> 60<br>]]></description>
      <Point>
        <coordinates>-76.7426903,39.9405904,0</coordinates>
      </Point>
    </Placemark>
  </Document>
</kml>
