<?xml version="1.0" encoding="UTF-8"?>
<kml xmlns="http://www.opengis.net/kml/2.2">
  <Document>
    <name>eduroam — Indiana</name>
    <description><![CDATA[38 eduroam service locations in Indiana.<br><br>Published by <a href="https://scs.nevada.edu/eduroam">NSHE System Computing Services</a>. Learn more about eduroam Support Organizations from <a href="https://incommon.org/eduroam">Internet2</a>, the eduroam National Roaming Operator for the United States.<br>These maps are derived from data published by GÉANT (<a href="https://monitor.eduroam.org/kml/us.kml">monitor.eduroam.org</a>). This is not an official GÉANT or eduroam publication.<br>eduroam is a registered trademark of the GÉANT Association.<br>Region boundaries are derived from US Census Bureau cartographic boundary files, which as works of the US federal government are in the public domain.<br>Maps generated by eduroam-us-regional-maps, which is BSD 3-Clause licensed.]]></description>
    <open>1</open>
    <Placemark>
      <name>Ball State University</name>
      <description><![CDATA[<b>Name:</b> Main Campus<br><b>Address:</b> , <br><b>SSID:</b> eduroam<br><b>Enc:</b> WPA2+WPA<br><b>AP:</b> -<br>]]></description>
      <Point>
        <coordinates>-85.4088412,40.1972321,0</coordinates>
      </Point>
    </Placemark>
    <Placemark>
      <name>Butler University</name>
      <description><![CDATA[<b>Name:</b> Butler University<br><b>Address:</b> , <br><b>SSID:</b> eduroam<br><b>Enc:</b> WPA3+WPA2+WPA<br><b>AP:</b> 1500<br>]]></description>
      <Point>
        <coordinates>-86.1725669,39.8388177,0</coordinates>
      </Point>
    </Placemark>
    <Placemark>
      <name>Department of Veterans Affairs</name>
      <description><![CDATA[<b>Name:</b> Adam Benjamin CBOC<br><b>Address:</b> , <br><b>SSID:</b> eduroam<br><b>Enc:</b> WPA2<br><b>AP:</b> -<br>]]></description>
      <Point>
        <coordinates>-87.3385281,41.4485779,0</coordinates>
      </Point>
    </Placemark>
    <Placemark>
      <name>DePauw University</name>
      <description><![CDATA[<b>Name:</b> DePauw University<br><b>Address:</b> , <br><b>SSID:</b> eduroam<br><b>Enc:</b> WPA2+WPA<br><b>AP:</b> 1011<br>]]></description>
      <Point>
        <coordinates>-86.8603269,39.6408691,0</coordinates>
      </Point>
    </Placemark>
    <Placemark>
      <name>Earlham College</name>
      <description><![CDATA[<b>Name:</b> Earlham College<br><b>Address:</b> , <br><b>SSID:</b> eduroam<br><b>Enc:</b> WPA2+WPA<br><b>AP:</b> 675<br>]]></description>
      <Point>
        <coordinates>-84.9130348,39.8214264,0</coordinates>
      </Point>
    </Placemark>
    <Placemark>
      <name>Eskenazi Health</name>
      <description><![CDATA[<b>Name:</b> Eskenazi Health<br><b>Address:</b> , <br><b>SSID:</b> eduroam<br><b>Enc:</b> WPA3+WPA2+WPA<br><b>AP:</b> 713<br>]]></description>
      <Point>
        <coordinates>-86.1841027,39.7773496,0</coordinates>
      </Point>
    </Placemark>
    <Placemark>
      <name>Goshen College</name>
      <description><![CDATA[<b>Name:</b> Goshen College Main Campus<br><b>Address:</b> , <br><b>SSID:</b> eduroam<br><b>Enc:</b> WPA2<br><b>AP:</b> 400<br>]]></description>
      <Point>
        <coordinates>-85.8279725,41.5637723,0</coordinates>
      </Point>
    </Placemark>
    <Placemark>
      <name>Hanover College</name>
      <description><![CDATA[<b>Name:</b> Hanover College<br><b>Address:</b> , <br><b>SSID:</b> eduroam<br><b>Enc:</b> WPA3+WPA2+WPA<br><b>AP:</b> 560<br>]]></description>
      <Point>
        <coordinates>-85.4602351,38.7137524,0</coordinates>
      </Point>
    </Placemark>
    <Placemark>
      <name>Indiana State University</name>
      <description><![CDATA[<b>Name:</b> Bob Warn Field<br><b>Address:</b> , <br><b>SSID:</b> eduroam<br><b>Enc:</b> WPA2<br><b>AP:</b> 7<br>]]></description>
      <Point>
        <coordinates>-87.4162058,39.4784618,0</coordinates>
      </Point>
    </Placemark>
    <Placemark>
      <name>Indiana State University</name>
      <description><![CDATA[<b>Name:</b> Hulman Field ISU Flight Academy<br><b>Address:</b> , <br><b>SSID:</b> eduroam<br><b>Enc:</b> WPA2<br><b>AP:</b> 12<br>]]></description>
      <Point>
        <coordinates>-87.3024169,39.4599199,0</coordinates>
      </Point>
    </Placemark>
    <Placemark>
      <name>Indiana State University</name>
      <description><![CDATA[<b>Name:</b> Landsbaum Center for Health Education<br><b>Address:</b> , <br><b>SSID:</b> eduroam<br><b>Enc:</b> WPA2<br><b>AP:</b> 23<br>]]></description>
      <Point>
        <coordinates>-87.4086977,39.4834339,0</coordinates>
      </Point>
    </Placemark>
    <Placemark>
      <name>Indiana State University</name>
      <description><![CDATA[<b>Name:</b> Main Campus<br><b>Address:</b> , <br><b>SSID:</b> eduroam<br><b>Enc:</b> WPA2<br><b>AP:</b> 3223<br>]]></description>
      <Point>
        <coordinates>-87.4083759,39.4714425,0</coordinates>
      </Point>
    </Placemark>
    <Placemark>
      <name>Indiana State University</name>
      <description><![CDATA[<b>Name:</b> Memorial Stadium<br><b>Address:</b> , <br><b>SSID:</b> eduroam<br><b>Enc:</b> WPA2<br><b>AP:</b> 21<br>]]></description>
      <Point>
        <coordinates>-87.3669626,39.4748215,0</coordinates>
      </Point>
    </Placemark>
    <Placemark>
      <name>Indiana State University</name>
      <description><![CDATA[<b>Name:</b> Track and Athletic Annex<br><b>Address:</b> , <br><b>SSID:</b> eduroam<br><b>Enc:</b> WPA2<br><b>AP:</b> 12<br>]]></description>
      <Point>
        <coordinates>-87.4174175,39.4689471,0</coordinates>
      </Point>
    </Placemark>
    <Placemark>
      <name>Indiana State University</name>
      <description><![CDATA[<b>Name:</b> University Appartments<br><b>Address:</b> , <br><b>SSID:</b> eduroam<br><b>Enc:</b> WPA2<br><b>AP:</b> 302<br>]]></description>
      <Point>
        <coordinates>-87.4153711,39.457312,0</coordinates>
      </Point>
    </Placemark>
    <Placemark>
      <name>Indiana University</name>
      <description><![CDATA[<b>Name:</b> Indiana University-IUB (Bloomington)<br><b>Address:</b> , <br><b>SSID:</b> eduroam<br><b>Enc:</b> WPA2+WPA<br><b>AP:</b> 7688<br>]]></description>
      <Point>
        <coordinates>-86.5153983,39.1742705,0</coordinates>
      </Point>
    </Placemark>
    <Placemark>
      <name>Indiana University</name>
      <description><![CDATA[<b>Name:</b> Indiana University-IUE (Richmond)<br><b>Address:</b> , <br><b>SSID:</b> eduroam<br><b>Enc:</b> WPA2+WPA<br><b>AP:</b> 78<br>]]></description>
      <Point>
        <coordinates>-84.8822077,39.8682104,0</coordinates>
      </Point>
    </Placemark>
    <Placemark>
      <name>Indiana University</name>
      <description><![CDATA[<b>Name:</b> Indiana University-IUFW (Fort Wayne)<br><b>Address:</b> , <br><b>SSID:</b> eduroam<br><b>Enc:</b> WPA2+WPA<br><b>AP:</b> 16<br>]]></description>
      <Point>
        <coordinates>-85.1117714,41.1157605,0</coordinates>
      </Point>
    </Placemark>
    <Placemark>
      <name>Indiana University</name>
      <description><![CDATA[<b>Name:</b> Indiana University-IUK (Kokomo)<br><b>Address:</b> , <br><b>SSID:</b> eduroam<br><b>Enc:</b> WPA2+WPA<br><b>AP:</b> 181<br>]]></description>
      <Point>
        <coordinates>-86.1316461,40.4594254,0</coordinates>
      </Point>
    </Placemark>
    <Placemark>
      <name>Indiana University</name>
      <description><![CDATA[<b>Name:</b> Indiana University-IUN (Gary)<br><b>Address:</b> , <br><b>SSID:</b> eduroam<br><b>Enc:</b> WPA2+WPA<br><b>AP:</b> 332<br>]]></description>
      <Point>
        <coordinates>-87.3384359,41.5565817,0</coordinates>
      </Point>
    </Placemark>
    <Placemark>
      <name>Indiana University</name>
      <description><![CDATA[<b>Name:</b> Indiana University-IUPUC (Columbus)<br><b>Address:</b> , <br><b>SSID:</b> eduroam<br><b>Enc:</b> WPA2+WPA<br><b>AP:</b> 94<br>]]></description>
      <Point>
        <coordinates>-85.9022344,39.25333,0</coordinates>
      </Point>
    </Placemark>
    <Placemark>
      <name>Indiana University</name>
      <description><![CDATA[<b>Name:</b> Indiana University-IUPUI (Indianapolis)<br><b>Address:</b> , <br><b>SSID:</b> eduroam<br><b>Enc:</b> WPA2+WPA<br><b>AP:</b> 2400<br>]]></description>
      <Point>
        <coordinates>-86.176209,39.7738116,0</coordinates>
      </Point>
    </Placemark>
    <Placemark>
      <name>Indiana University</name>
      <description><![CDATA[<b>Name:</b> Indiana University-IUSB (South Bend)<br><b>Address:</b> , <br><b>SSID:</b> eduroam<br><b>Enc:</b> WPA2+WPA<br><b>AP:</b> 300<br>]]></description>
      <Point>
        <coordinates>-86.2220121,41.6653391,0</coordinates>
      </Point>
    </Placemark>
    <Placemark>
      <name>Indiana University</name>
      <description><![CDATA[<b>Name:</b> Indiana University-IUSE (New Albany)<br><b>Address:</b> , <br><b>SSID:</b> eduroam<br><b>Enc:</b> WPA2+WPA<br><b>AP:</b> 326<br>]]></description>
      <Point>
        <coordinates>-85.8194855,38.347053,0</coordinates>
      </Point>
    </Placemark>
    <Placemark>
      <name>Indiana University</name>
      <description><![CDATA[<b>Name:</b> Indiana University-IUSM (Evansville)<br><b>Address:</b> , <br><b>SSID:</b> eduroam<br><b>Enc:</b> WPA2+WPA<br><b>AP:</b> 83<br>]]></description>
      <Point>
        <coordinates>-87.5678147,37.9703666,0</coordinates>
      </Point>
    </Placemark>
    <Placemark>
      <name>Indiana University Health, Inc</name>
      <description><![CDATA[<b>Name:</b> Riley Childrens Hospital<br><b>Address:</b> , <br><b>SSID:</b> eduroam<br><b>Enc:</b> WPA2+WPA<br><b>AP:</b> -<br>]]></description>
      <Point>
        <coordinates>-86.1800805,39.7774285,0</coordinates>
      </Point>
    </Placemark>
    <Placemark>
      <name>Integration Partners</name>
      <description><![CDATA[<b>Name:</b> Central<br><b>Address:</b> , <br><b>SSID:</b> eduroam<br><b>Enc:</b> WPA2+WPA<br><b>AP:</b> -<br>]]></description>
      <Point>
        <coordinates>-86.0286577,39.9333912,0</coordinates>
      </Point>
    </Placemark>
    <Placemark>
      <name>Marian University</name>
      <description><![CDATA[<b>Name:</b> Marian University - Main Campus<br><b>Address:</b> , <br><b>SSID:</b> eduroam<br><b>Enc:</b> WPA2<br><b>AP:</b> 1500<br>]]></description>
      <Point>
        <coordinates>-86.2023751,39.8155414,0</coordinates>
      </Point>
    </Placemark>
    <Placemark>
      <name>Purdue University Fort Wayne</name>
      <description><![CDATA[<b>Name:</b> Main Campus<br><b>Address:</b> , <br><b>SSID:</b> eduroam<br><b>Enc:</b> WPA2+WPA<br><b>AP:</b> 1091<br>]]></description>
      <Point>
        <coordinates>-85.1073716,41.1175682,0</coordinates>
      </Point>
    </Placemark>
    <Placemark>
      <name>Purdue University Northwest</name>
      <description><![CDATA[<b>Name:</b> Purdue University Northwest - Hammond Campus<br><b>Address:</b> , <br><b>SSID:</b> eduroam<br><b>Enc:</b> WPA2+WPA<br><b>AP:</b> 530<br>]]></description>
      <Point>
        <coordinates>-87.4750581,41.5877606,0</coordinates>
      </Point>
    </Placemark>
    <Placemark>
      <name>Purdue University Northwest</name>
      <description><![CDATA[<b>Name:</b> Purdue University Northwest - Westville Campus<br><b>Address:</b> , <br><b>SSID:</b> eduroam<br><b>Enc:</b> WPA2+WPA<br><b>AP:</b> 170<br>]]></description>
      <Point>
        <coordinates>-86.8961776,41.5869079,0</coordinates>
      </Point>
    </Placemark>
    <Placemark>
      <name>Purdue University-Main Campus</name>
      <description><![CDATA[<b>Name:</b> Main Campus<br><b>Address:</b> , <br><b>SSID:</b> eduroam<br><b>Enc:</b> WPA2+WPA<br><b>AP:</b> -<br>]]></description>
      <Point>
        <coordinates>-86.9143346,40.4282945,0</coordinates>
      </Point>
    </Placemark>
    <Placemark>
      <name>Rose-Hulman Institute of Technology</name>
      <description><![CDATA[<b>Name:</b> Main Campus<br><b>Address:</b> , <br><b>SSID:</b> eduroam<br><b>Enc:</b> WPA2<br><b>AP:</b> 700<br>]]></description>
      <Point>
        <coordinates>-87.3268569,39.4836321,0</coordinates>
      </Point>
    </Placemark>
    <Placemark>
      <name>Saint Mary's College</name>
      <description><![CDATA[<b>Name:</b> Saint Mary's College<br><b>Address:</b> , <br><b>SSID:</b> eduroam<br><b>Enc:</b> WPA2<br><b>AP:</b> 1080<br>]]></description>
      <Point>
        <coordinates>-86.2572448,41.7073021,0</coordinates>
      </Point>
    </Placemark>
    <Placemark>
      <name>University of Evansville</name>
      <description><![CDATA[<b>Name:</b> University of Evansville- Main Campus<br><b>Address:</b> , <br><b>SSID:</b> eduroam<br><b>Enc:</b> WPA2+WPA<br><b>AP:</b> 500<br>]]></description>
      <Point>
        <coordinates>-87.5316173,37.971411,0</coordinates>
      </Point>
    </Placemark>
    <Placemark>
      <name>University of Notre Dame</name>
      <description><![CDATA[<b>Name:</b> Main Campus<br><b>Address:</b> , <br><b>SSID:</b> eduroam<br><b>Enc:</b> WPA2+WPA<br><b>AP:</b> 8000<br>]]></description>
      <Point>
        <coordinates>-86.2408444,41.7040352,0</coordinates>
      </Point>
    </Placemark>
    <Placemark>
      <name>University of Southern Indiana</name>
      <description><![CDATA[<b>Name:</b> Campus<br><b>Address:</b> , <br><b>SSID:</b> eduroam<br><b>Enc:</b> WPA2+WPA<br><b>AP:</b> -<br>]]></description>
      <Point>
        <coordinates>-87.6761982,37.9614351,0</coordinates>
      </Point>
    </Placemark>
    <Placemark>
      <name>Wabash College</name>
      <description><![CDATA[<b>Name:</b> Wabash College<br><b>Address:</b> , <br><b>SSID:</b> eduroam<br><b>Enc:</b> WPA2+WPA<br><b>AP:</b> 300<br>]]></description>
      <Point>
        <coordinates>-86.9065324,40.0378691,0</coordinates>
      </Point>
    </Placemark>
  </Document>
</kml>
