<?xml version="1.0" encoding="UTF-8"?>
<kml xmlns="http://www.opengis.net/kml/2.2">
  <Document>
    <name>eduroam — Wisconsin</name>
    <description><![CDATA[212 eduroam service locations in Wisconsin.<br><br>Published by <a href="https://scs.nevada.edu/eduroam">NSHE System Computing Services</a>. Learn more about eduroam Support Organizations from <a href="https://incommon.org/eduroam">Internet2</a>, the eduroam National Roaming Operator for the United States.<br>These maps are derived from data published by GÉANT (<a href="https://monitor.eduroam.org/kml/us.kml">monitor.eduroam.org</a>). This is not an official GÉANT or eduroam publication.<br>eduroam is a registered trademark of the GÉANT Association.<br>Region boundaries are derived from US Census Bureau cartographic boundary files, which as works of the US federal government are in the public domain.<br>Maps generated by eduroam-us-regional-maps, which is BSD 3-Clause licensed.]]></description>
    <open>1</open>
    <Placemark>
      <name>Altoona School District</name>
      <description><![CDATA[<b>Name:</b> Altoona Elementary School<br><b>Address:</b> , <br><b>SSID:</b> eduroam<br><b>Enc:</b> WPA2<br><b>AP:</b> 52<br>]]></description>
      <Point>
        <coordinates>-91.411425,44.7998257,0</coordinates>
      </Point>
    </Placemark>
    <Placemark>
      <name>Altoona School District</name>
      <description><![CDATA[<b>Name:</b> Altoona High School<br><b>Address:</b> , <br><b>SSID:</b> eduroam<br><b>Enc:</b> WPA2<br><b>AP:</b> 57<br>]]></description>
      <Point>
        <coordinates>-91.4418449,44.802018,0</coordinates>
      </Point>
    </Placemark>
    <Placemark>
      <name>Altoona School District</name>
      <description><![CDATA[<b>Name:</b> Altoona Middle &amp; Intermediate School<br><b>Address:</b> , <br><b>SSID:</b> eduroam<br><b>Enc:</b> WPA2<br><b>AP:</b> 90<br>]]></description>
      <Point>
        <coordinates>-91.4392406,44.8023164,0</coordinates>
      </Point>
    </Placemark>
    <Placemark>
      <name>Beloit College</name>
      <description><![CDATA[<b>Name:</b> Beloit College<br><b>Address:</b> , <br><b>SSID:</b> eduroam<br><b>Enc:</b> WPA2<br><b>AP:</b> 450<br>]]></description>
      <Point>
        <coordinates>-89.0309048,42.5030333,0</coordinates>
      </Point>
    </Placemark>
    <Placemark>
      <name>Department of Veterans Affairs</name>
      <description><![CDATA[<b>Name:</b> Appleton Annex<br><b>Address:</b> , <br><b>SSID:</b> eduroam<br><b>Enc:</b> WPA2<br><b>AP:</b> -<br>]]></description>
      <Point>
        <coordinates>-88.45196,44.28245,0</coordinates>
      </Point>
    </Placemark>
    <Placemark>
      <name>Department of Veterans Affairs</name>
      <description><![CDATA[<b>Name:</b> Appleton CBOC<br><b>Address:</b> , <br><b>SSID:</b> eduroam<br><b>Enc:</b> WPA2<br><b>AP:</b> -<br>]]></description>
      <Point>
        <coordinates>-88.4517685,44.280695,0</coordinates>
      </Point>
    </Placemark>
    <Placemark>
      <name>Department of Veterans Affairs</name>
      <description><![CDATA[<b>Name:</b> Cleveland CBOC<br><b>Address:</b> , <br><b>SSID:</b> eduroam<br><b>Enc:</b> WPA2<br><b>AP:</b> -<br>]]></description>
      <Point>
        <coordinates>-87.7519202,43.9208724,0</coordinates>
      </Point>
    </Placemark>
    <Placemark>
      <name>Department of Veterans Affairs</name>
      <description><![CDATA[<b>Name:</b> Green Bay OPC<br><b>Address:</b> , <br><b>SSID:</b> eduroam<br><b>Enc:</b> WPA2<br><b>AP:</b> -<br>]]></description>
      <Point>
        <coordinates>-87.9420383,44.5233937,0</coordinates>
      </Point>
    </Placemark>
    <Placemark>
      <name>Department of Veterans Affairs</name>
      <description><![CDATA[<b>Name:</b> Madison VAH<br><b>Address:</b> , <br><b>SSID:</b> eduroam<br><b>Enc:</b> WPA2<br><b>AP:</b> -<br>]]></description>
      <Point>
        <coordinates>-89.43107,43.07461,0</coordinates>
      </Point>
    </Placemark>
    <Placemark>
      <name>Department of Veterans Affairs</name>
      <description><![CDATA[<b>Name:</b> Milwaukee VA Medical Center<br><b>Address:</b> , <br><b>SSID:</b> eduroam<br><b>Enc:</b> WPA2<br><b>AP:</b> -<br>]]></description>
      <Point>
        <coordinates>-87.9762301,43.0210145,0</coordinates>
      </Point>
    </Placemark>
    <Placemark>
      <name>Department of Veterans Affairs</name>
      <description><![CDATA[<b>Name:</b> Oconomowoc CBOC<br><b>Address:</b> , <br><b>SSID:</b> eduroam<br><b>Enc:</b> WPA2<br><b>AP:</b> -<br>]]></description>
      <Point>
        <coordinates>-88.4737085,43.0890906,0</coordinates>
      </Point>
    </Placemark>
    <Placemark>
      <name>Department of Veterans Affairs</name>
      <description><![CDATA[<b>Name:</b> Union Grove CBOC<br><b>Address:</b> , <br><b>SSID:</b> eduroam<br><b>Enc:</b> WPA2<br><b>AP:</b> -<br>]]></description>
      <Point>
        <coordinates>-88.0782621,42.690244,0</coordinates>
      </Point>
    </Placemark>
    <Placemark>
      <name>Edgewood University</name>
      <description><![CDATA[<b>Name:</b> Edgewood University - Monroe<br><b>Address:</b> , <br><b>SSID:</b> eduroam<br><b>Enc:</b> WPA2<br><b>AP:</b> 253<br>]]></description>
      <Point>
        <coordinates>-89.4216831,43.0583007,0</coordinates>
      </Point>
    </Placemark>
    <Placemark>
      <name>Green Bay Area School District</name>
      <description><![CDATA[<b>Name:</b> DOB<br><b>Address:</b> , <br><b>SSID:</b> eduroam<br><b>Enc:</b> WPA2<br><b>AP:</b> 51<br>]]></description>
      <Point>
        <coordinates>-88.0231126,44.5149569,0</coordinates>
      </Point>
    </Placemark>
    <Placemark>
      <name>Green Bay Area School District</name>
      <description><![CDATA[<b>Name:</b> East High School<br><b>Address:</b> , <br><b>SSID:</b> eduroam<br><b>Enc:</b> WPA2<br><b>AP:</b> 133<br>]]></description>
      <Point>
        <coordinates>-87.9928804,44.5073012,0</coordinates>
      </Point>
    </Placemark>
    <Placemark>
      <name>Green Bay Area School District</name>
      <description><![CDATA[<b>Name:</b> Preble High School<br><b>Address:</b> , <br><b>SSID:</b> eduroam<br><b>Enc:</b> WPA2<br><b>AP:</b> 170<br>]]></description>
      <Point>
        <coordinates>-87.9673355,44.5002252,0</coordinates>
      </Point>
    </Placemark>
    <Placemark>
      <name>Green Bay Area School District</name>
      <description><![CDATA[<b>Name:</b> Southwest High School<br><b>Address:</b> , <br><b>SSID:</b> eduroam<br><b>Enc:</b> WPA2<br><b>AP:</b> 132<br>]]></description>
      <Point>
        <coordinates>-88.0967925,44.5196725,0</coordinates>
      </Point>
    </Placemark>
    <Placemark>
      <name>Green Bay Area School District</name>
      <description><![CDATA[<b>Name:</b> West High School<br><b>Address:</b> , <br><b>SSID:</b> eduroam<br><b>Enc:</b> WPA2<br><b>AP:</b> 118<br>]]></description>
      <Point>
        <coordinates>-88.0330916,44.5213876,0</coordinates>
      </Point>
    </Placemark>
    <Placemark>
      <name>Greendale School District</name>
      <description><![CDATA[<b>Name:</b> Greendale High School<br><b>Address:</b> , <br><b>SSID:</b> eduroam<br><b>Enc:</b> WPA2<br><b>AP:</b> 200<br>]]></description>
      <Point>
        <coordinates>-88.0002234,42.9334124,0</coordinates>
      </Point>
    </Placemark>
    <Placemark>
      <name>Greendale School District</name>
      <description><![CDATA[<b>Name:</b> GSD<br><b>Address:</b> , <br><b>SSID:</b> eduroam<br><b>Enc:</b> WPA2 + WPA3<br><b>AP:</b> 245<br>]]></description>
      <Point>
        <coordinates>-88.0002234,42.9334124,0</coordinates>
      </Point>
    </Placemark>
    <Placemark>
      <name>Kenosha County Library System</name>
      <description><![CDATA[<b>Name:</b> KPL Simmons Neighborhood Library<br><b>Address:</b> , <br><b>SSID:</b> eduroam<br><b>Enc:</b> WPA2<br><b>AP:</b> 10<br>]]></description>
      <Point>
        <coordinates>-87.8194249,42.5805462,0</coordinates>
      </Point>
    </Placemark>
    <Placemark>
      <name>Laona School District</name>
      <description><![CDATA[<b>Name:</b> Laona School District<br><b>Address:</b> , <br><b>SSID:</b> eduroam<br><b>Enc:</b> WPA2<br><b>AP:</b> 52<br>]]></description>
      <Point>
        <coordinates>-88.6687198,45.5613901,0</coordinates>
      </Point>
    </Placemark>
    <Placemark>
      <name>Madison Area Technical College</name>
      <description><![CDATA[<b>Name:</b> Madison College Commercial Ave<br><b>Address:</b> , <br><b>SSID:</b> eduroam<br><b>Enc:</b> WPA2 + WPA3<br><b>AP:</b> 30<br>]]></description>
      <Point>
        <coordinates>-89.3571809,43.1064716,0</coordinates>
      </Point>
    </Placemark>
    <Placemark>
      <name>Madison Area Technical College</name>
      <description><![CDATA[<b>Name:</b> Madison College Fort Atkinson<br><b>Address:</b> , <br><b>SSID:</b> eduroam<br><b>Enc:</b> WPA2 + WPA3<br><b>AP:</b> 30<br>]]></description>
      <Point>
        <coordinates>-88.8561516,42.9398046,0</coordinates>
      </Point>
    </Placemark>
    <Placemark>
      <name>Madison Area Technical College</name>
      <description><![CDATA[<b>Name:</b> Madison College Goodman South<br><b>Address:</b> , <br><b>SSID:</b> eduroam<br><b>Enc:</b> WPA2 + WPA3<br><b>AP:</b> 50<br>]]></description>
      <Point>
        <coordinates>-89.3953927,43.0376971,0</coordinates>
      </Point>
    </Placemark>
    <Placemark>
      <name>Madison Area Technical College</name>
      <description><![CDATA[<b>Name:</b> Madison College Portage<br><b>Address:</b> , <br><b>SSID:</b> eduroam<br><b>Enc:</b> WPA2 + WPA3<br><b>AP:</b> 30<br>]]></description>
      <Point>
        <coordinates>-89.4726231,43.5619842,0</coordinates>
      </Point>
    </Placemark>
    <Placemark>
      <name>Madison Area Technical College</name>
      <description><![CDATA[<b>Name:</b> Madison College Reedsburg<br><b>Address:</b> , <br><b>SSID:</b> eduroam<br><b>Enc:</b> WPA2 + WPA3<br><b>AP:</b> 30<br>]]></description>
      <Point>
        <coordinates>-90.0274034,43.5300433,0</coordinates>
      </Point>
    </Placemark>
    <Placemark>
      <name>Madison Area Technical College</name>
      <description><![CDATA[<b>Name:</b> Madison College Truax<br><b>Address:</b> , <br><b>SSID:</b> eduroam<br><b>Enc:</b> WPA2 + WPA3<br><b>AP:</b> 400<br>]]></description>
      <Point>
        <coordinates>-89.3296516,43.1217909,0</coordinates>
      </Point>
    </Placemark>
    <Placemark>
      <name>Madison Area Technical College</name>
      <description><![CDATA[<b>Name:</b> Madison College Watertown<br><b>Address:</b> , <br><b>SSID:</b> eduroam<br><b>Enc:</b> WPA2 + WPA3<br><b>AP:</b> 30<br>]]></description>
      <Point>
        <coordinates>-88.7546731,43.1983432,0</coordinates>
      </Point>
    </Placemark>
    <Placemark>
      <name>Madison Metropolitan School District</name>
      <description><![CDATA[<b>Name:</b> Allied Drive Community Center<br><b>Address:</b> , <br><b>SSID:</b> eduroam<br><b>Enc:</b> WPA2<br><b>AP:</b> 13<br>]]></description>
      <Point>
        <coordinates>-89.4589995,43.0292228,0</coordinates>
      </Point>
    </Placemark>
    <Placemark>
      <name>Madison Metropolitan School District</name>
      <description><![CDATA[<b>Name:</b> Anana Elementary School<br><b>Address:</b> , <br><b>SSID:</b> eduroam<br><b>Enc:</b> WPA2<br><b>AP:</b> 48<br>]]></description>
      <Point>
        <coordinates>-89.4897799,43.0404658,0</coordinates>
      </Point>
    </Placemark>
    <Placemark>
      <name>Madison Metropolitan School District</name>
      <description><![CDATA[<b>Name:</b> Badger Rock Middle School/L.M. Carey Elementary School<br><b>Address:</b> , <br><b>SSID:</b> eduroam<br><b>Enc:</b> WPA2<br><b>AP:</b> 67<br>]]></description>
      <Point>
        <coordinates>-89.3775171,43.0379241,0</coordinates>
      </Point>
    </Placemark>
    <Placemark>
      <name>Madison Metropolitan School District</name>
      <description><![CDATA[<b>Name:</b> Blackhawk Middle School/Gompers Elementary School<br><b>Address:</b> , <br><b>SSID:</b> eduroam<br><b>Enc:</b> WPA2<br><b>AP:</b> 81<br>]]></description>
      <Point>
        <coordinates>-89.369529,43.146991,0</coordinates>
      </Point>
    </Placemark>
    <Placemark>
      <name>Madison Metropolitan School District</name>
      <description><![CDATA[<b>Name:</b> Capital High School<br><b>Address:</b> , <br><b>SSID:</b> eduroam<br><b>Enc:</b> WPA2<br><b>AP:</b> 42<br>]]></description>
      <Point>
        <coordinates>-89.4393862,43.0687111,0</coordinates>
      </Point>
    </Placemark>
    <Placemark>
      <name>Madison Metropolitan School District</name>
      <description><![CDATA[<b>Name:</b> Chavez Elementary School<br><b>Address:</b> , <br><b>SSID:</b> eduroam<br><b>Enc:</b> WPA2<br><b>AP:</b> 52<br>]]></description>
      <Point>
        <coordinates>-89.5001838,43.0096126,0</coordinates>
      </Point>
    </Placemark>
    <Placemark>
      <name>Madison Metropolitan School District</name>
      <description><![CDATA[<b>Name:</b> Cherokee Middle School<br><b>Address:</b> , <br><b>SSID:</b> eduroam<br><b>Enc:</b> WPA2<br><b>AP:</b> 52<br>]]></description>
      <Point>
        <coordinates>-89.4496935,43.0409394,0</coordinates>
      </Point>
    </Placemark>
    <Placemark>
      <name>Madison Metropolitan School District</name>
      <description><![CDATA[<b>Name:</b> Crestwood Elementary School<br><b>Address:</b> , <br><b>SSID:</b> eduroam<br><b>Enc:</b> WPA2<br><b>AP:</b> 47<br>]]></description>
      <Point>
        <coordinates>-89.4818968,43.0759802,0</coordinates>
      </Point>
    </Placemark>
    <Placemark>
      <name>Madison Metropolitan School District</name>
      <description><![CDATA[<b>Name:</b> East High School<br><b>Address:</b> , <br><b>SSID:</b> eduroam<br><b>Enc:</b> WPA2<br><b>AP:</b> 203<br>]]></description>
      <Point>
        <coordinates>-89.3550011,43.0974734,0</coordinates>
      </Point>
    </Placemark>
    <Placemark>
      <name>Madison Metropolitan School District</name>
      <description><![CDATA[<b>Name:</b> Elvehjem Elementary School<br><b>Address:</b> , <br><b>SSID:</b> eduroam<br><b>Enc:</b> WPA2<br><b>AP:</b> 49<br>]]></description>
      <Point>
        <coordinates>-89.2923577,43.0784513,0</coordinates>
      </Point>
    </Placemark>
    <Placemark>
      <name>Madison Metropolitan School District</name>
      <description><![CDATA[<b>Name:</b> Emerson Elementary School<br><b>Address:</b> , <br><b>SSID:</b> eduroam<br><b>Enc:</b> WPA2<br><b>AP:</b> 43<br>]]></description>
      <Point>
        <coordinates>-89.353925,43.1008184,0</coordinates>
      </Point>
    </Placemark>
    <Placemark>
      <name>Madison Metropolitan School District</name>
      <description><![CDATA[<b>Name:</b> Franklin Elementary School<br><b>Address:</b> , <br><b>SSID:</b> eduroam<br><b>Enc:</b> WPA2<br><b>AP:</b> 38<br>]]></description>
      <Point>
        <coordinates>-89.387725,43.055647,0</coordinates>
      </Point>
    </Placemark>
    <Placemark>
      <name>Madison Metropolitan School District</name>
      <description><![CDATA[<b>Name:</b> Gillespie Middle School<br><b>Address:</b> , <br><b>SSID:</b> eduroam<br><b>Enc:</b> WPA2<br><b>AP:</b> 57<br>]]></description>
      <Point>
        <coordinates>-89.502999,43.065317,0</coordinates>
      </Point>
    </Placemark>
    <Placemark>
      <name>Madison Metropolitan School District</name>
      <description><![CDATA[<b>Name:</b> Hamilton Middle School/Van Hise Elementary School<br><b>Address:</b> , <br><b>SSID:</b> eduroam<br><b>Enc:</b> WPA2<br><b>AP:</b> 99<br>]]></description>
      <Point>
        <coordinates>-89.459449,43.0661211,0</coordinates>
      </Point>
    </Placemark>
    <Placemark>
      <name>Madison Metropolitan School District</name>
      <description><![CDATA[<b>Name:</b> Hawthorne Elementary School<br><b>Address:</b> , <br><b>SSID:</b> eduroam<br><b>Enc:</b> WPA2<br><b>AP:</b> 46<br>]]></description>
      <Point>
        <coordinates>-89.328032,43.1115654,0</coordinates>
      </Point>
    </Placemark>
    <Placemark>
      <name>Madison Metropolitan School District</name>
      <description><![CDATA[<b>Name:</b> Henderson Elementary School<br><b>Address:</b> , <br><b>SSID:</b> eduroam<br><b>Enc:</b> WPA2<br><b>AP:</b> 48<br>]]></description>
      <Point>
        <coordinates>-89.3120875,43.057823,0</coordinates>
      </Point>
    </Placemark>
    <Placemark>
      <name>Madison Metropolitan School District</name>
      <description><![CDATA[<b>Name:</b> Holtzman Learning Center<br><b>Address:</b> , <br><b>SSID:</b> eduroam<br><b>Enc:</b> WPA2<br><b>AP:</b> 21<br>]]></description>
      <Point>
        <coordinates>-89.3737136,43.0393109,0</coordinates>
      </Point>
    </Placemark>
    <Placemark>
      <name>Madison Metropolitan School District</name>
      <description><![CDATA[<b>Name:</b> Huegel Elementary School<br><b>Address:</b> , <br><b>SSID:</b> eduroam<br><b>Enc:</b> WPA2<br><b>AP:</b> 46<br>]]></description>
      <Point>
        <coordinates>-89.4879805,43.0247712,0</coordinates>
      </Point>
    </Placemark>
    <Placemark>
      <name>Madison Metropolitan School District</name>
      <description><![CDATA[<b>Name:</b> Kennedy Elementary School<br><b>Address:</b> , <br><b>SSID:</b> eduroam<br><b>Enc:</b> WPA2<br><b>AP:</b> 56<br>]]></description>
      <Point>
        <coordinates>-89.2973336,43.0942758,0</coordinates>
      </Point>
    </Placemark>
    <Placemark>
      <name>Madison Metropolitan School District</name>
      <description><![CDATA[<b>Name:</b> LaFollette High School<br><b>Address:</b> , <br><b>SSID:</b> eduroam<br><b>Enc:</b> WPA2<br><b>AP:</b> 219<br>]]></description>
      <Point>
        <coordinates>-89.319582,43.0634551,0</coordinates>
      </Point>
    </Placemark>
    <Placemark>
      <name>Madison Metropolitan School District</name>
      <description><![CDATA[<b>Name:</b> Lake View Elementary School<br><b>Address:</b> , <br><b>SSID:</b> eduroam<br><b>Enc:</b> WPA2<br><b>AP:</b> 35<br>]]></description>
      <Point>
        <coordinates>-89.361598,43.1358507,0</coordinates>
      </Point>
    </Placemark>
    <Placemark>
      <name>Madison Metropolitan School District</name>
      <description><![CDATA[<b>Name:</b> Lapham Elementary School<br><b>Address:</b> , <br><b>SSID:</b> eduroam<br><b>Enc:</b> WPA2<br><b>AP:</b> 49<br>]]></description>
      <Point>
        <coordinates>-89.3718106,43.0858176,0</coordinates>
      </Point>
    </Placemark>
    <Placemark>
      <name>Madison Metropolitan School District</name>
      <description><![CDATA[<b>Name:</b> Leopold Elementary School<br><b>Address:</b> , <br><b>SSID:</b> eduroam<br><b>Enc:</b> WPA2<br><b>AP:</b> 71<br>]]></description>
      <Point>
        <coordinates>-89.4217376,43.0272914,0</coordinates>
      </Point>
    </Placemark>
    <Placemark>
      <name>Madison Metropolitan School District</name>
      <description><![CDATA[<b>Name:</b> Lincoln Elementary School<br><b>Address:</b> , <br><b>SSID:</b> eduroam<br><b>Enc:</b> WPA2<br><b>AP:</b> 49<br>]]></description>
      <Point>
        <coordinates>-89.3979548,43.0420034,0</coordinates>
      </Point>
    </Placemark>
    <Placemark>
      <name>Madison Metropolitan School District</name>
      <description><![CDATA[<b>Name:</b> Lindbergh Elementary School<br><b>Address:</b> , <br><b>SSID:</b> eduroam<br><b>Enc:</b> WPA2<br><b>AP:</b> 27<br>]]></description>
      <Point>
        <coordinates>-89.3885225,43.1432728,0</coordinates>
      </Point>
    </Placemark>
    <Placemark>
      <name>Madison Metropolitan School District</name>
      <description><![CDATA[<b>Name:</b> Lowell Elementary School<br><b>Address:</b> , <br><b>SSID:</b> eduroam<br><b>Enc:</b> WPA2<br><b>AP:</b> 43<br>]]></description>
      <Point>
        <coordinates>-89.3411238,43.0930431,0</coordinates>
      </Point>
    </Placemark>
    <Placemark>
      <name>Madison Metropolitan School District</name>
      <description><![CDATA[<b>Name:</b> Madison Metropolitan School District Administration Building<br><b>Address:</b> , <br><b>SSID:</b> eduroam<br><b>Enc:</b> WPA2<br><b>AP:</b> 42<br>]]></description>
      <Point>
        <coordinates>-89.3950911,43.0706273,0</coordinates>
      </Point>
    </Placemark>
    <Placemark>
      <name>Madison Metropolitan School District</name>
      <description><![CDATA[<b>Name:</b> Meadowood Neighborhood Center<br><b>Address:</b> , <br><b>SSID:</b> eduroam<br><b>Enc:</b> WPA2<br><b>AP:</b> 3<br>]]></description>
      <Point>
        <coordinates>-89.4790358,43.0324826,0</coordinates>
      </Point>
    </Placemark>
    <Placemark>
      <name>Madison Metropolitan School District</name>
      <description><![CDATA[<b>Name:</b> Memorial High School<br><b>Address:</b> , <br><b>SSID:</b> eduroam<br><b>Enc:</b> WPA2<br><b>AP:</b> 231<br>]]></description>
      <Point>
        <coordinates>-89.5009678,43.063249,0</coordinates>
      </Point>
    </Placemark>
    <Placemark>
      <name>Madison Metropolitan School District</name>
      <description><![CDATA[<b>Name:</b> Mendota Elementary School<br><b>Address:</b> , <br><b>SSID:</b> eduroam<br><b>Enc:</b> WPA2<br><b>AP:</b> 42<br>]]></description>
      <Point>
        <coordinates>-89.3836361,43.1366842,0</coordinates>
      </Point>
    </Placemark>
    <Placemark>
      <name>Madison Metropolitan School District</name>
      <description><![CDATA[<b>Name:</b> Midvale Elementary School<br><b>Address:</b> , <br><b>SSID:</b> eduroam<br><b>Enc:</b> WPA2<br><b>AP:</b> 55<br>]]></description>
      <Point>
        <coordinates>-89.4499891,43.0576308,0</coordinates>
      </Point>
    </Placemark>
    <Placemark>
      <name>Madison Metropolitan School District</name>
      <description><![CDATA[<b>Name:</b> MMSD Building and Food Services<br><b>Address:</b> , <br><b>SSID:</b> eduroam<br><b>Enc:</b> WPA2<br><b>AP:</b> 13<br>]]></description>
      <Point>
        <coordinates>-89.30055,43.0615994,0</coordinates>
      </Point>
    </Placemark>
    <Placemark>
      <name>Madison Metropolitan School District</name>
      <description><![CDATA[<b>Name:</b> MMSD Restore Program<br><b>Address:</b> , <br><b>SSID:</b> eduroam<br><b>Enc:</b> WPA2<br><b>AP:</b> 2<br>]]></description>
      <Point>
        <coordinates>-89.3799523,43.0523218,0</coordinates>
      </Point>
    </Placemark>
    <Placemark>
      <name>Madison Metropolitan School District</name>
      <description><![CDATA[<b>Name:</b> MSCR Central<br><b>Address:</b> , <br><b>SSID:</b> eduroam<br><b>Enc:</b> WPA2<br><b>AP:</b> 12<br>]]></description>
      <Point>
        <coordinates>-89.380108,43.0568931,0</coordinates>
      </Point>
    </Placemark>
    <Placemark>
      <name>Madison Metropolitan School District</name>
      <description><![CDATA[<b>Name:</b> MSCR East<br><b>Address:</b> , <br><b>SSID:</b> eduroam<br><b>Enc:</b> WPA2<br><b>AP:</b> 5<br>]]></description>
      <Point>
        <coordinates>-89.3009461,43.0853025,0</coordinates>
      </Point>
    </Placemark>
    <Placemark>
      <name>Madison Metropolitan School District</name>
      <description><![CDATA[<b>Name:</b> MSCR West<br><b>Address:</b> , <br><b>SSID:</b> eduroam<br><b>Enc:</b> WPA2<br><b>AP:</b> 18<br>]]></description>
      <Point>
        <coordinates>-89.5110712,43.0541109,0</coordinates>
      </Point>
    </Placemark>
    <Placemark>
      <name>Madison Metropolitan School District</name>
      <description><![CDATA[<b>Name:</b> Muir Elementary School<br><b>Address:</b> , <br><b>SSID:</b> eduroam<br><b>Enc:</b> WPA2<br><b>AP:</b> 49<br>]]></description>
      <Point>
        <coordinates>-89.4959776,43.0673034,0</coordinates>
      </Point>
    </Placemark>
    <Placemark>
      <name>Madison Metropolitan School District</name>
      <description><![CDATA[<b>Name:</b> Nuestro Mundo<br><b>Address:</b> , <br><b>SSID:</b> eduroam<br><b>Enc:</b> WPA2<br><b>AP:</b> 63<br>]]></description>
      <Point>
        <coordinates>-89.3206198,43.0766559,0</coordinates>
      </Point>
    </Placemark>
    <Placemark>
      <name>Madison Metropolitan School District</name>
      <description><![CDATA[<b>Name:</b> O'Keefe Middle School/Marquette Elementary School<br><b>Address:</b> , <br><b>SSID:</b> eduroam<br><b>Enc:</b> WPA2<br><b>AP:</b> 99<br>]]></description>
      <Point>
        <coordinates>-89.356695,43.0864785,0</coordinates>
      </Point>
    </Placemark>
    <Placemark>
      <name>Madison Metropolitan School District</name>
      <description><![CDATA[<b>Name:</b> Olson Elementary School<br><b>Address:</b> , <br><b>SSID:</b> eduroam<br><b>Enc:</b> WPA2<br><b>AP:</b> 62<br>]]></description>
      <Point>
        <coordinates>-89.5458566,43.0431227,0</coordinates>
      </Point>
    </Placemark>
    <Placemark>
      <name>Madison Metropolitan School District</name>
      <description><![CDATA[<b>Name:</b> Randall Elementary School<br><b>Address:</b> , <br><b>SSID:</b> eduroam<br><b>Enc:</b> WPA2<br><b>AP:</b> 42<br>]]></description>
      <Point>
        <coordinates>-89.4173345,43.0682729,0</coordinates>
      </Point>
    </Placemark>
    <Placemark>
      <name>Madison Metropolitan School District</name>
      <description><![CDATA[<b>Name:</b> Sandburg Elementary School<br><b>Address:</b> , <br><b>SSID:</b> eduroam<br><b>Enc:</b> WPA2<br><b>AP:</b> 47<br>]]></description>
      <Point>
        <coordinates>-89.3125287,43.1362368,0</coordinates>
      </Point>
    </Placemark>
    <Placemark>
      <name>Madison Metropolitan School District</name>
      <description><![CDATA[<b>Name:</b> Sennett Middle School<br><b>Address:</b> , <br><b>SSID:</b> eduroam<br><b>Enc:</b> WPA2<br><b>AP:</b> 64<br>]]></description>
      <Point>
        <coordinates>-89.3213877,43.0631113,0</coordinates>
      </Point>
    </Placemark>
    <Placemark>
      <name>Madison Metropolitan School District</name>
      <description><![CDATA[<b>Name:</b> Sherman Middle School/Shabazz City High School<br><b>Address:</b> , <br><b>SSID:</b> eduroam<br><b>Enc:</b> WPA2<br><b>AP:</b> 78<br>]]></description>
      <Point>
        <coordinates>-89.3641022,43.1170805,0</coordinates>
      </Point>
    </Placemark>
    <Placemark>
      <name>Madison Metropolitan School District</name>
      <description><![CDATA[<b>Name:</b> Shorewood Elementary School<br><b>Address:</b> , <br><b>SSID:</b> eduroam<br><b>Enc:</b> WPA2<br><b>AP:</b> 39<br>]]></description>
      <Point>
        <coordinates>-89.4424516,43.0801931,0</coordinates>
      </Point>
    </Placemark>
    <Placemark>
      <name>Madison Metropolitan School District</name>
      <description><![CDATA[<b>Name:</b> Spring Harbor Middle School<br><b>Address:</b> , <br><b>SSID:</b> eduroam<br><b>Enc:</b> WPA2<br><b>AP:</b> 26<br>]]></description>
      <Point>
        <coordinates>-89.47215,43.0816981,0</coordinates>
      </Point>
    </Placemark>
    <Placemark>
      <name>Madison Metropolitan School District</name>
      <description><![CDATA[<b>Name:</b> Stephens Elementary School<br><b>Address:</b> , <br><b>SSID:</b> eduroam<br><b>Enc:</b> WPA2<br><b>AP:</b> 54<br>]]></description>
      <Point>
        <coordinates>-89.4790246,43.0658849,0</coordinates>
      </Point>
    </Placemark>
    <Placemark>
      <name>Madison Metropolitan School District</name>
      <description><![CDATA[<b>Name:</b> Thoreau Elementary School<br><b>Address:</b> , <br><b>SSID:</b> eduroam<br><b>Enc:</b> WPA2<br><b>AP:</b> 44<br>]]></description>
      <Point>
        <coordinates>-89.4423906,43.0459433,0</coordinates>
      </Point>
    </Placemark>
    <Placemark>
      <name>Madison Metropolitan School District</name>
      <description><![CDATA[<b>Name:</b> Toki Middle School/Orchard Ridge Elementary School<br><b>Address:</b> , <br><b>SSID:</b> eduroam<br><b>Enc:</b> WPA2<br><b>AP:</b> 90<br>]]></description>
      <Point>
        <coordinates>-89.4752515,43.0336226,0</coordinates>
      </Point>
    </Placemark>
    <Placemark>
      <name>Madison Metropolitan School District</name>
      <description><![CDATA[<b>Name:</b> West High School<br><b>Address:</b> , <br><b>SSID:</b> eduroam<br><b>Enc:</b> WPA2<br><b>AP:</b> 210<br>]]></description>
      <Point>
        <coordinates>-89.4266091,43.0687461,0</coordinates>
      </Point>
    </Placemark>
    <Placemark>
      <name>Madison Metropolitan School District</name>
      <description><![CDATA[<b>Name:</b> Whitehorse Middle School/Schenk Elementary School<br><b>Address:</b> , <br><b>SSID:</b> eduroam<br><b>Enc:</b> WPA2<br><b>AP:</b> 88<br>]]></description>
      <Point>
        <coordinates>-89.3234228,43.0924518,0</coordinates>
      </Point>
    </Placemark>
    <Placemark>
      <name>Madison Metropolitan School District</name>
      <description><![CDATA[<b>Name:</b> Wright Middle School<br><b>Address:</b> , <br><b>SSID:</b> eduroam<br><b>Enc:</b> WPA2<br><b>AP:</b> 30<br>]]></description>
      <Point>
        <coordinates>-89.4002813,43.0487306,0</coordinates>
      </Point>
    </Placemark>
    <Placemark>
      <name>Marquette University</name>
      <description><![CDATA[<b>Name:</b> Marquette University<br><b>Address:</b> , <br><b>SSID:</b> eduroam<br><b>Enc:</b> WPA2<br><b>AP:</b> 1800<br>]]></description>
      <Point>
        <coordinates>-87.9284221,43.0385846,0</coordinates>
      </Point>
    </Placemark>
    <Placemark>
      <name>Medical College of Wisconsin</name>
      <description><![CDATA[<b>Name:</b> Medical College of Wisconsin - Milwaukee<br><b>Address:</b> , <br><b>SSID:</b> eduroam<br><b>Enc:</b> WPA2<br><b>AP:</b> 1000<br>]]></description>
      <Point>
        <coordinates>-88.0217863,43.0435774,0</coordinates>
      </Point>
    </Placemark>
    <Placemark>
      <name>Mid-State Technical College</name>
      <description><![CDATA[<b>Name:</b> Mid-State Technical College<br><b>Address:</b> , <br><b>SSID:</b> eduroam<br><b>Enc:</b> WPA2+WPA<br><b>AP:</b> 276<br>]]></description>
      <Point>
        <coordinates>-89.783873,44.3911599,0</coordinates>
      </Point>
    </Placemark>
    <Placemark>
      <name>Northcentral Technical College</name>
      <description><![CDATA[<b>Name:</b> Northcentral Technical College - Main Campus<br><b>Address:</b> , <br><b>SSID:</b> eduroam<br><b>Enc:</b> WPA2<br><b>AP:</b> 85<br>]]></description>
      <Point>
        <coordinates>-89.6487815,44.9847163,0</coordinates>
      </Point>
    </Placemark>
    <Placemark>
      <name>Prairie Lakes Library System</name>
      <description><![CDATA[<b>Name:</b> Barrett Memorial Library<br><b>Address:</b> , <br><b>SSID:</b> eduroam<br><b>Enc:</b> WPA2 + WPA3<br><b>AP:</b> 4<br>]]></description>
      <Point>
        <coordinates>-88.5434127,42.5771956,0</coordinates>
      </Point>
    </Placemark>
    <Placemark>
      <name>Prairie Lakes Library System</name>
      <description><![CDATA[<b>Name:</b> Beloit Public Library<br><b>Address:</b> , <br><b>SSID:</b> eduroam<br><b>Enc:</b> WPA2 + WPA3<br><b>AP:</b> 42<br>]]></description>
      <Point>
        <coordinates>-89.0313191,42.5195279,0</coordinates>
      </Point>
    </Placemark>
    <Placemark>
      <name>Prairie Lakes Library System</name>
      <description><![CDATA[<b>Name:</b> Brigham Memorial Library<br><b>Address:</b> , <br><b>SSID:</b> eduroam<br><b>Enc:</b> WPA2 + WPA3<br><b>AP:</b> 1<br>]]></description>
      <Point>
        <coordinates>-88.7304001,42.5028212,0</coordinates>
      </Point>
    </Placemark>
    <Placemark>
      <name>Prairie Lakes Library System</name>
      <description><![CDATA[<b>Name:</b> Burlington Public Library<br><b>Address:</b> , <br><b>SSID:</b> eduroam<br><b>Enc:</b> WPA2 + WPA3<br><b>AP:</b> 6<br>]]></description>
      <Point>
        <coordinates>-88.2760744,42.6786426,0</coordinates>
      </Point>
    </Placemark>
    <Placemark>
      <name>Prairie Lakes Library System</name>
      <description><![CDATA[<b>Name:</b> Clinton Public Library<br><b>Address:</b> , <br><b>SSID:</b> eduroam<br><b>Enc:</b> WPA2 + WPA3<br><b>AP:</b> 4<br>]]></description>
      <Point>
        <coordinates>-88.8618245,42.5551471,0</coordinates>
      </Point>
    </Placemark>
    <Placemark>
      <name>Prairie Lakes Library System</name>
      <description><![CDATA[<b>Name:</b> Darien Public Library<br><b>Address:</b> , <br><b>SSID:</b> eduroam<br><b>Enc:</b> WPA2 + WPA3<br><b>AP:</b> 2<br>]]></description>
      <Point>
        <coordinates>-88.7064587,42.5986659,0</coordinates>
      </Point>
    </Placemark>
    <Placemark>
      <name>Prairie Lakes Library System</name>
      <description><![CDATA[<b>Name:</b> Delavan Public Library<br><b>Address:</b> , <br><b>SSID:</b> eduroam<br><b>Enc:</b> WPA2 + WPA3<br><b>AP:</b> 2<br>]]></description>
      <Point>
        <coordinates>-88.6433913,42.6326621,0</coordinates>
      </Point>
    </Placemark>
    <Placemark>
      <name>Prairie Lakes Library System</name>
      <description><![CDATA[<b>Name:</b> Eager Free Public Library<br><b>Address:</b> , <br><b>SSID:</b> eduroam<br><b>Enc:</b> WPA2 + WPA3<br><b>AP:</b> 2<br>]]></description>
      <Point>
        <coordinates>-89.300932,42.7799959,0</coordinates>
      </Point>
    </Placemark>
    <Placemark>
      <name>Prairie Lakes Library System</name>
      <description><![CDATA[<b>Name:</b> East Troy Lions Public Library<br><b>Address:</b> , <br><b>SSID:</b> eduroam<br><b>Enc:</b> WPA2 + WPA3<br><b>AP:</b> 2<br>]]></description>
      <Point>
        <coordinates>-88.4154257,42.786687,0</coordinates>
      </Point>
    </Placemark>
    <Placemark>
      <name>Prairie Lakes Library System</name>
      <description><![CDATA[<b>Name:</b> Edgerton Public Library<br><b>Address:</b> , <br><b>SSID:</b> eduroam<br><b>Enc:</b> WPA2 + WPA3<br><b>AP:</b> 4<br>]]></description>
      <Point>
        <coordinates>-89.0715612,42.8364421,0</coordinates>
      </Point>
    </Placemark>
    <Placemark>
      <name>Prairie Lakes Library System</name>
      <description><![CDATA[<b>Name:</b> Fontana Public Library<br><b>Address:</b> , <br><b>SSID:</b> eduroam<br><b>Enc:</b> WPA2 + WPA3<br><b>AP:</b> 3<br>]]></description>
      <Point>
        <coordinates>-88.578268,42.550757,0</coordinates>
      </Point>
    </Placemark>
    <Placemark>
      <name>Prairie Lakes Library System</name>
      <description><![CDATA[<b>Name:</b> Genoa City Public Library<br><b>Address:</b> , <br><b>SSID:</b> eduroam<br><b>Enc:</b> WPA2 + WPA3<br><b>AP:</b> 2<br>]]></description>
      <Point>
        <coordinates>-88.3295475,42.4967223,0</coordinates>
      </Point>
    </Placemark>
    <Placemark>
      <name>Prairie Lakes Library System</name>
      <description><![CDATA[<b>Name:</b> Graham Public Library<br><b>Address:</b> , <br><b>SSID:</b> eduroam<br><b>Enc:</b> WPA2 + WPA3<br><b>AP:</b> 1<br>]]></description>
      <Point>
        <coordinates>-88.0513455,42.6848178,0</coordinates>
      </Point>
    </Placemark>
    <Placemark>
      <name>Prairie Lakes Library System</name>
      <description><![CDATA[<b>Name:</b> Hedberg Public Library<br><b>Address:</b> , <br><b>SSID:</b> eduroam<br><b>Enc:</b> WPA2 + WPA3<br><b>AP:</b> 8<br>]]></description>
      <Point>
        <coordinates>-89.0191709,42.6794438,0</coordinates>
      </Point>
    </Placemark>
    <Placemark>
      <name>Prairie Lakes Library System</name>
      <description><![CDATA[<b>Name:</b> Lake Geneva Public Library<br><b>Address:</b> , <br><b>SSID:</b> eduroam<br><b>Enc:</b> WPA2 + WPA3<br><b>AP:</b> 6<br>]]></description>
      <Point>
        <coordinates>-88.4378795,42.5914852,0</coordinates>
      </Point>
    </Placemark>
    <Placemark>
      <name>Prairie Lakes Library System</name>
      <description><![CDATA[<b>Name:</b> Matheson Memorial Library<br><b>Address:</b> , <br><b>SSID:</b> eduroam<br><b>Enc:</b> WPA2 + WPA3<br><b>AP:</b> 6<br>]]></description>
      <Point>
        <coordinates>-88.5431494,42.6738586,0</coordinates>
      </Point>
    </Placemark>
    <Placemark>
      <name>Prairie Lakes Library System</name>
      <description><![CDATA[<b>Name:</b> Milton Public Library<br><b>Address:</b> , <br><b>SSID:</b> eduroam<br><b>Enc:</b> WPA2 + WPA3<br><b>AP:</b> 5<br>]]></description>
      <Point>
        <coordinates>-88.9440359,42.773496,0</coordinates>
      </Point>
    </Placemark>
    <Placemark>
      <name>Prairie Lakes Library System</name>
      <description><![CDATA[<b>Name:</b> Orfordville Public Library<br><b>Address:</b> , <br><b>SSID:</b> eduroam<br><b>Enc:</b> WPA2 + WPA3<br><b>AP:</b> 2<br>]]></description>
      <Point>
        <coordinates>-89.2491584,42.6249036,0</coordinates>
      </Point>
    </Placemark>
    <Placemark>
      <name>Prairie Lakes Library System</name>
      <description><![CDATA[<b>Name:</b> Racine Public Library<br><b>Address:</b> , <br><b>SSID:</b> eduroam<br><b>Enc:</b> WPA2 + WPA3<br><b>AP:</b> 16<br>]]></description>
      <Point>
        <coordinates>-87.7794034,42.7246928,0</coordinates>
      </Point>
    </Placemark>
    <Placemark>
      <name>Prairie Lakes Library System</name>
      <description><![CDATA[<b>Name:</b> Rochester Public Library<br><b>Address:</b> , <br><b>SSID:</b> eduroam<br><b>Enc:</b> WPA2 + WPA3<br><b>AP:</b> 2<br>]]></description>
      <Point>
        <coordinates>-88.2266578,42.742701,0</coordinates>
      </Point>
    </Placemark>
    <Placemark>
      <name>Prairie Lakes Library System</name>
      <description><![CDATA[<b>Name:</b> Walworth Memorial Library<br><b>Address:</b> , <br><b>SSID:</b> eduroam<br><b>Enc:</b> WPA2 + WPA3<br><b>AP:</b> 2<br>]]></description>
      <Point>
        <coordinates>-88.5905548,42.5301353,0</coordinates>
      </Point>
    </Placemark>
    <Placemark>
      <name>Prairie Lakes Library System</name>
      <description><![CDATA[<b>Name:</b> Waterford Public Library<br><b>Address:</b> , <br><b>SSID:</b> eduroam<br><b>Enc:</b> WPA2 + WPA3<br><b>AP:</b> 2<br>]]></description>
      <Point>
        <coordinates>-88.2137976,42.7634072,0</coordinates>
      </Point>
    </Placemark>
    <Placemark>
      <name>Randall-Shafer</name>
      <description><![CDATA[<b>Name:</b> Randall-Shafer Labs<br><b>Address:</b> , <br><b>SSID:</b> eduroam<br><b>Enc:</b> WPA2<br><b>AP:</b> 4<br>]]></description>
      <Point>
        <coordinates>-89.370508,43.010455,0</coordinates>
      </Point>
    </Placemark>
    <Placemark>
      <name>Ripon School District</name>
      <description><![CDATA[<b>Name:</b> HS/MS Building<br><b>Address:</b> , <br><b>SSID:</b> eduroam<br><b>Enc:</b> WPA2<br><b>AP:</b> 89<br>]]></description>
      <Point>
        <coordinates>-88.8332027,43.8366043,0</coordinates>
      </Point>
    </Placemark>
    <Placemark>
      <name>School District of New Berlin</name>
      <description><![CDATA[<b>Name:</b> Eisenhower Middle-High School<br><b>Address:</b> , <br><b>SSID:</b> eduroam<br><b>Enc:</b> WPA2<br><b>AP:</b> 137<br>]]></description>
      <Point>
        <coordinates>-88.0943503,42.9654078,0</coordinates>
      </Point>
    </Placemark>
    <Placemark>
      <name>School District of New Berlin</name>
      <description><![CDATA[<b>Name:</b> Elmwood Elementary School<br><b>Address:</b> , <br><b>SSID:</b> eduroam<br><b>Enc:</b> WPA2<br><b>AP:</b> 47<br>]]></description>
      <Point>
        <coordinates>-88.0878432,42.9353476,0</coordinates>
      </Point>
    </Placemark>
    <Placemark>
      <name>School District of New Berlin</name>
      <description><![CDATA[<b>Name:</b> New Berlin West Middle &amp; High School<br><b>Address:</b> , <br><b>SSID:</b> eduroam<br><b>Enc:</b> WPA2<br><b>AP:</b> 162<br>]]></description>
      <Point>
        <coordinates>-88.1459141,42.9892088,0</coordinates>
      </Point>
    </Placemark>
    <Placemark>
      <name>School District of New Berlin</name>
      <description><![CDATA[<b>Name:</b> Orchard Lane Elementary School<br><b>Address:</b> , <br><b>SSID:</b> eduroam<br><b>Enc:</b> WPA2<br><b>AP:</b> 37<br>]]></description>
      <Point>
        <coordinates>-88.0889256,43.007121,0</coordinates>
      </Point>
    </Placemark>
    <Placemark>
      <name>School District of New Berlin</name>
      <description><![CDATA[<b>Name:</b> Poplar Creek Elementary School<br><b>Address:</b> , <br><b>SSID:</b> eduroam<br><b>Enc:</b> WPA2<br><b>AP:</b> 38<br>]]></description>
      <Point>
        <coordinates>-88.1313047,42.9923095,0</coordinates>
      </Point>
    </Placemark>
    <Placemark>
      <name>School District of New Berlin</name>
      <description><![CDATA[<b>Name:</b> Ronald Reagan Elementary School<br><b>Address:</b> , <br><b>SSID:</b> eduroam<br><b>Enc:</b> WPA2<br><b>AP:</b> 69<br>]]></description>
      <Point>
        <coordinates>-88.1309294,42.9673984,0</coordinates>
      </Point>
    </Placemark>
    <Placemark>
      <name>Slinger School District</name>
      <description><![CDATA[<b>Name:</b> Slinger High School<br><b>Address:</b> , <br><b>SSID:</b> eduroam<br><b>Enc:</b> WPA3<br><b>AP:</b> 50<br>]]></description>
      <Point>
        <coordinates>-88.2851874,43.3300777,0</coordinates>
      </Point>
    </Placemark>
    <Placemark>
      <name>Slinger School District</name>
      <description><![CDATA[<b>Name:</b> Slinger Middle School<br><b>Address:</b> , <br><b>SSID:</b> eduroam<br><b>Enc:</b> WPA3<br><b>AP:</b> 50<br>]]></description>
      <Point>
        <coordinates>-88.2971805,43.3737662,0</coordinates>
      </Point>
    </Placemark>
    <Placemark>
      <name>Southwest Wisconsin Library System</name>
      <description><![CDATA[<b>Name:</b> Argyle<br><b>Address:</b> , <br><b>SSID:</b> eduroam<br><b>Enc:</b> WPA2 + WPA3<br><b>AP:</b> 2<br>]]></description>
      <Point>
        <coordinates>-89.8656696,42.7014976,0</coordinates>
      </Point>
    </Placemark>
    <Placemark>
      <name>Southwest Wisconsin Library System</name>
      <description><![CDATA[<b>Name:</b> Barneveld<br><b>Address:</b> , <br><b>SSID:</b> eduroam<br><b>Enc:</b> WPA2 + WPA3<br><b>AP:</b> 4<br>]]></description>
      <Point>
        <coordinates>-89.895985,43.0144127,0</coordinates>
      </Point>
    </Placemark>
    <Placemark>
      <name>Southwest Wisconsin Library System</name>
      <description><![CDATA[<b>Name:</b> Belmont<br><b>Address:</b> , <br><b>SSID:</b> eduroam<br><b>Enc:</b> WPA2 + WPA3<br><b>AP:</b> 2<br>]]></description>
      <Point>
        <coordinates>-90.3337102,42.7367951,0</coordinates>
      </Point>
    </Placemark>
    <Placemark>
      <name>Southwest Wisconsin Library System</name>
      <description><![CDATA[<b>Name:</b> Benton<br><b>Address:</b> , <br><b>SSID:</b> eduroam<br><b>Enc:</b> WPA2 + WPA3<br><b>AP:</b> 4<br>]]></description>
      <Point>
        <coordinates>-90.381847,42.570145,0</coordinates>
      </Point>
    </Placemark>
    <Placemark>
      <name>Southwest Wisconsin Library System</name>
      <description><![CDATA[<b>Name:</b> Blanchardville<br><b>Address:</b> , <br><b>SSID:</b> eduroam<br><b>Enc:</b> WPA2 + WPA3<br><b>AP:</b> 2<br>]]></description>
      <Point>
        <coordinates>-89.8609594,42.8100188,0</coordinates>
      </Point>
    </Placemark>
    <Placemark>
      <name>Southwest Wisconsin Library System</name>
      <description><![CDATA[<b>Name:</b> Bloomington<br><b>Address:</b> , <br><b>SSID:</b> eduroam<br><b>Enc:</b> WPA2 + WPA3<br><b>AP:</b> 2<br>]]></description>
      <Point>
        <coordinates>-90.9255249,42.8832103,0</coordinates>
      </Point>
    </Placemark>
    <Placemark>
      <name>Southwest Wisconsin Library System</name>
      <description><![CDATA[<b>Name:</b> Boscobel<br><b>Address:</b> , <br><b>SSID:</b> eduroam<br><b>Enc:</b> WPA2 + WPA3<br><b>AP:</b> 4<br>]]></description>
      <Point>
        <coordinates>-90.7055564,43.1340139,0</coordinates>
      </Point>
    </Placemark>
    <Placemark>
      <name>Southwest Wisconsin Library System</name>
      <description><![CDATA[<b>Name:</b> Cassville<br><b>Address:</b> , <br><b>SSID:</b> eduroam<br><b>Enc:</b> WPA2 + WPA3<br><b>AP:</b> 2<br>]]></description>
      <Point>
        <coordinates>-90.9763131,42.7082373,0</coordinates>
      </Point>
    </Placemark>
    <Placemark>
      <name>Southwest Wisconsin Library System</name>
      <description><![CDATA[<b>Name:</b> Cobb<br><b>Address:</b> , <br><b>SSID:</b> eduroam<br><b>Enc:</b> WPA2 + WPA3<br><b>AP:</b> 2<br>]]></description>
      <Point>
        <coordinates>-90.3300974,42.9667243,0</coordinates>
      </Point>
    </Placemark>
    <Placemark>
      <name>Southwest Wisconsin Library System</name>
      <description><![CDATA[<b>Name:</b> Cuba City<br><b>Address:</b> , <br><b>SSID:</b> eduroam<br><b>Enc:</b> WPA2 + WPA3<br><b>AP:</b> 1<br>]]></description>
      <Point>
        <coordinates>-90.4304637,42.6068051,0</coordinates>
      </Point>
    </Placemark>
    <Placemark>
      <name>Southwest Wisconsin Library System</name>
      <description><![CDATA[<b>Name:</b> Darlington<br><b>Address:</b> , <br><b>SSID:</b> eduroam<br><b>Enc:</b> WPA2 + WPA3<br><b>AP:</b> 2<br>]]></description>
      <Point>
        <coordinates>-90.1168658,42.6817191,0</coordinates>
      </Point>
    </Placemark>
    <Placemark>
      <name>Southwest Wisconsin Library System</name>
      <description><![CDATA[<b>Name:</b> Dickeyville<br><b>Address:</b> , <br><b>SSID:</b> eduroam<br><b>Enc:</b> WPA2 + WPA3<br><b>AP:</b> 1<br>]]></description>
      <Point>
        <coordinates>-90.5888136,42.6289292,0</coordinates>
      </Point>
    </Placemark>
    <Placemark>
      <name>Southwest Wisconsin Library System</name>
      <description><![CDATA[<b>Name:</b> Dodgeville<br><b>Address:</b> , <br><b>SSID:</b> eduroam<br><b>Enc:</b> WPA2 + WPA3<br><b>AP:</b> 4<br>]]></description>
      <Point>
        <coordinates>-90.1299565,42.9593232,0</coordinates>
      </Point>
    </Placemark>
    <Placemark>
      <name>Southwest Wisconsin Library System</name>
      <description><![CDATA[<b>Name:</b> Fennimore<br><b>Address:</b> , <br><b>SSID:</b> eduroam<br><b>Enc:</b> WPA2 + WPA3<br><b>AP:</b> 1<br>]]></description>
      <Point>
        <coordinates>-90.655167,42.9834091,0</coordinates>
      </Point>
    </Placemark>
    <Placemark>
      <name>Southwest Wisconsin Library System</name>
      <description><![CDATA[<b>Name:</b> Gays Mills<br><b>Address:</b> , <br><b>SSID:</b> eduroam<br><b>Enc:</b> WPA2 + WPA3<br><b>AP:</b> 1<br>]]></description>
      <Point>
        <coordinates>-90.8391336,43.3296969,0</coordinates>
      </Point>
    </Placemark>
    <Placemark>
      <name>Southwest Wisconsin Library System</name>
      <description><![CDATA[<b>Name:</b> Gratiot<br><b>Address:</b> , <br><b>SSID:</b> eduroam<br><b>Enc:</b> WPA2 + WPA3<br><b>AP:</b> 1<br>]]></description>
      <Point>
        <coordinates>-90.0238664,42.5761106,0</coordinates>
      </Point>
    </Placemark>
    <Placemark>
      <name>Southwest Wisconsin Library System</name>
      <description><![CDATA[<b>Name:</b> Hazel Green<br><b>Address:</b> , <br><b>SSID:</b> eduroam<br><b>Enc:</b> WPA2 + WPA3<br><b>AP:</b> 1<br>]]></description>
      <Point>
        <coordinates>-90.4356358,42.5329635,0</coordinates>
      </Point>
    </Placemark>
    <Placemark>
      <name>Southwest Wisconsin Library System</name>
      <description><![CDATA[<b>Name:</b> Lancaster<br><b>Address:</b> , <br><b>SSID:</b> eduroam<br><b>Enc:</b> WPA2 + WPA3<br><b>AP:</b> 4<br>]]></description>
      <Point>
        <coordinates>-90.7099221,42.8504338,0</coordinates>
      </Point>
    </Placemark>
    <Placemark>
      <name>Southwest Wisconsin Library System</name>
      <description><![CDATA[<b>Name:</b> Lone Rock<br><b>Address:</b> , <br><b>SSID:</b> eduroam<br><b>Enc:</b> WPA2 + WPA3<br><b>AP:</b> 1<br>]]></description>
      <Point>
        <coordinates>-90.1976968,43.1878535,0</coordinates>
      </Point>
    </Placemark>
    <Placemark>
      <name>Southwest Wisconsin Library System</name>
      <description><![CDATA[<b>Name:</b> Mineral Point<br><b>Address:</b> , <br><b>SSID:</b> eduroam<br><b>Enc:</b> WPA2 + WPA3<br><b>AP:</b> 7<br>]]></description>
      <Point>
        <coordinates>-90.1789474,42.860006,0</coordinates>
      </Point>
    </Placemark>
    <Placemark>
      <name>Southwest Wisconsin Library System</name>
      <description><![CDATA[<b>Name:</b> Montfort<br><b>Address:</b> , <br><b>SSID:</b> eduroam<br><b>Enc:</b> WPA2 + WPA3<br><b>AP:</b> 1<br>]]></description>
      <Point>
        <coordinates>-90.4333395,42.9719302,0</coordinates>
      </Point>
    </Placemark>
    <Placemark>
      <name>Southwest Wisconsin Library System</name>
      <description><![CDATA[<b>Name:</b> Muscoda<br><b>Address:</b> , <br><b>SSID:</b> eduroam<br><b>Enc:</b> WPA2 + WPA3<br><b>AP:</b> 3<br>]]></description>
      <Point>
        <coordinates>-90.4428609,43.1895114,0</coordinates>
      </Point>
    </Placemark>
    <Placemark>
      <name>Southwest Wisconsin Library System</name>
      <description><![CDATA[<b>Name:</b> Potosi<br><b>Address:</b> , <br><b>SSID:</b> eduroam<br><b>Enc:</b> WPA2 + WPA3<br><b>AP:</b> 1<br>]]></description>
      <Point>
        <coordinates>-90.7117824,42.6901204,0</coordinates>
      </Point>
    </Placemark>
    <Placemark>
      <name>Southwest Wisconsin Library System</name>
      <description><![CDATA[<b>Name:</b> Prairie du Chien<br><b>Address:</b> , <br><b>SSID:</b> eduroam<br><b>Enc:</b> WPA2 + WPA3<br><b>AP:</b> 5<br>]]></description>
      <Point>
        <coordinates>-91.1451275,43.0517363,0</coordinates>
      </Point>
    </Placemark>
    <Placemark>
      <name>Southwest Wisconsin Library System</name>
      <description><![CDATA[<b>Name:</b> Richland Center<br><b>Address:</b> , <br><b>SSID:</b> eduroam<br><b>Enc:</b> WPA2 + WPA3<br><b>AP:</b> 8<br>]]></description>
      <Point>
        <coordinates>-90.3849257,43.3376282,0</coordinates>
      </Point>
    </Placemark>
    <Placemark>
      <name>Southwest Wisconsin Library System</name>
      <description><![CDATA[<b>Name:</b> Shullsburg<br><b>Address:</b> , <br><b>SSID:</b> eduroam<br><b>Enc:</b> WPA2 + WPA3<br><b>AP:</b> 5<br>]]></description>
      <Point>
        <coordinates>-90.2306956,42.5720973,0</coordinates>
      </Point>
    </Placemark>
    <Placemark>
      <name>Southwest Wisconsin Library System</name>
      <description><![CDATA[<b>Name:</b> Soldiers Drove<br><b>Address:</b> , <br><b>SSID:</b> eduroam<br><b>Enc:</b> WPA2 + WPA3<br><b>AP:</b> 4<br>]]></description>
      <Point>
        <coordinates>-90.7742959,43.3952551,0</coordinates>
      </Point>
    </Placemark>
    <Placemark>
      <name>Southwest Wisconsin Library System</name>
      <description><![CDATA[<b>Name:</b> Viola<br><b>Address:</b> , <br><b>SSID:</b> eduroam<br><b>Enc:</b> WPA2 + WPA3<br><b>AP:</b> 2<br>]]></description>
      <Point>
        <coordinates>-90.6684311,43.5059257,0</coordinates>
      </Point>
    </Placemark>
    <Placemark>
      <name>Stevens Point Area School District</name>
      <description><![CDATA[<b>Name:</b> Stevens Point Area Public School District<br><b>Address:</b> , <br><b>SSID:</b> eduroam<br><b>Enc:</b> WPA3<br><b>AP:</b> 650<br>]]></description>
      <Point>
        <coordinates>-89.5643473,44.4994108,0</coordinates>
      </Point>
    </Placemark>
    <Placemark>
      <name>Sun Prairie Area School District</name>
      <description><![CDATA[<b>Name:</b> C.H. Bird Elementary School<br><b>Address:</b> , <br><b>SSID:</b> eduroam<br><b>Enc:</b> WPA2<br><b>AP:</b> -<br>]]></description>
      <Point>
        <coordinates>-89.2271889,43.1957286,0</coordinates>
      </Point>
    </Placemark>
    <Placemark>
      <name>Sun Prairie Area School District</name>
      <description><![CDATA[<b>Name:</b> Central Heights Middle School<br><b>Address:</b> , <br><b>SSID:</b> eduroam<br><b>Enc:</b> WPA2<br><b>AP:</b> -<br>]]></description>
      <Point>
        <coordinates>-89.219634,43.1795866,0</coordinates>
      </Point>
    </Placemark>
    <Placemark>
      <name>Sun Prairie Area School District</name>
      <description><![CDATA[<b>Name:</b> Creekside Elementary School<br><b>Address:</b> , <br><b>SSID:</b> eduroam<br><b>Enc:</b> WPA2<br><b>AP:</b> -<br>]]></description>
      <Point>
        <coordinates>-89.2542066,43.1651982,0</coordinates>
      </Point>
    </Placemark>
    <Placemark>
      <name>Sun Prairie Area School District</name>
      <description><![CDATA[<b>Name:</b> Eastside Elementary School<br><b>Address:</b> , <br><b>SSID:</b> eduroam<br><b>Enc:</b> WPA2<br><b>AP:</b> -<br>]]></description>
      <Point>
        <coordinates>-89.2035357,43.1891928,0</coordinates>
      </Point>
    </Placemark>
    <Placemark>
      <name>Sun Prairie Area School District</name>
      <description><![CDATA[<b>Name:</b> Horizon Elementary School<br><b>Address:</b> , <br><b>SSID:</b> eduroam<br><b>Enc:</b> WPA2<br><b>AP:</b> -<br>]]></description>
      <Point>
        <coordinates>-89.2809388,43.1885335,0</coordinates>
      </Point>
    </Placemark>
    <Placemark>
      <name>Sun Prairie Area School District</name>
      <description><![CDATA[<b>Name:</b> Meadow View Elementary School<br><b>Address:</b> , <br><b>SSID:</b> eduroam<br><b>Enc:</b> WPA2<br><b>AP:</b> -<br>]]></description>
      <Point>
        <coordinates>-89.2659315,43.1788771,0</coordinates>
      </Point>
    </Placemark>
    <Placemark>
      <name>Sun Prairie Area School District</name>
      <description><![CDATA[<b>Name:</b> Northside Elementary School<br><b>Address:</b> , <br><b>SSID:</b> eduroam<br><b>Enc:</b> WPA2<br><b>AP:</b> -<br>]]></description>
      <Point>
        <coordinates>-89.2163526,43.1938714,0</coordinates>
      </Point>
    </Placemark>
    <Placemark>
      <name>Sun Prairie Area School District</name>
      <description><![CDATA[<b>Name:</b> Patrick Marsh Middle School<br><b>Address:</b> , <br><b>SSID:</b> eduroam<br><b>Enc:</b> WPA2<br><b>AP:</b> -<br>]]></description>
      <Point>
        <coordinates>-89.1941449,43.1992043,0</coordinates>
      </Point>
    </Placemark>
    <Placemark>
      <name>Sun Prairie Area School District</name>
      <description><![CDATA[<b>Name:</b> Prairie View Middle School<br><b>Address:</b> , <br><b>SSID:</b> eduroam<br><b>Enc:</b> WPA2<br><b>AP:</b> -<br>]]></description>
      <Point>
        <coordinates>-89.2568179,43.1850233,0</coordinates>
      </Point>
    </Placemark>
    <Placemark>
      <name>Sun Prairie Area School District</name>
      <description><![CDATA[<b>Name:</b> Royal Oaks Elementary School<br><b>Address:</b> , <br><b>SSID:</b> eduroam<br><b>Enc:</b> WPA2<br><b>AP:</b> -<br>]]></description>
      <Point>
        <coordinates>-89.2523629,43.1840865,0</coordinates>
      </Point>
    </Placemark>
    <Placemark>
      <name>Sun Prairie Area School District</name>
      <description><![CDATA[<b>Name:</b> Sun Prairie Area School District Support Center<br><b>Address:</b> , <br><b>SSID:</b> eduroam<br><b>Enc:</b> WPA2<br><b>AP:</b> -<br>]]></description>
      <Point>
        <coordinates>-89.2257924,43.1759185,0</coordinates>
      </Point>
    </Placemark>
    <Placemark>
      <name>Sun Prairie Area School District</name>
      <description><![CDATA[<b>Name:</b> Sun Prairie East High School<br><b>Address:</b> , <br><b>SSID:</b> eduroam<br><b>Enc:</b> WPA2<br><b>AP:</b> -<br>]]></description>
      <Point>
        <coordinates>-89.2095248,43.1730953,0</coordinates>
      </Point>
    </Placemark>
    <Placemark>
      <name>Sun Prairie Area School District</name>
      <description><![CDATA[<b>Name:</b> Sun Prairie West High School<br><b>Address:</b> , <br><b>SSID:</b> eduroam<br><b>Enc:</b> WPA2<br><b>AP:</b> -<br>]]></description>
      <Point>
        <coordinates>-89.2722583,43.1827011,0</coordinates>
      </Point>
    </Placemark>
    <Placemark>
      <name>Sun Prairie Area School District</name>
      <description><![CDATA[<b>Name:</b> Token Springs Elementary School<br><b>Address:</b> , <br><b>SSID:</b> eduroam<br><b>Enc:</b> WPA2<br><b>AP:</b> -<br>]]></description>
      <Point>
        <coordinates>-89.2494185,43.2040026,0</coordinates>
      </Point>
    </Placemark>
    <Placemark>
      <name>Sun Prairie Area School District</name>
      <description><![CDATA[<b>Name:</b> Westside Elementary School<br><b>Address:</b> , <br><b>SSID:</b> eduroam<br><b>Enc:</b> WPA2<br><b>AP:</b> -<br>]]></description>
      <Point>
        <coordinates>-89.2358051,43.181656,0</coordinates>
      </Point>
    </Placemark>
    <Placemark>
      <name>The Wisconsin Institutes for Discovery</name>
      <description><![CDATA[<b>Name:</b> Wisconsin Institutes for Research<br><b>Address:</b> , <br><b>SSID:</b> eduroam<br><b>Enc:</b> WPA2+WPA<br><b>AP:</b> 250<br>]]></description>
      <Point>
        <coordinates>-89.4081363,43.0728339,0</coordinates>
      </Point>
    </Placemark>
    <Placemark>
      <name>University of Wisconsin - Whitewater</name>
      <description><![CDATA[<b>Name:</b> University Of Wisconsin - Whitewater<br><b>Address:</b> , <br><b>SSID:</b> eduroam<br><b>Enc:</b> WPA2<br><b>AP:</b> 2200<br>]]></description>
      <Point>
        <coordinates>-88.744331,42.8423066,0</coordinates>
      </Point>
    </Placemark>
    <Placemark>
      <name>University of Wisconsin System Administration</name>
      <description><![CDATA[<b>Name:</b> UW System Administration<br><b>Address:</b> , <br><b>SSID:</b> eduroam<br><b>Enc:</b> WPA2+WPA<br><b>AP:</b> -<br>]]></description>
      <Point>
        <coordinates>-89.3987626,43.0681611,0</coordinates>
      </Point>
    </Placemark>
    <Placemark>
      <name>University of Wisconsin System Administration</name>
      <description><![CDATA[<b>Name:</b> UW system Administration Van Hise<br><b>Address:</b> , <br><b>SSID:</b> eduroam<br><b>Enc:</b> WPA2+WPA<br><b>AP:</b> -<br>]]></description>
      <Point>
        <coordinates>-89.4067112,43.0755408,0</coordinates>
      </Point>
    </Placemark>
    <Placemark>
      <name>University of Wisconsin System Administration</name>
      <description><![CDATA[<b>Name:</b> UWSA<br><b>Address:</b> , <br><b>SSID:</b> eduroam<br><b>Enc:</b> WPA2+WPA<br><b>AP:</b> -<br>]]></description>
      <Point>
        <coordinates>-89.3987266,43.0680698,0</coordinates>
      </Point>
    </Placemark>
    <Placemark>
      <name>University of Wisconsin-Eau Claire</name>
      <description><![CDATA[<b>Name:</b> University of Wisconsin-Eau Claire<br><b>Address:</b> , <br><b>SSID:</b> eduroam<br><b>Enc:</b> WPA2+WPA<br><b>AP:</b> 2000<br>]]></description>
      <Point>
        <coordinates>-91.5031296,44.7979507,0</coordinates>
      </Point>
    </Placemark>
    <Placemark>
      <name>University of Wisconsin-Eau Claire</name>
      <description><![CDATA[<b>Name:</b> University of Wisconsin-Eau Claire - Barron County<br><b>Address:</b> , <br><b>SSID:</b> eduroam<br><b>Enc:</b> WPA2<br><b>AP:</b> 60<br>]]></description>
      <Point>
        <coordinates>-91.7475238,45.4832916,0</coordinates>
      </Point>
    </Placemark>
    <Placemark>
      <name>University of Wisconsin-Green Bay</name>
      <description><![CDATA[<b>Name:</b> UW - Green Bay<br><b>Address:</b> , <br><b>SSID:</b> eduroam<br><b>Enc:</b> WPA3+WPA2+WPA<br><b>AP:</b> 1680<br>]]></description>
      <Point>
        <coordinates>-87.9204941,44.5316364,0</coordinates>
      </Point>
    </Placemark>
    <Placemark>
      <name>University of Wisconsin-Green Bay</name>
      <description><![CDATA[<b>Name:</b> UW - Manitowoc<br><b>Address:</b> , <br><b>SSID:</b> eduroam<br><b>Enc:</b> WPA3+WPA2+WPA<br><b>AP:</b> 92<br>]]></description>
      <Point>
        <coordinates>-87.6564946,44.0654627,0</coordinates>
      </Point>
    </Placemark>
    <Placemark>
      <name>University of Wisconsin-Green Bay</name>
      <description><![CDATA[<b>Name:</b> UW - Marinette<br><b>Address:</b> , <br><b>SSID:</b> eduroam<br><b>Enc:</b> WPA3+WPA2+WPA<br><b>AP:</b> 30<br>]]></description>
      <Point>
        <coordinates>-87.6143394,45.0725808,0</coordinates>
      </Point>
    </Placemark>
    <Placemark>
      <name>University of Wisconsin-Green Bay</name>
      <description><![CDATA[<b>Name:</b> UW - Sheboygan<br><b>Address:</b> , <br><b>SSID:</b> eduroam<br><b>Enc:</b> WPA3+WPA2+WPA<br><b>AP:</b> 105<br>]]></description>
      <Point>
        <coordinates>-87.754813,43.738552,0</coordinates>
      </Point>
    </Placemark>
    <Placemark>
      <name>University of Wisconsin-Madison</name>
      <description><![CDATA[<b>Name:</b> Main Campus<br><b>Address:</b> , <br><b>SSID:</b> eduroam<br><b>Enc:</b> WPA2<br><b>AP:</b> 18000<br>]]></description>
      <Point>
        <coordinates>-89.4124875,43.076592,0</coordinates>
      </Point>
    </Placemark>
    <Placemark>
      <name>University of Wisconsin-Milwaukee</name>
      <description><![CDATA[<b>Name:</b> Main Campus<br><b>Address:</b> , <br><b>SSID:</b> eduroam<br><b>Enc:</b> WPA2+WPA<br><b>AP:</b> -<br>]]></description>
      <Point>
        <coordinates>-87.88366,43.0795699,0</coordinates>
      </Point>
    </Placemark>
    <Placemark>
      <name>University of Wisconsin-Oshkosh</name>
      <description><![CDATA[<b>Name:</b> University of Wisconsin Oshkosh<br><b>Address:</b> , <br><b>SSID:</b> eduroam<br><b>Enc:</b> WPA2+WPA<br><b>AP:</b> 2000<br>]]></description>
      <Point>
        <coordinates>-88.5508746,44.0256057,0</coordinates>
      </Point>
    </Placemark>
    <Placemark>
      <name>University of Wisconsin-Parkside</name>
      <description><![CDATA[<b>Name:</b> Main Campus<br><b>Address:</b> , <br><b>SSID:</b> eduroam<br><b>Enc:</b> WPA2+WPA<br><b>AP:</b> -<br>]]></description>
      <Point>
        <coordinates>-87.8521311,42.6435508,0</coordinates>
      </Point>
    </Placemark>
    <Placemark>
      <name>University of Wisconsin-Platteville</name>
      <description><![CDATA[<b>Name:</b> Main Campus<br><b>Address:</b> , <br><b>SSID:</b> eduroam<br><b>Enc:</b> WPA2<br><b>AP:</b> 1660<br>]]></description>
      <Point>
        <coordinates>-90.4896057,42.7332881,0</coordinates>
      </Point>
    </Placemark>
    <Placemark>
      <name>University of Wisconsin-Platteville</name>
      <description><![CDATA[<b>Name:</b> University of Wisconsin-Platteville Baraboo Sauk Count<br><b>Address:</b> , <br><b>SSID:</b> eduroam<br><b>Enc:</b> WPA2<br><b>AP:</b> 79<br>]]></description>
      <Point>
        <coordinates>-89.7625477,43.4826265,0</coordinates>
      </Point>
    </Placemark>
    <Placemark>
      <name>University of Wisconsin-River Falls</name>
      <description><![CDATA[<b>Name:</b> Main Campus<br><b>Address:</b> , <br><b>SSID:</b> eduroam<br><b>Enc:</b> WPA2+WPA<br><b>AP:</b> -<br>]]></description>
      <Point>
        <coordinates>-92.6227424,44.8531245,0</coordinates>
      </Point>
    </Placemark>
    <Placemark>
      <name>University of Wisconsin-Stevens Point</name>
      <description><![CDATA[<b>Name:</b> Main Campus<br><b>Address:</b> , <br><b>SSID:</b> eduroam<br><b>Enc:</b> WPA2<br><b>AP:</b> 3600<br>]]></description>
      <Point>
        <coordinates>-89.5721447,44.5327416,0</coordinates>
      </Point>
    </Placemark>
    <Placemark>
      <name>University of Wisconsin-Stout</name>
      <description><![CDATA[<b>Name:</b> Main Campus<br><b>Address:</b> , <br><b>SSID:</b> eduroam<br><b>Enc:</b> WPA2+WPA<br><b>AP:</b> -<br>]]></description>
      <Point>
        <coordinates>-91.9289922,44.8742998,0</coordinates>
      </Point>
    </Placemark>
    <Placemark>
      <name>UW-Superior</name>
      <description><![CDATA[<b>Name:</b> UW-Superior<br><b>Address:</b> , <br><b>SSID:</b> eduroam<br><b>Enc:</b> WPA2+WPA<br><b>AP:</b> -<br>]]></description>
      <Point>
        <coordinates>-92.0875264,46.7205925,0</coordinates>
      </Point>
    </Placemark>
    <Placemark>
      <name>Wabeno School District</name>
      <description><![CDATA[<b>Name:</b> Wabeno High School<br><b>Address:</b> , <br><b>SSID:</b> eduroam<br><b>Enc:</b> WPA2<br><b>AP:</b> 31<br>]]></description>
      <Point>
        <coordinates>-88.6554939,45.4388586,0</coordinates>
      </Point>
    </Placemark>
    <Placemark>
      <name>Waukesha County Technical College</name>
      <description><![CDATA[<b>Name:</b> Waukesha County Technical College Pewaukee Campus<br><b>Address:</b> , <br><b>SSID:</b> eduroam<br><b>Enc:</b> WPA2<br><b>AP:</b> 10<br>]]></description>
      <Point>
        <coordinates>-88.2570691,43.0705938,0</coordinates>
      </Point>
    </Placemark>
    <Placemark>
      <name>Waukesha County Technical College</name>
      <description><![CDATA[<b>Name:</b> Waukesha County Technical College Waukesha Campus<br><b>Address:</b> , <br><b>SSID:</b> eduroam<br><b>Enc:</b> WPA2<br><b>AP:</b> 1<br>]]></description>
      <Point>
        <coordinates>-88.2233661,43.0074777,0</coordinates>
      </Point>
    </Placemark>
    <Placemark>
      <name>Waukesha School District</name>
      <description><![CDATA[<b>Name:</b> Banting Elementary School<br><b>Address:</b> , <br><b>SSID:</b> eduroam<br><b>Enc:</b> WPA3+WPA2+WPA<br><b>AP:</b> 43<br>]]></description>
      <Point>
        <coordinates>-88.2050283,43.0288372,0</coordinates>
      </Point>
    </Placemark>
    <Placemark>
      <name>Waukesha School District</name>
      <description><![CDATA[<b>Name:</b> Bethesda Elementary School<br><b>Address:</b> , <br><b>SSID:</b> eduroam<br><b>Enc:</b> WPA3+WPA2+WPA<br><b>AP:</b> 36<br>]]></description>
      <Point>
        <coordinates>-88.2765919,43.0040987,0</coordinates>
      </Point>
    </Placemark>
    <Placemark>
      <name>Waukesha School District</name>
      <description><![CDATA[<b>Name:</b> Blair Administration Building<br><b>Address:</b> , <br><b>SSID:</b> eduroam<br><b>Enc:</b> WPA3+WPA2+WPA<br><b>AP:</b> 32<br>]]></description>
      <Point>
        <coordinates>-88.2402848,43.0160159,0</coordinates>
      </Point>
    </Placemark>
    <Placemark>
      <name>Waukesha School District</name>
      <description><![CDATA[<b>Name:</b> Butler Middle School<br><b>Address:</b> , <br><b>SSID:</b> eduroam<br><b>Enc:</b> WPA3+WPA2+WPA<br><b>AP:</b> 87<br>]]></description>
      <Point>
        <coordinates>-88.247757,43.0161827,0</coordinates>
      </Point>
    </Placemark>
    <Placemark>
      <name>Waukesha School District</name>
      <description><![CDATA[<b>Name:</b> E.B. Shurts Building<br><b>Address:</b> , <br><b>SSID:</b> eduroam<br><b>Enc:</b> WPA3+WPA2+WPA<br><b>AP:</b> 5<br>]]></description>
      <Point>
        <coordinates>-88.2452436,43.0032379,0</coordinates>
      </Point>
    </Placemark>
    <Placemark>
      <name>Waukesha School District</name>
      <description><![CDATA[<b>Name:</b> East High School<br><b>Address:</b> , <br><b>SSID:</b> eduroam<br><b>Enc:</b> WPA3+WPA2+WPA<br><b>AP:</b> 30<br>]]></description>
      <Point>
        <coordinates>-88.2233085,43.0167999,0</coordinates>
      </Point>
    </Placemark>
    <Placemark>
      <name>Waukesha School District</name>
      <description><![CDATA[<b>Name:</b> Hadfield Elementary School<br><b>Address:</b> , <br><b>SSID:</b> eduroam<br><b>Enc:</b> WPA3+WPA2+WPA<br><b>AP:</b> 38<br>]]></description>
      <Point>
        <coordinates>-88.2171602,43.0094618,0</coordinates>
      </Point>
    </Placemark>
    <Placemark>
      <name>Waukesha School District</name>
      <description><![CDATA[<b>Name:</b> Hawthorne Elementary School<br><b>Address:</b> , <br><b>SSID:</b> eduroam<br><b>Enc:</b> WPA3+WPA2+WPA<br><b>AP:</b> 31<br>]]></description>
      <Point>
        <coordinates>-88.2473557,43.0260399,0</coordinates>
      </Point>
    </Placemark>
    <Placemark>
      <name>Waukesha School District</name>
      <description><![CDATA[<b>Name:</b> Heyer Elementary School<br><b>Address:</b> , <br><b>SSID:</b> eduroam<br><b>Enc:</b> WPA3+WPA2+WPA<br><b>AP:</b> 34<br>]]></description>
      <Point>
        <coordinates>-88.2110083,42.9898983,0</coordinates>
      </Point>
    </Placemark>
    <Placemark>
      <name>Waukesha School District</name>
      <description><![CDATA[<b>Name:</b> Hillcrest Elementary School<br><b>Address:</b> , <br><b>SSID:</b> eduroam<br><b>Enc:</b> WPA3+WPA2+WPA<br><b>AP:</b> 30<br>]]></description>
      <Point>
        <coordinates>-88.185937,43.02565,0</coordinates>
      </Point>
    </Placemark>
    <Placemark>
      <name>Waukesha School District</name>
      <description><![CDATA[<b>Name:</b> Horning Middle School<br><b>Address:</b> , <br><b>SSID:</b> eduroam<br><b>Enc:</b> WPA3+WPA2+WPA<br><b>AP:</b> 84<br>]]></description>
      <Point>
        <coordinates>-88.2042566,43.0281676,0</coordinates>
      </Point>
    </Placemark>
    <Placemark>
      <name>Waukesha School District</name>
      <description><![CDATA[<b>Name:</b> Horwitz-DeRemer Planetarium<br><b>Address:</b> , <br><b>SSID:</b> eduroam<br><b>Enc:</b> WPA3+WPA2+WPA<br><b>AP:</b> 6<br>]]></description>
      <Point>
        <coordinates>-88.3123005,43.0138786,0</coordinates>
      </Point>
    </Placemark>
    <Placemark>
      <name>Waukesha School District</name>
      <description><![CDATA[<b>Name:</b> Les Paul Middle School<br><b>Address:</b> , <br><b>SSID:</b> eduroam<br><b>Enc:</b> WPA3+WPA2+WPA<br><b>AP:</b> 98<br>]]></description>
      <Point>
        <coordinates>-88.2330346,43.0074154,0</coordinates>
      </Point>
    </Placemark>
    <Placemark>
      <name>Waukesha School District</name>
      <description><![CDATA[<b>Name:</b> Lowell Elementary School<br><b>Address:</b> , <br><b>SSID:</b> eduroam<br><b>Enc:</b> WPA3+WPA2+WPA<br><b>AP:</b> 42<br>]]></description>
      <Point>
        <coordinates>-88.2590834,43.0149999,0</coordinates>
      </Point>
    </Placemark>
    <Placemark>
      <name>Waukesha School District</name>
      <description><![CDATA[<b>Name:</b> Meadowbrook Elementary School<br><b>Address:</b> , <br><b>SSID:</b> eduroam<br><b>Enc:</b> WPA3+WPA2+WPA<br><b>AP:</b> 24<br>]]></description>
      <Point>
        <coordinates>-88.2842493,43.0453768,0</coordinates>
      </Point>
    </Placemark>
    <Placemark>
      <name>Waukesha School District</name>
      <description><![CDATA[<b>Name:</b> North High School<br><b>Address:</b> , <br><b>SSID:</b> eduroam<br><b>Enc:</b> WPA3+WPA2+WPA<br><b>AP:</b> 112<br>]]></description>
      <Point>
        <coordinates>-88.2649763,43.0191353,0</coordinates>
      </Point>
    </Placemark>
    <Placemark>
      <name>Waukesha School District</name>
      <description><![CDATA[<b>Name:</b> Prairie Elementary School<br><b>Address:</b> , <br><b>SSID:</b> eduroam<br><b>Enc:</b> WPA3+WPA2+WPA<br><b>AP:</b> 32<br>]]></description>
      <Point>
        <coordinates>-88.2465229,42.9819469,0</coordinates>
      </Point>
    </Placemark>
    <Placemark>
      <name>Waukesha School District</name>
      <description><![CDATA[<b>Name:</b> Rose Glen Elementary School<br><b>Address:</b> , <br><b>SSID:</b> eduroam<br><b>Enc:</b> WPA3+WPA2+WPA<br><b>AP:</b> 36<br>]]></description>
      <Point>
        <coordinates>-88.294202,42.974704,0</coordinates>
      </Point>
    </Placemark>
    <Placemark>
      <name>Waukesha School District</name>
      <description><![CDATA[<b>Name:</b> South High School<br><b>Address:</b> , <br><b>SSID:</b> eduroam<br><b>Enc:</b> WPA3+WPA2+WPA<br><b>AP:</b> 115<br>]]></description>
      <Point>
        <coordinates>-88.2229947,42.993071,0</coordinates>
      </Point>
    </Placemark>
    <Placemark>
      <name>Waukesha School District</name>
      <description><![CDATA[<b>Name:</b> STEM Elementary School<br><b>Address:</b> , <br><b>SSID:</b> eduroam<br><b>Enc:</b> WPA3+WPA2+WPA<br><b>AP:</b> 35<br>]]></description>
      <Point>
        <coordinates>-88.2261791,42.9924671,0</coordinates>
      </Point>
    </Placemark>
    <Placemark>
      <name>Waukesha School District</name>
      <description><![CDATA[<b>Name:</b> STEM Saratoga School<br><b>Address:</b> , <br><b>SSID:</b> eduroam<br><b>Enc:</b> WPA3+WPA2+WPA<br><b>AP:</b> 27<br>]]></description>
      <Point>
        <coordinates>-88.2405251,43.0015638,0</coordinates>
      </Point>
    </Placemark>
    <Placemark>
      <name>Waukesha School District</name>
      <description><![CDATA[<b>Name:</b> Summit View Elementary School<br><b>Address:</b> , <br><b>SSID:</b> eduroam<br><b>Enc:</b> WPA3+WPA2+WPA<br><b>AP:</b> 51<br>]]></description>
      <Point>
        <coordinates>-88.260906,43.0242741,0</coordinates>
      </Point>
    </Placemark>
    <Placemark>
      <name>Waukesha School District</name>
      <description><![CDATA[<b>Name:</b> West High School<br><b>Address:</b> , <br><b>SSID:</b> eduroam<br><b>Enc:</b> WPA3+WPA2+WPA<br><b>AP:</b> 149<br>]]></description>
      <Point>
        <coordinates>-88.279234,42.9680636,0</coordinates>
      </Point>
    </Placemark>
    <Placemark>
      <name>Winding Rivers Library System</name>
      <description><![CDATA[<b>Name:</b> Winding Rivers Library System<br><b>Address:</b> , <br><b>SSID:</b> eduroam<br><b>Enc:</b> WPA2<br><b>AP:</b> 1<br>]]></description>
      <Point>
        <coordinates>-91.099061,43.8997078,0</coordinates>
      </Point>
    </Placemark>
    <Placemark>
      <name>WiscNet</name>
      <description><![CDATA[<b>Name:</b> WiscNet Headquarters<br><b>Address:</b> , <br><b>SSID:</b> eduroam<br><b>Enc:</b> WPA3+WPA2+WPA<br><b>AP:</b> 4<br>]]></description>
      <Point>
        <coordinates>-89.467962,43.054638,0</coordinates>
      </Point>
    </Placemark>
    <Placemark>
      <name>Wisconsin Center District</name>
      <description><![CDATA[<b>Name:</b> Miller High Life Theatre<br><b>Address:</b> , <br><b>SSID:</b> eduroam<br><b>Enc:</b> WPA2 + WPA3<br><b>AP:</b> 93<br>]]></description>
      <Point>
        <coordinates>-87.9178558,43.0418813,0</coordinates>
      </Point>
    </Placemark>
    <Placemark>
      <name>Wisconsin Center District</name>
      <description><![CDATA[<b>Name:</b> UW-Milwaukee Panther Arena<br><b>Address:</b> , <br><b>SSID:</b> eduroam<br><b>Enc:</b> WPA2 + WPA3<br><b>AP:</b> 67<br>]]></description>
      <Point>
        <coordinates>-87.9170854,43.0423325,0</coordinates>
      </Point>
    </Placemark>
  </Document>
</kml>
