<?xml version="1.0" encoding="UTF-8"?>
<kml xmlns="http://www.opengis.net/kml/2.2">
  <Document>
    <name>eduroam — Idaho</name>
    <description><![CDATA[28 eduroam service locations in Idaho.<br><br>Published by <a href="https://scs.nevada.edu/eduroam">NSHE System Computing Services</a>. Learn more about eduroam Support Organizations from <a href="https://incommon.org/eduroam">Internet2</a>, the eduroam National Roaming Operator for the United States.<br>These maps are derived from data published by GÉANT (<a href="https://monitor.eduroam.org/kml/us.kml">monitor.eduroam.org</a>). This is not an official GÉANT or eduroam publication.<br>eduroam is a registered trademark of the GÉANT Association.<br>Region boundaries are derived from US Census Bureau cartographic boundary files, which as works of the US federal government are in the public domain.<br>Maps generated by eduroam-us-regional-maps, which is BSD 3-Clause licensed.]]></description>
    <open>1</open>
    <Placemark>
      <name>Boise State University</name>
      <description><![CDATA[<b>Name:</b> Main Campus<br><b>Address:</b> , <br><b>SSID:</b> eduroam<br><b>Enc:</b> WPA2+WPA<br><b>AP:</b> 1800<br>]]></description>
      <Point>
        <coordinates>-116.2080339,43.6038225,0</coordinates>
      </Point>
    </Placemark>
    <Placemark>
      <name>Brigham Young University - Idaho</name>
      <description><![CDATA[<b>Name:</b> BYU-Idaho<br><b>Address:</b> , <br><b>SSID:</b> eduroam<br><b>Enc:</b> WPA2+WPA<br><b>AP:</b> 1200<br>]]></description>
      <Point>
        <coordinates>-111.7814588,43.8173193,0</coordinates>
      </Point>
    </Placemark>
    <Placemark>
      <name>Idaho National Laboratory</name>
      <description><![CDATA[<b>Name:</b> INL IAB<br><b>Address:</b> , <br><b>SSID:</b> eduroam<br><b>Enc:</b> WPA2<br><b>AP:</b> 1190<br>]]></description>
      <Point>
        <coordinates>-112.0414435,43.5162928,0</coordinates>
      </Point>
    </Placemark>
    <Placemark>
      <name>Idaho State University</name>
      <description><![CDATA[<b>Name:</b> Idaho Falls, ID<br><b>Address:</b> , <br><b>SSID:</b> eduroam<br><b>Enc:</b> WPA2+WPA<br><b>AP:</b> 100<br>]]></description>
      <Point>
        <coordinates>-112.0512007,43.516358,0</coordinates>
      </Point>
    </Placemark>
    <Placemark>
      <name>Idaho State University</name>
      <description><![CDATA[<b>Name:</b> Meridian, ID<br><b>Address:</b> , <br><b>SSID:</b> eduroam<br><b>Enc:</b> WPA2+WPA<br><b>AP:</b> 100<br>]]></description>
      <Point>
        <coordinates>-116.3783005,43.5952346,0</coordinates>
      </Point>
    </Placemark>
    <Placemark>
      <name>Idaho State University</name>
      <description><![CDATA[<b>Name:</b> Pocatello, ID<br><b>Address:</b> , <br><b>SSID:</b> eduroam<br><b>Enc:</b> WPA2+WPA<br><b>AP:</b> 1300<br>]]></description>
      <Point>
        <coordinates>-112.433097,42.8613521,0</coordinates>
      </Point>
    </Placemark>
    <Placemark>
      <name>Lewis-Clark State College</name>
      <description><![CDATA[<b>Name:</b> Lewis-Clark State College<br><b>Address:</b> , <br><b>SSID:</b> eduroam<br><b>Enc:</b> WPA2+WPA<br><b>AP:</b> 265<br>]]></description>
      <Point>
        <coordinates>-117.027928,46.412247,0</coordinates>
      </Point>
    </Placemark>
    <Placemark>
      <name>North Idaho College</name>
      <description><![CDATA[<b>Name:</b> North Idaho College - Campus<br><b>Address:</b> , <br><b>SSID:</b> eduroam<br><b>Enc:</b> WPA2<br><b>AP:</b> -<br>]]></description>
      <Point>
        <coordinates>-116.7964835,47.6765034,0</coordinates>
      </Point>
    </Placemark>
    <Placemark>
      <name>University of Idaho</name>
      <description><![CDATA[<b>Name:</b> Univ of Idaho - Aberdeen Research Center<br><b>Address:</b> , <br><b>SSID:</b> eduroam<br><b>Enc:</b> WPA3<br><b>AP:</b> 10<br>]]></description>
      <Point>
        <coordinates>-112.8277767,42.9529989,0</coordinates>
      </Point>
    </Placemark>
    <Placemark>
      <name>University of Idaho</name>
      <description><![CDATA[<b>Name:</b> Univ of Idaho - Caldwell Research Center<br><b>Address:</b> , <br><b>SSID:</b> eduroam<br><b>Enc:</b> WPA3<br><b>AP:</b> 5<br>]]></description>
      <Point>
        <coordinates>-116.6724122,43.660351,0</coordinates>
      </Point>
    </Placemark>
    <Placemark>
      <name>University of Idaho</name>
      <description><![CDATA[<b>Name:</b> Univ of Idaho - Capitol Annex<br><b>Address:</b> , <br><b>SSID:</b> eduroam<br><b>Enc:</b> WPA3<br><b>AP:</b> 6<br>]]></description>
      <Point>
        <coordinates>-116.1979294,43.6167997,0</coordinates>
      </Point>
    </Placemark>
    <Placemark>
      <name>University of Idaho</name>
      <description><![CDATA[<b>Name:</b> Univ of Idaho - Center for Agriculture, Food and Environment (CAFE)<br><b>Address:</b> , <br><b>SSID:</b> eduroam<br><b>Enc:</b> WPA3<br><b>AP:</b> 16<br>]]></description>
      <Point>
        <coordinates>-113.5950879,42.8225964,0</coordinates>
      </Point>
    </Placemark>
    <Placemark>
      <name>University of Idaho</name>
      <description><![CDATA[<b>Name:</b> Univ of Idaho - Coeur d'Alene Research Center<br><b>Address:</b> , <br><b>SSID:</b> eduroam<br><b>Enc:</b> WPA3<br><b>AP:</b> 17<br>]]></description>
      <Point>
        <coordinates>-116.7969166,47.6832402,0</coordinates>
      </Point>
    </Placemark>
    <Placemark>
      <name>University of Idaho</name>
      <description><![CDATA[<b>Name:</b> Univ of Idaho - Extension, Bonner County<br><b>Address:</b> , <br><b>SSID:</b> eduroam<br><b>Enc:</b> WPA3<br><b>AP:</b> 9<br>]]></description>
      <Point>
        <coordinates>-116.5579896,48.3117354,0</coordinates>
      </Point>
    </Placemark>
    <Placemark>
      <name>University of Idaho</name>
      <description><![CDATA[<b>Name:</b> Univ of Idaho - Extension, Boundary County<br><b>Address:</b> , <br><b>SSID:</b> eduroam<br><b>Enc:</b> WPA3<br><b>AP:</b> 11<br>]]></description>
      <Point>
        <coordinates>-116.3141803,48.6955736,0</coordinates>
      </Point>
    </Placemark>
    <Placemark>
      <name>University of Idaho</name>
      <description><![CDATA[<b>Name:</b> Univ of Idaho - Extension, Kootenai County<br><b>Address:</b> , <br><b>SSID:</b> eduroam<br><b>Enc:</b> WPA3<br><b>AP:</b> 4<br>]]></description>
      <Point>
        <coordinates>-116.8040665,47.6967907,0</coordinates>
      </Point>
    </Placemark>
    <Placemark>
      <name>University of Idaho</name>
      <description><![CDATA[<b>Name:</b> Univ of Idaho - Front Street<br><b>Address:</b> , <br><b>SSID:</b> eduroam<br><b>Enc:</b> WPA3<br><b>AP:</b> 40<br>]]></description>
      <Point>
        <coordinates>-116.2023414,43.6120317,0</coordinates>
      </Point>
    </Placemark>
    <Placemark>
      <name>University of Idaho</name>
      <description><![CDATA[<b>Name:</b> Univ of Idaho - Hagerman Fish Culture Experiment Station<br><b>Address:</b> , <br><b>SSID:</b> eduroam<br><b>Enc:</b> WPA3<br><b>AP:</b> 18<br>]]></description>
      <Point>
        <coordinates>-114.8561612,42.7598379,0</coordinates>
      </Point>
    </Placemark>
    <Placemark>
      <name>University of Idaho</name>
      <description><![CDATA[<b>Name:</b> Univ of Idaho - Idaho Falls Center<br><b>Address:</b> , <br><b>SSID:</b> eduroam<br><b>Enc:</b> WPA2 + WPA3<br><b>AP:</b> 1<br>]]></description>
      <Point>
        <coordinates>-112.0530882,43.5173249,0</coordinates>
      </Point>
    </Placemark>
    <Placemark>
      <name>University of Idaho</name>
      <description><![CDATA[<b>Name:</b> Univ of Idaho - Idaho Water Center<br><b>Address:</b> , <br><b>SSID:</b> eduroam<br><b>Enc:</b> WPA3<br><b>AP:</b> 35<br>]]></description>
      <Point>
        <coordinates>-116.1939806,43.6090983,0</coordinates>
      </Point>
    </Placemark>
    <Placemark>
      <name>University of Idaho</name>
      <description><![CDATA[<b>Name:</b> Univ of Idaho - Kimberly Research Center<br><b>Address:</b> , <br><b>SSID:</b> eduroam<br><b>Enc:</b> WPA3<br><b>AP:</b> 10<br>]]></description>
      <Point>
        <coordinates>-114.3448555,42.5487016,0</coordinates>
      </Point>
    </Placemark>
    <Placemark>
      <name>University of Idaho</name>
      <description><![CDATA[<b>Name:</b> Univ of Idaho - McCall Outdoor Science School<br><b>Address:</b> , <br><b>SSID:</b> eduroam<br><b>Enc:</b> WPA3<br><b>AP:</b> 10<br>]]></description>
      <Point>
        <coordinates>-116.0895484,44.9275321,0</coordinates>
      </Point>
    </Placemark>
    <Placemark>
      <name>University of Idaho</name>
      <description><![CDATA[<b>Name:</b> Univ of Idaho - Nancy M. Cummings Research Center<br><b>Address:</b> , <br><b>SSID:</b> eduroam<br><b>Enc:</b> WPA3<br><b>AP:</b> 15<br>]]></description>
      <Point>
        <coordinates>-113.8913047,45.2875085,0</coordinates>
      </Point>
    </Placemark>
    <Placemark>
      <name>University of Idaho</name>
      <description><![CDATA[<b>Name:</b> Univ of Idaho - Parma Research Center<br><b>Address:</b> , <br><b>SSID:</b> eduroam<br><b>Enc:</b> WPA3<br><b>AP:</b> 21<br>]]></description>
      <Point>
        <coordinates>-116.942988,43.8010997,0</coordinates>
      </Point>
    </Placemark>
    <Placemark>
      <name>University of Idaho</name>
      <description><![CDATA[<b>Name:</b> Univ of Idaho - Pitkin Nursery/Parker Farms<br><b>Address:</b> , <br><b>SSID:</b> eduroam<br><b>Enc:</b> WPA3<br><b>AP:</b> 10<br>]]></description>
      <Point>
        <coordinates>-116.9567442,46.7253644,0</coordinates>
      </Point>
    </Placemark>
    <Placemark>
      <name>University of Idaho</name>
      <description><![CDATA[<b>Name:</b> Univ of Idaho - Post Falls Research Park<br><b>Address:</b> , <br><b>SSID:</b> eduroam<br><b>Enc:</b> WPA3<br><b>AP:</b> 32<br>]]></description>
      <Point>
        <coordinates>-117.006759,47.696333,0</coordinates>
      </Point>
    </Placemark>
    <Placemark>
      <name>University of Idaho</name>
      <description><![CDATA[<b>Name:</b> Univ of Idaho - Sandpoint Organic Ag Center<br><b>Address:</b> , <br><b>SSID:</b> eduroam<br><b>Enc:</b> WPA3+WPA2+WPA<br><b>AP:</b> 15<br>]]></description>
      <Point>
        <coordinates>-116.5541911,48.3220527,0</coordinates>
      </Point>
    </Placemark>
    <Placemark>
      <name>University of Idaho</name>
      <description><![CDATA[<b>Name:</b> University of Idaho - Moscow Campus<br><b>Address:</b> , <br><b>SSID:</b> eduroam<br><b>Enc:</b> WPA3<br><b>AP:</b> 3200<br>]]></description>
      <Point>
        <coordinates>-117.0173241,46.7263676,0</coordinates>
      </Point>
    </Placemark>
  </Document>
</kml>
