<?xml version="1.0" encoding="UTF-8"?>
<kml xmlns="http://www.opengis.net/kml/2.2">
  <Document>
    <name>eduroam — West Virginia</name>
    <description><![CDATA[20 eduroam service locations in West Virginia.<br><br>Published by <a href="https://scs.nevada.edu/eduroam">NSHE System Computing Services</a>. Learn more about eduroam Support Organizations from <a href="https://incommon.org/eduroam">Internet2</a>, the eduroam National Roaming Operator for the United States.<br>These maps are derived from data published by GÉANT (<a href="https://monitor.eduroam.org/kml/us.kml">monitor.eduroam.org</a>). This is not an official GÉANT or eduroam publication.<br>eduroam is a registered trademark of the GÉANT Association.<br>Region boundaries are derived from US Census Bureau cartographic boundary files, which as works of the US federal government are in the public domain.<br>Maps generated by eduroam-us-regional-maps, which is BSD 3-Clause licensed.]]></description>
    <open>1</open>
    <Placemark>
      <name>Department of Veterans Affairs</name>
      <description><![CDATA[<b>Name:</b> Martinsburg VA Medical Center<br><b>Address:</b> , <br><b>SSID:</b> eduroam<br><b>Enc:</b> WPA2<br><b>AP:</b> -<br>]]></description>
      <Point>
        <coordinates>-77.909,39.41714,0</coordinates>
      </Point>
    </Placemark>
    <Placemark>
      <name>Fairmont State University</name>
      <description><![CDATA[<b>Name:</b> Fairmont State University Main Campus<br><b>Address:</b> , <br><b>SSID:</b> eduroam<br><b>Enc:</b> WPA2+WPA<br><b>AP:</b> 500<br>]]></description>
      <Point>
        <coordinates>-80.1631165,39.4857601,0</coordinates>
      </Point>
    </Placemark>
    <Placemark>
      <name>Marshall University</name>
      <description><![CDATA[<b>Name:</b> Main Campus<br><b>Address:</b> , <br><b>SSID:</b> eduroam<br><b>Enc:</b> WPA2+WPA<br><b>AP:</b> -<br>]]></description>
      <Point>
        <coordinates>-82.430718,38.4225498,0</coordinates>
      </Point>
    </Placemark>
    <Placemark>
      <name>National Oceanic and Atmospheric Administration</name>
      <description><![CDATA[<b>Name:</b> Fairmont<br><b>Address:</b> , <br><b>SSID:</b> eduroam<br><b>Enc:</b> WPA2+WPA<br><b>AP:</b> -<br>]]></description>
      <Point>
        <coordinates>-80.1939151,39.4337957,0</coordinates>
      </Point>
    </Placemark>
    <Placemark>
      <name>New River Community and Technical College</name>
      <description><![CDATA[<b>Name:</b> Greenbrier Valley Campus<br><b>Address:</b> , <br><b>SSID:</b> eduroam<br><b>Enc:</b> WPA2+WPA<br><b>AP:</b> 11<br>]]></description>
      <Point>
        <coordinates>-80.4552457,37.7965985,0</coordinates>
      </Point>
    </Placemark>
    <Placemark>
      <name>New River Community and Technical College</name>
      <description><![CDATA[<b>Name:</b> Mercer County Campus<br><b>Address:</b> , <br><b>SSID:</b> eduroam<br><b>Enc:</b> WPA2+WPA<br><b>AP:</b> 2<br>]]></description>
      <Point>
        <coordinates>-81.0965913,37.3690141,0</coordinates>
      </Point>
    </Placemark>
    <Placemark>
      <name>New River Community and Technical College</name>
      <description><![CDATA[<b>Name:</b> Nicholas County Campus<br><b>Address:</b> , <br><b>SSID:</b> eduroam<br><b>Enc:</b> WPA2+WPA<br><b>AP:</b> 3<br>]]></description>
      <Point>
        <coordinates>-80.8315075,38.311906,0</coordinates>
      </Point>
    </Placemark>
    <Placemark>
      <name>New River Community and Technical College</name>
      <description><![CDATA[<b>Name:</b> Raleigh County Campus<br><b>Address:</b> , <br><b>SSID:</b> eduroam<br><b>Enc:</b> WPA2+WPA<br><b>AP:</b> 16<br>]]></description>
      <Point>
        <coordinates>-81.131638,37.766586,0</coordinates>
      </Point>
    </Placemark>
    <Placemark>
      <name>Pierpont Community &amp; Technical College</name>
      <description><![CDATA[<b>Name:</b> Pierpont Community &amp; Technical College - ATC<br><b>Address:</b> , <br><b>SSID:</b> eduroam<br><b>Enc:</b> WPA2+WPA<br><b>AP:</b> 30<br>]]></description>
      <Point>
        <coordinates>-80.1919643,39.4320378,0</coordinates>
      </Point>
    </Placemark>
    <Placemark>
      <name>Pierpont Community &amp; Technical College</name>
      <description><![CDATA[<b>Name:</b> Pierpont Community &amp; Technical College - Braxton County High School<br><b>Address:</b> , <br><b>SSID:</b> eduroam<br><b>Enc:</b> WPA2+WPA<br><b>AP:</b> 3<br>]]></description>
      <Point>
        <coordinates>-80.6671907,38.6958124,0</coordinates>
      </Point>
    </Placemark>
    <Placemark>
      <name>Pierpont Community &amp; Technical College</name>
      <description><![CDATA[<b>Name:</b> Pierpont Community &amp; Technical College - Caperton<br><b>Address:</b> , <br><b>SSID:</b> eduroam<br><b>Enc:</b> WPA2+WPA<br><b>AP:</b> 5<br>]]></description>
      <Point>
        <coordinates>-80.3429009,39.2801193,0</coordinates>
      </Point>
    </Placemark>
    <Placemark>
      <name>Pierpont Community &amp; Technical College</name>
      <description><![CDATA[<b>Name:</b> Pierpont Community &amp; Technical College - Lewis County High School<br><b>Address:</b> , <br><b>SSID:</b> eduroam<br><b>Enc:</b> WPA2+WPA<br><b>AP:</b> 2<br>]]></description>
      <Point>
        <coordinates>-80.478138,39.01966,0</coordinates>
      </Point>
    </Placemark>
    <Placemark>
      <name>Pierpont Community &amp; Technical College</name>
      <description><![CDATA[<b>Name:</b> Pierpont Community &amp; Technical College - MTEC<br><b>Address:</b> , <br><b>SSID:</b> eduroam<br><b>Enc:</b> WPA2+WPA<br><b>AP:</b> 8<br>]]></description>
      <Point>
        <coordinates>-79.9572338,39.6112181,0</coordinates>
      </Point>
    </Placemark>
    <Placemark>
      <name>Pierpont Community &amp; Technical College</name>
      <description><![CDATA[<b>Name:</b> Pierpont Community &amp; Technical College - NAEC<br><b>Address:</b> , <br><b>SSID:</b> eduroam<br><b>Enc:</b> WPA2+WPA<br><b>AP:</b> 4<br>]]></description>
      <Point>
        <coordinates>-80.2162403,39.2999131,0</coordinates>
      </Point>
    </Placemark>
    <Placemark>
      <name>Southern West Virginia Community and Technical College</name>
      <description><![CDATA[<b>Name:</b> Southern Logan campus<br><b>Address:</b> , <br><b>SSID:</b> eduroam<br><b>Enc:</b> WPA2+WPA<br><b>AP:</b> -<br>]]></description>
      <Point>
        <coordinates>-82.0408055,37.8474991,0</coordinates>
      </Point>
    </Placemark>
    <Placemark>
      <name>West Virginia Higher Education Policy Commission</name>
      <description><![CDATA[<b>Name:</b> West Virginia Higher Education Policy Commission<br><b>Address:</b> , <br><b>SSID:</b> eduroam<br><b>Enc:</b> WPA2+WPA<br><b>AP:</b> -<br>]]></description>
      <Point>
        <coordinates>-81.6985148,38.3538136,0</coordinates>
      </Point>
    </Placemark>
    <Placemark>
      <name>West Virginia Network</name>
      <description><![CDATA[<b>Name:</b> WVNET<br><b>Address:</b> , <br><b>SSID:</b> eduroam<br><b>Enc:</b> WPA2+WPA<br><b>AP:</b> 7<br>]]></description>
      <Point>
        <coordinates>-79.9561074,39.6587906,0</coordinates>
      </Point>
    </Placemark>
    <Placemark>
      <name>West Virginia School of Osteopathic Medicine</name>
      <description><![CDATA[<b>Name:</b> WVSOM<br><b>Address:</b> , <br><b>SSID:</b> eduroam<br><b>Enc:</b> WPA2+WPA<br><b>AP:</b> 150<br>]]></description>
      <Point>
        <coordinates>-80.4381287,37.8040453,0</coordinates>
      </Point>
    </Placemark>
    <Placemark>
      <name>West Virginia University</name>
      <description><![CDATA[<b>Name:</b> Main Campus<br><b>Address:</b> , <br><b>SSID:</b> eduroam<br><b>Enc:</b> WPA2+WPA<br><b>AP:</b> -<br>]]></description>
      <Point>
        <coordinates>-79.9549537,39.6355671,0</coordinates>
      </Point>
    </Placemark>
    <Placemark>
      <name>West Virginia University at Parkersburg</name>
      <description><![CDATA[<b>Name:</b> West Virginia University at Parkersburg<br><b>Address:</b> , <br><b>SSID:</b> eduroam<br><b>Enc:</b> WPA2<br><b>AP:</b> -<br>]]></description>
      <Point>
        <coordinates>-81.5069961,39.2165703,0</coordinates>
      </Point>
    </Placemark>
  </Document>
</kml>
