<?xml version="1.0" encoding="UTF-8"?>
<kml xmlns="http://www.opengis.net/kml/2.2">
  <Document>
    <name>eduroam — Maryland</name>
    <description><![CDATA[26 eduroam service locations in Maryland.<br><br>Published by <a href="https://scs.nevada.edu/eduroam">NSHE System Computing Services</a>. Learn more about eduroam Support Organizations from <a href="https://incommon.org/eduroam">Internet2</a>, the eduroam National Roaming Operator for the United States.<br>These maps are derived from data published by GÉANT (<a href="https://monitor.eduroam.org/kml/us.kml">monitor.eduroam.org</a>). This is not an official GÉANT or eduroam publication.<br>eduroam is a registered trademark of the GÉANT Association.<br>Region boundaries are derived from US Census Bureau cartographic boundary files, which as works of the US federal government are in the public domain.<br>Maps generated by eduroam-us-regional-maps, which is BSD 3-Clause licensed.]]></description>
    <open>1</open>
    <Placemark>
      <name>Carnegie Institution for Science</name>
      <description><![CDATA[<b>Name:</b> Department of Embryology<br><b>Address:</b> , <br><b>SSID:</b> eduroam<br><b>Enc:</b> WPA2<br><b>AP:</b> -<br>]]></description>
      <Point>
        <coordinates>-76.6249855,39.330992,0</coordinates>
      </Point>
    </Placemark>
    <Placemark>
      <name>Coppin State University</name>
      <description><![CDATA[<b>Name:</b> Coppin State University<br><b>Address:</b> , <br><b>SSID:</b> eduroam<br><b>Enc:</b> WPA2+WPA<br><b>AP:</b> -<br>]]></description>
      <Point>
        <coordinates>-76.6587548,39.3100262,0</coordinates>
      </Point>
    </Placemark>
    <Placemark>
      <name>Howard Hughes Medical Institute</name>
      <description><![CDATA[<b>Name:</b> HHMI HQ<br><b>Address:</b> , <br><b>SSID:</b> eduroam<br><b>Enc:</b> WPA3+WPA2+WPA<br><b>AP:</b> 230<br>]]></description>
      <Point>
        <coordinates>-77.0796728,38.9992143,0</coordinates>
      </Point>
    </Placemark>
    <Placemark>
      <name>Johns Hopkins University</name>
      <description><![CDATA[<b>Name:</b> Main Campus<br><b>Address:</b> , <br><b>SSID:</b> eduroam<br><b>Enc:</b> WPA2+WPA<br><b>AP:</b> -<br>]]></description>
      <Point>
        <coordinates>-76.6212536,39.3296927,0</coordinates>
      </Point>
    </Placemark>
    <Placemark>
      <name>Loyola University Maryland</name>
      <description><![CDATA[<b>Name:</b> Main Campus<br><b>Address:</b> , <br><b>SSID:</b> eduroam<br><b>Enc:</b> WPA2+WPA<br><b>AP:</b> -<br>]]></description>
      <Point>
        <coordinates>-76.6224981,39.3487546,0</coordinates>
      </Point>
    </Placemark>
    <Placemark>
      <name>Morgan State University</name>
      <description><![CDATA[<b>Name:</b> Main Campus<br><b>Address:</b> , <br><b>SSID:</b> eduroam<br><b>Enc:</b> WPA2+WPA<br><b>AP:</b> -<br>]]></description>
      <Point>
        <coordinates>-76.5844922,39.3432816,0</coordinates>
      </Point>
    </Placemark>
    <Placemark>
      <name>National Institutes of Health</name>
      <description><![CDATA[<b>Name:</b> Main Campus<br><b>Address:</b> , <br><b>SSID:</b> eduroam<br><b>Enc:</b> WPA2<br><b>AP:</b> 5000<br>]]></description>
      <Point>
        <coordinates>-77.101585,39.004052,0</coordinates>
      </Point>
    </Placemark>
    <Placemark>
      <name>Prince George's Community College</name>
      <description><![CDATA[<b>Name:</b> Main Campus<br><b>Address:</b> , <br><b>SSID:</b> eduroam<br><b>Enc:</b> WPA2+WPA<br><b>AP:</b> 400<br>]]></description>
      <Point>
        <coordinates>-76.8247836,38.8890943,0</coordinates>
      </Point>
    </Placemark>
    <Placemark>
      <name>River Road Unitarian Universalist Congregation</name>
      <description><![CDATA[<b>Name:</b> River Road UU Congregation<br><b>Address:</b> , <br><b>SSID:</b> eduroam<br><b>Enc:</b> WPA2<br><b>AP:</b> 9<br>]]></description>
      <Point>
        <coordinates>-77.1268132,38.9768769,0</coordinates>
      </Point>
    </Placemark>
    <Placemark>
      <name>Salisbury University</name>
      <description><![CDATA[<b>Name:</b> Main Campus<br><b>Address:</b> , <br><b>SSID:</b> eduroam<br><b>Enc:</b> WPA2<br><b>AP:</b> 1843<br>]]></description>
      <Point>
        <coordinates>-75.6022706,38.3444631,0</coordinates>
      </Point>
    </Placemark>
    <Placemark>
      <name>Space Telescope Science Institute</name>
      <description><![CDATA[<b>Name:</b> STScI<br><b>Address:</b> , <br><b>SSID:</b> eduroam<br><b>Enc:</b> WPA2+WPA<br><b>AP:</b> 75<br>]]></description>
      <Point>
        <coordinates>-76.6232773,39.3327283,0</coordinates>
      </Point>
    </Placemark>
    <Placemark>
      <name>St. Mary's College of Maryland</name>
      <description><![CDATA[<b>Name:</b> St. Mary's College of Maryland<br><b>Address:</b> , <br><b>SSID:</b> eduroam<br><b>Enc:</b> WPA2<br><b>AP:</b> 474<br>]]></description>
      <Point>
        <coordinates>-76.4290524,38.1909404,0</coordinates>
      </Point>
    </Placemark>
    <Placemark>
      <name>Stevenson University</name>
      <description><![CDATA[<b>Name:</b> Stevenson University - Greenspring Campus<br><b>Address:</b> , <br><b>SSID:</b> eduroam<br><b>Enc:</b> WPA2<br><b>AP:</b> 52<br>]]></description>
      <Point>
        <coordinates>-76.7007086,39.4219683,0</coordinates>
      </Point>
    </Placemark>
    <Placemark>
      <name>Stevenson University</name>
      <description><![CDATA[<b>Name:</b> Stevenson University - Owings Mills Campus<br><b>Address:</b> , <br><b>SSID:</b> eduroam<br><b>Enc:</b> WPA2<br><b>AP:</b> 300<br>]]></description>
      <Point>
        <coordinates>-76.7758055,39.4264151,0</coordinates>
      </Point>
    </Placemark>
    <Placemark>
      <name>The Hotel at UMD</name>
      <description><![CDATA[<b>Name:</b> The Hotel at UMD<br><b>Address:</b> , <br><b>SSID:</b> eduroam<br><b>Enc:</b> WPA2+WPA<br><b>AP:</b> 120<br>]]></description>
      <Point>
        <coordinates>-76.9354593,38.9871469,0</coordinates>
      </Point>
    </Placemark>
    <Placemark>
      <name>ULSE INC</name>
      <description><![CDATA[<b>Name:</b> Columbia<br><b>Address:</b> , <br><b>SSID:</b> eduroam<br><b>Enc:</b> WPA2<br><b>AP:</b> 10<br>]]></description>
      <Point>
        <coordinates>-76.8144259,39.202102,0</coordinates>
      </Point>
    </Placemark>
    <Placemark>
      <name>Universities at Shady Grove</name>
      <description><![CDATA[<b>Name:</b> Universities at Shady Grove<br><b>Address:</b> , <br><b>SSID:</b> eduroam<br><b>Enc:</b> WPA2+WPA<br><b>AP:</b> 200<br>]]></description>
      <Point>
        <coordinates>-77.2011136,39.0939376,0</coordinates>
      </Point>
    </Placemark>
    <Placemark>
      <name>University of Baltimore</name>
      <description><![CDATA[<b>Name:</b> Main Campus<br><b>Address:</b> , <br><b>SSID:</b> eduroam<br><b>Enc:</b> WPA2<br><b>AP:</b> -<br>]]></description>
      <Point>
        <coordinates>-76.6165572,39.306003,0</coordinates>
      </Point>
    </Placemark>
    <Placemark>
      <name>University Of Delaware - Hotspots</name>
      <description><![CDATA[<b>Name:</b> Elkton MD<br><b>Address:</b> , <br><b>SSID:</b> eduroam<br><b>Enc:</b> WPA2+WPA<br><b>AP:</b> 1<br>]]></description>
      <Point>
        <coordinates>-75.8332718,39.6067789,0</coordinates>
      </Point>
    </Placemark>
    <Placemark>
      <name>University of Maryland - School of Medicine</name>
      <description><![CDATA[<b>Name:</b> Main Campus<br><b>Address:</b> , <br><b>SSID:</b> eduroam<br><b>Enc:</b> WPA2+WPA<br><b>AP:</b> -<br>]]></description>
      <Point>
        <coordinates>-76.625353,39.288733,0</coordinates>
      </Point>
    </Placemark>
    <Placemark>
      <name>University of Maryland Center for Environmental Science</name>
      <description><![CDATA[<b>Name:</b> CBL Campus<br><b>Address:</b> , <br><b>SSID:</b> eduroam<br><b>Enc:</b> WPA2<br><b>AP:</b> 50<br>]]></description>
      <Point>
        <coordinates>-76.4541767,38.3185798,0</coordinates>
      </Point>
    </Placemark>
    <Placemark>
      <name>University of Maryland Eastern Shore</name>
      <description><![CDATA[<b>Name:</b> UMES Main Campus<br><b>Address:</b> , <br><b>SSID:</b> eduroam<br><b>Enc:</b> WPA2<br><b>AP:</b> -<br>]]></description>
      <Point>
        <coordinates>-75.687638,38.211478,0</coordinates>
      </Point>
    </Placemark>
    <Placemark>
      <name>University of Maryland Global Campus</name>
      <description><![CDATA[<b>Name:</b> Main Campus<br><b>Address:</b> , <br><b>SSID:</b> eduroam<br><b>Enc:</b> WPA2+WPA<br><b>AP:</b> -<br>]]></description>
      <Point>
        <coordinates>-76.9534637,38.9870939,0</coordinates>
      </Point>
    </Placemark>
    <Placemark>
      <name>University of Maryland-Baltimore</name>
      <description><![CDATA[<b>Name:</b> Main Campus<br><b>Address:</b> , <br><b>SSID:</b> eduroam<br><b>Enc:</b> WPA2+WPA<br><b>AP:</b> -<br>]]></description>
      <Point>
        <coordinates>-76.624592,39.2913138,0</coordinates>
      </Point>
    </Placemark>
    <Placemark>
      <name>University of Maryland-Baltimore County</name>
      <description><![CDATA[<b>Name:</b> Main Campus<br><b>Address:</b> , <br><b>SSID:</b> eduroam<br><b>Enc:</b> WPA2+WPA<br><b>AP:</b> 3200<br>]]></description>
      <Point>
        <coordinates>-76.7109674,39.2556759,0</coordinates>
      </Point>
    </Placemark>
    <Placemark>
      <name>University of Maryland-College Park</name>
      <description><![CDATA[<b>Name:</b> Main Campus<br><b>Address:</b> , <br><b>SSID:</b> eduroam<br><b>Enc:</b> WPA2+WPA<br><b>AP:</b> -<br>]]></description>
      <Point>
        <coordinates>-76.9498364,38.9915937,0</coordinates>
      </Point>
    </Placemark>
  </Document>
</kml>
