<?xml version="1.0" encoding="UTF-8"?>
<kml xmlns="http://www.opengis.net/kml/2.2">
  <Document>
    <name>eduroam — Massachusetts</name>
    <description><![CDATA[86 eduroam service locations in Massachusetts.<br><br>Published by <a href="https://scs.nevada.edu/eduroam">NSHE System Computing Services</a>. Learn more about eduroam Support Organizations from <a href="https://incommon.org/eduroam">Internet2</a>, the eduroam National Roaming Operator for the United States.<br>These maps are derived from data published by GÉANT (<a href="https://monitor.eduroam.org/kml/us.kml">monitor.eduroam.org</a>). This is not an official GÉANT or eduroam publication.<br>eduroam is a registered trademark of the GÉANT Association.<br>Region boundaries are derived from US Census Bureau cartographic boundary files, which as works of the US federal government are in the public domain.<br>Maps generated by eduroam-us-regional-maps, which is BSD 3-Clause licensed.]]></description>
    <open>1</open>
    <Placemark>
      <name>Amherst College</name>
      <description><![CDATA[<b>Name:</b> Main Campus<br><b>Address:</b> , <br><b>SSID:</b> eduroam<br><b>Enc:</b> WPA2+WPA<br><b>AP:</b> 1300<br>]]></description>
      <Point>
        <coordinates>-72.514119,42.3720919,0</coordinates>
      </Point>
    </Placemark>
    <Placemark>
      <name>Babson College</name>
      <description><![CDATA[<b>Name:</b> Boston Campus - Boston<br><b>Address:</b> , <br><b>SSID:</b> eduroam<br><b>Enc:</b> WPA2<br><b>AP:</b> -<br>]]></description>
      <Point>
        <coordinates>-71.0553055,42.3544742,0</coordinates>
      </Point>
    </Placemark>
    <Placemark>
      <name>Babson College</name>
      <description><![CDATA[<b>Name:</b> Main Campus - Babson Park - Wellesley<br><b>Address:</b> , <br><b>SSID:</b> eduroam<br><b>Enc:</b> WPA2<br><b>AP:</b> -<br>]]></description>
      <Point>
        <coordinates>-71.2623405,42.2990302,0</coordinates>
      </Point>
    </Placemark>
    <Placemark>
      <name>Bentley University</name>
      <description><![CDATA[<b>Name:</b> Bentley University<br><b>Address:</b> , <br><b>SSID:</b> eduroam<br><b>Enc:</b> WPA2+WPA<br><b>AP:</b> 2136<br>]]></description>
      <Point>
        <coordinates>-71.2206346,42.3870119,0</coordinates>
      </Point>
    </Placemark>
    <Placemark>
      <name>Berklee College of Music</name>
      <description><![CDATA[<b>Name:</b> Boston Campus<br><b>Address:</b> , <br><b>SSID:</b> eduroam<br><b>Enc:</b> WPA2<br><b>AP:</b> 800<br>]]></description>
      <Point>
        <coordinates>-71.0895205,42.3465835,0</coordinates>
      </Point>
    </Placemark>
    <Placemark>
      <name>Boston College</name>
      <description><![CDATA[<b>Name:</b> Main Campus<br><b>Address:</b> , <br><b>SSID:</b> eduroam<br><b>Enc:</b> WPA3+WPA2+WPA<br><b>AP:</b> 3000<br>]]></description>
      <Point>
        <coordinates>-71.1682973,42.3366632,0</coordinates>
      </Point>
    </Placemark>
    <Placemark>
      <name>Boston University</name>
      <description><![CDATA[<b>Name:</b> Main Campus<br><b>Address:</b> , <br><b>SSID:</b> eduroam<br><b>Enc:</b> WPA2+WPA<br><b>AP:</b> 10000<br>]]></description>
      <Point>
        <coordinates>-71.1073179,42.3507561,0</coordinates>
      </Point>
    </Placemark>
    <Placemark>
      <name>Brandeis University</name>
      <description><![CDATA[<b>Name:</b> Main Campus<br><b>Address:</b> , <br><b>SSID:</b> eduroam<br><b>Enc:</b> WPA2+WPA<br><b>AP:</b> 3700<br>]]></description>
      <Point>
        <coordinates>-71.2588463,42.3662483,0</coordinates>
      </Point>
    </Placemark>
    <Placemark>
      <name>Bridgewater State University</name>
      <description><![CDATA[<b>Name:</b> Bridgewater State University Main Campus<br><b>Address:</b> , <br><b>SSID:</b> eduroam<br><b>Enc:</b> WPA2+WPA<br><b>AP:</b> 1785<br>]]></description>
      <Point>
        <coordinates>-70.9719561,41.987544,0</coordinates>
      </Point>
    </Placemark>
    <Placemark>
      <name>Bristol Community College</name>
      <description><![CDATA[<b>Name:</b> BristolCC - Attleboro Campus<br><b>Address:</b> , <br><b>SSID:</b> eduroam<br><b>Enc:</b> WPA2+WPA<br><b>AP:</b> 35<br>]]></description>
      <Point>
        <coordinates>-71.2736964,41.947825,0</coordinates>
      </Point>
    </Placemark>
    <Placemark>
      <name>Bristol Community College</name>
      <description><![CDATA[<b>Name:</b> BristolCC - Davol Street Location<br><b>Address:</b> , <br><b>SSID:</b> eduroam<br><b>Enc:</b> WPA2+WPA<br><b>AP:</b> 15<br>]]></description>
      <Point>
        <coordinates>-71.1549271,41.7177168,0</coordinates>
      </Point>
    </Placemark>
    <Placemark>
      <name>Bristol Community College</name>
      <description><![CDATA[<b>Name:</b> BristolCC - Elsbree Street<br><b>Address:</b> , <br><b>SSID:</b> eduroam<br><b>Enc:</b> WPA2+WPA<br><b>AP:</b> 120<br>]]></description>
      <Point>
        <coordinates>-71.1199531,41.7213632,0</coordinates>
      </Point>
    </Placemark>
    <Placemark>
      <name>Bristol Community College</name>
      <description><![CDATA[<b>Name:</b> BristolCC - New Bedford<br><b>Address:</b> , <br><b>SSID:</b> eduroam<br><b>Enc:</b> WPA2+WPA<br><b>AP:</b> 35<br>]]></description>
      <Point>
        <coordinates>-70.9256504,41.635239,0</coordinates>
      </Point>
    </Placemark>
    <Placemark>
      <name>Bristol Community College</name>
      <description><![CDATA[<b>Name:</b> BristolCC - Taunton Location<br><b>Address:</b> , <br><b>SSID:</b> eduroam<br><b>Enc:</b> WPA2+WPA<br><b>AP:</b> 30<br>]]></description>
      <Point>
        <coordinates>-71.0519346,41.8643543,0</coordinates>
      </Point>
    </Placemark>
    <Placemark>
      <name>Cape Cod Community College</name>
      <description><![CDATA[<b>Name:</b> CCCC Main Campus<br><b>Address:</b> , <br><b>SSID:</b> eduroam<br><b>Enc:</b> WPA2+WPA<br><b>AP:</b> 180<br>]]></description>
      <Point>
        <coordinates>-70.3370368,41.6915014,0</coordinates>
      </Point>
    </Placemark>
    <Placemark>
      <name>Cape Cod Community College</name>
      <description><![CDATA[<b>Name:</b> CCCC Plymouth Aviation Facility<br><b>Address:</b> , <br><b>SSID:</b> eduroam<br><b>Enc:</b> WPA2+WPA<br><b>AP:</b> 7<br>]]></description>
      <Point>
        <coordinates>-70.645473,41.8804637,0</coordinates>
      </Point>
    </Placemark>
    <Placemark>
      <name>Clark University</name>
      <description><![CDATA[<b>Name:</b> Main Campus<br><b>Address:</b> , <br><b>SSID:</b> eduroam<br><b>Enc:</b> WPA2+WPA<br><b>AP:</b> 1250<br>]]></description>
      <Point>
        <coordinates>-71.8235112,42.2510828,0</coordinates>
      </Point>
    </Placemark>
    <Placemark>
      <name>College of the Holy Cross</name>
      <description><![CDATA[<b>Name:</b> College of the Holy Cross<br><b>Address:</b> , <br><b>SSID:</b> eduroam<br><b>Enc:</b> WPA2<br><b>AP:</b> 1100<br>]]></description>
      <Point>
        <coordinates>-71.8071938,42.2375733,0</coordinates>
      </Point>
    </Placemark>
    <Placemark>
      <name>Department of Veterans Affairs</name>
      <description><![CDATA[<b>Name:</b> Bedford VAH<br><b>Address:</b> , <br><b>SSID:</b> eduroam<br><b>Enc:</b> WPA2<br><b>AP:</b> -<br>]]></description>
      <Point>
        <coordinates>-71.2750675,42.5025009,0</coordinates>
      </Point>
    </Placemark>
    <Placemark>
      <name>Department of Veterans Affairs</name>
      <description><![CDATA[<b>Name:</b> Brockton VA Medical Center<br><b>Address:</b> , <br><b>SSID:</b> eduroam<br><b>Enc:</b> WPA2<br><b>AP:</b> -<br>]]></description>
      <Point>
        <coordinates>-71.0540244,42.0629693,0</coordinates>
      </Point>
    </Placemark>
    <Placemark>
      <name>Department of Veterans Affairs</name>
      <description><![CDATA[<b>Name:</b> Jamaica Plains VA Medical Center<br><b>Address:</b> , <br><b>SSID:</b> eduroam<br><b>Enc:</b> WPA2<br><b>AP:</b> -<br>]]></description>
      <Point>
        <coordinates>-71.0821089,42.3446375,0</coordinates>
      </Point>
    </Placemark>
    <Placemark>
      <name>Department of Veterans Affairs</name>
      <description><![CDATA[<b>Name:</b> Northampton VA Medical Center<br><b>Address:</b> , <br><b>SSID:</b> eduroam<br><b>Enc:</b> WPA2<br><b>AP:</b> -<br>]]></description>
      <Point>
        <coordinates>-72.682381,42.3494809,0</coordinates>
      </Point>
    </Placemark>
    <Placemark>
      <name>Department of Veterans Affairs</name>
      <description><![CDATA[<b>Name:</b> W. Roxbury VAMC<br><b>Address:</b> , <br><b>SSID:</b> eduroam<br><b>Enc:</b> WPA2+WPA<br><b>AP:</b> -<br>]]></description>
      <Point>
        <coordinates>-71.1710304,42.2753725,0</coordinates>
      </Point>
    </Placemark>
    <Placemark>
      <name>Department of Veterans Affairs</name>
      <description><![CDATA[<b>Name:</b> West Roxbury VA Medical Center<br><b>Address:</b> , <br><b>SSID:</b> eduroam<br><b>Enc:</b> WPA2<br><b>AP:</b> -<br>]]></description>
      <Point>
        <coordinates>-71.1718538,42.2742444,0</coordinates>
      </Point>
    </Placemark>
    <Placemark>
      <name>Department of Veterans Affairs</name>
      <description><![CDATA[<b>Name:</b> Worcester CBOC<br><b>Address:</b> , <br><b>SSID:</b> eduroam<br><b>Enc:</b> WPA2<br><b>AP:</b> -<br>]]></description>
      <Point>
        <coordinates>-71.7609321,42.2752581,0</coordinates>
      </Point>
    </Placemark>
    <Placemark>
      <name>Emerson College</name>
      <description><![CDATA[<b>Name:</b> Emerson Boston Campus<br><b>Address:</b> , <br><b>SSID:</b> eduroam<br><b>Enc:</b> WPA2<br><b>AP:</b> 1300<br>]]></description>
      <Point>
        <coordinates>-71.0658435,42.35223,0</coordinates>
      </Point>
    </Placemark>
    <Placemark>
      <name>Emmanuel College</name>
      <description><![CDATA[<b>Name:</b> Main Campus<br><b>Address:</b> , <br><b>SSID:</b> eduroam<br><b>Enc:</b> WPA2+WPA<br><b>AP:</b> -<br>]]></description>
      <Point>
        <coordinates>-71.1034912,42.3414431,0</coordinates>
      </Point>
    </Placemark>
    <Placemark>
      <name>Framingham State University</name>
      <description><![CDATA[<b>Name:</b> Main Campus<br><b>Address:</b> , <br><b>SSID:</b> eduroam<br><b>Enc:</b> WPA2+WPA<br><b>AP:</b> -<br>]]></description>
      <Point>
        <coordinates>-71.4370463,42.2979259,0</coordinates>
      </Point>
    </Placemark>
    <Placemark>
      <name>Framingham State University</name>
      <description><![CDATA[<b>Name:</b> Warren Conference Center<br><b>Address:</b> , <br><b>SSID:</b> eduroam<br><b>Enc:</b> WPA2+WPA<br><b>AP:</b> 40<br>]]></description>
      <Point>
        <coordinates>-71.4609575,42.237192,0</coordinates>
      </Point>
    </Placemark>
    <Placemark>
      <name>Hampshire College</name>
      <description><![CDATA[<b>Name:</b> Main Campus<br><b>Address:</b> , <br><b>SSID:</b> eduroam<br><b>Enc:</b> WPA2+WPA<br><b>AP:</b> -<br>]]></description>
      <Point>
        <coordinates>-72.5315026,42.3256781,0</coordinates>
      </Point>
    </Placemark>
    <Placemark>
      <name>Harvard University</name>
      <description><![CDATA[<b>Name:</b> Main Campus<br><b>Address:</b> , <br><b>SSID:</b> eduroam<br><b>Enc:</b> WPA2+WPA<br><b>AP:</b> 12000<br>]]></description>
      <Point>
        <coordinates>-71.1190983,42.3711258,0</coordinates>
      </Point>
    </Placemark>
    <Placemark>
      <name>Information Sciences Institute</name>
      <description><![CDATA[<b>Name:</b> USC - Information Sciences Institute BOS<br><b>Address:</b> , <br><b>SSID:</b> eduroam<br><b>Enc:</b> WPA2<br><b>AP:</b> -<br>]]></description>
      <Point>
        <coordinates>-71.2792205,42.4052658,0</coordinates>
      </Point>
    </Placemark>
    <Placemark>
      <name>Integration Partners</name>
      <description><![CDATA[<b>Name:</b> Headquarters<br><b>Address:</b> , <br><b>SSID:</b> eduroam<br><b>Enc:</b> WPA2+WPA<br><b>AP:</b> -<br>]]></description>
      <Point>
        <coordinates>-71.252868,42.4744079,0</coordinates>
      </Point>
    </Placemark>
    <Placemark>
      <name>Lasell University</name>
      <description><![CDATA[<b>Name:</b> Lasell University<br><b>Address:</b> , <br><b>SSID:</b> eduroam<br><b>Enc:</b> WPA3<br><b>AP:</b> 700<br>]]></description>
      <Point>
        <coordinates>-71.2444217,42.3427032,0</coordinates>
      </Point>
    </Placemark>
    <Placemark>
      <name>Lesley University</name>
      <description><![CDATA[<b>Name:</b> Lesley University (Brattle Campus)<br><b>Address:</b> , <br><b>SSID:</b> eduroam<br><b>Enc:</b> WPA2+WPA<br><b>AP:</b> 90<br>]]></description>
      <Point>
        <coordinates>-71.1240095,42.3763445,0</coordinates>
      </Point>
    </Placemark>
    <Placemark>
      <name>Lesley University</name>
      <description><![CDATA[<b>Name:</b> Lesley University (Doble Campus)<br><b>Address:</b> , <br><b>SSID:</b> eduroam<br><b>Enc:</b> WPA2+WPA<br><b>AP:</b> 170<br>]]></description>
      <Point>
        <coordinates>-71.1177535,42.3809016,0</coordinates>
      </Point>
    </Placemark>
    <Placemark>
      <name>Lesley University</name>
      <description><![CDATA[<b>Name:</b> Lesley University (Porter Campus)<br><b>Address:</b> , <br><b>SSID:</b> eduroam<br><b>Enc:</b> WPA2+WPA<br><b>AP:</b> 125<br>]]></description>
      <Point>
        <coordinates>-71.1185319,42.3872124,0</coordinates>
      </Point>
    </Placemark>
    <Placemark>
      <name>Marine Biological Laboratory</name>
      <description><![CDATA[<b>Name:</b> Main Campus<br><b>Address:</b> , <br><b>SSID:</b> eduroam<br><b>Enc:</b> WPA2+WPA<br><b>AP:</b> -<br>]]></description>
      <Point>
        <coordinates>-70.6724508,41.5255815,0</coordinates>
      </Point>
    </Placemark>
    <Placemark>
      <name>Massachusetts Bay Community College</name>
      <description><![CDATA[<b>Name:</b> Ashland campus<br><b>Address:</b> , <br><b>SSID:</b> eduroam<br><b>Enc:</b> WPA2<br><b>AP:</b> 17<br>]]></description>
      <Point>
        <coordinates>-71.4359661,42.2420584,0</coordinates>
      </Point>
    </Placemark>
    <Placemark>
      <name>Massachusetts Bay Community College</name>
      <description><![CDATA[<b>Name:</b> Framingham campus<br><b>Address:</b> , <br><b>SSID:</b> eduroam<br><b>Enc:</b> WPA2<br><b>AP:</b> 10<br>]]></description>
      <Point>
        <coordinates>-71.4139804,42.2920676,0</coordinates>
      </Point>
    </Placemark>
    <Placemark>
      <name>Massachusetts Bay Community College</name>
      <description><![CDATA[<b>Name:</b> Wellesley Main Campus<br><b>Address:</b> , <br><b>SSID:</b> eduroam<br><b>Enc:</b> WPA2+WPA<br><b>AP:</b> 160<br>]]></description>
      <Point>
        <coordinates>-71.2634947,42.3121458,0</coordinates>
      </Point>
    </Placemark>
    <Placemark>
      <name>Massachusetts College of Art and Design</name>
      <description><![CDATA[<b>Name:</b> Main Campus<br><b>Address:</b> , <br><b>SSID:</b> eduroam<br><b>Enc:</b> WPA2+WPA<br><b>AP:</b> -<br>]]></description>
      <Point>
        <coordinates>-71.099619,42.336798,0</coordinates>
      </Point>
    </Placemark>
    <Placemark>
      <name>Massachusetts College of Liberal Arts</name>
      <description><![CDATA[<b>Name:</b> Massachusetts College of Liberal Arts<br><b>Address:</b> , <br><b>SSID:</b> eduroam<br><b>Enc:</b> WPA2+WPA<br><b>AP:</b> 550<br>]]></description>
      <Point>
        <coordinates>-73.1033372,42.691554,0</coordinates>
      </Point>
    </Placemark>
    <Placemark>
      <name>Massachusetts College of Pharmacy and Health Sciences</name>
      <description><![CDATA[<b>Name:</b> Main Campus<br><b>Address:</b> , <br><b>SSID:</b> eduroam<br><b>Enc:</b> WPA2+WPA<br><b>AP:</b> -<br>]]></description>
      <Point>
        <coordinates>-71.1014154,42.3364998,0</coordinates>
      </Point>
    </Placemark>
    <Placemark>
      <name>Massachusetts Institute of Technology</name>
      <description><![CDATA[<b>Name:</b> Main Campus<br><b>Address:</b> , <br><b>SSID:</b> eduroam<br><b>Enc:</b> WPA2+WPA<br><b>AP:</b> -<br>]]></description>
      <Point>
        <coordinates>-71.0930025,42.3592206,0</coordinates>
      </Point>
    </Placemark>
    <Placemark>
      <name>Massasoit Community College</name>
      <description><![CDATA[<b>Name:</b> Massasoit-Brockton Campus<br><b>Address:</b> , <br><b>SSID:</b> eduroam<br><b>Enc:</b> WPA2+WPA<br><b>AP:</b> 100<br>]]></description>
      <Point>
        <coordinates>-70.9900209,42.0758677,0</coordinates>
      </Point>
    </Placemark>
    <Placemark>
      <name>Massasoit Community College</name>
      <description><![CDATA[<b>Name:</b> Massasoit-Canton Campus<br><b>Address:</b> , <br><b>SSID:</b> eduroam<br><b>Enc:</b> WPA2+WPA<br><b>AP:</b> 30<br>]]></description>
      <Point>
        <coordinates>-71.101347,42.184123,0</coordinates>
      </Point>
    </Placemark>
    <Placemark>
      <name>Mount Holyoke College</name>
      <description><![CDATA[<b>Name:</b> Main Campus<br><b>Address:</b> , <br><b>SSID:</b> eduroam<br><b>Enc:</b> WPA2+WPA<br><b>AP:</b> -<br>]]></description>
      <Point>
        <coordinates>-72.5740439,42.2561414,0</coordinates>
      </Point>
    </Placemark>
    <Placemark>
      <name>Mount Wachusett Community College</name>
      <description><![CDATA[<b>Name:</b> Mount Wachusett Community College - Main Campus<br><b>Address:</b> , <br><b>SSID:</b> eduroam<br><b>Enc:</b> WPA2+WPA<br><b>AP:</b> -<br>]]></description>
      <Point>
        <coordinates>-71.9842318,42.5931669,0</coordinates>
      </Point>
    </Placemark>
    <Placemark>
      <name>Northeastern University</name>
      <description><![CDATA[<b>Name:</b> Main Campus<br><b>Address:</b> , <br><b>SSID:</b> eduroam<br><b>Enc:</b> WPA2<br><b>AP:</b> -<br>]]></description>
      <Point>
        <coordinates>-71.0878997,42.3395225,0</coordinates>
      </Point>
    </Placemark>
    <Placemark>
      <name>Olin College of Engineering</name>
      <description><![CDATA[<b>Name:</b> Olin College of Engineering<br><b>Address:</b> , <br><b>SSID:</b> eduroam<br><b>Enc:</b> WPA3+WPA2+WPA<br><b>AP:</b> 300<br>]]></description>
      <Point>
        <coordinates>-71.2634074,42.2935971,0</coordinates>
      </Point>
    </Placemark>
    <Placemark>
      <name>Painless Security</name>
      <description><![CDATA[<b>Name:</b> Painless Security<br><b>Address:</b> , <br><b>SSID:</b> eduroam<br><b>Enc:</b> WPA2+WPA<br><b>AP:</b> 1<br>]]></description>
      <Point>
        <coordinates>-71.1265517,42.701042,0</coordinates>
      </Point>
    </Placemark>
    <Placemark>
      <name>Quinsigamond Community College</name>
      <description><![CDATA[<b>Name:</b> Quinsigamond Community College - Downtown<br><b>Address:</b> , <br><b>SSID:</b> eduroam<br><b>Enc:</b> WPA2<br><b>AP:</b> -<br>]]></description>
      <Point>
        <coordinates>-71.8022746,42.2611526,0</coordinates>
      </Point>
    </Placemark>
    <Placemark>
      <name>Quinsigamond Community College</name>
      <description><![CDATA[<b>Name:</b> Quinsigamond Community College - Main Campus<br><b>Address:</b> , <br><b>SSID:</b> eduroam<br><b>Enc:</b> WPA2<br><b>AP:</b> -<br>]]></description>
      <Point>
        <coordinates>-71.7953313,42.3158107,0</coordinates>
      </Point>
    </Placemark>
    <Placemark>
      <name>Quinsigamond Community College</name>
      <description><![CDATA[<b>Name:</b> Quinsigamond Community College - Senior Center (3rd Floor)<br><b>Address:</b> , <br><b>SSID:</b> eduroam<br><b>Enc:</b> WPA2<br><b>AP:</b> -<br>]]></description>
      <Point>
        <coordinates>-71.7930147,42.248121,0</coordinates>
      </Point>
    </Placemark>
    <Placemark>
      <name>Salem State University</name>
      <description><![CDATA[<b>Name:</b> Salem State University - Central Campus<br><b>Address:</b> , <br><b>SSID:</b> eduroam<br><b>Enc:</b> WPA2+WPA<br><b>AP:</b> 2000<br>]]></description>
      <Point>
        <coordinates>-70.893955,42.5000493,0</coordinates>
      </Point>
    </Placemark>
    <Placemark>
      <name>Simmons College</name>
      <description><![CDATA[<b>Name:</b> Main Campus<br><b>Address:</b> , <br><b>SSID:</b> eduroam<br><b>Enc:</b> WPA2+WPA<br><b>AP:</b> -<br>]]></description>
      <Point>
        <coordinates>-71.100441,42.338939,0</coordinates>
      </Point>
    </Placemark>
    <Placemark>
      <name>Single Digits</name>
      <description><![CDATA[<b>Name:</b> UMASS Boston<br><b>Address:</b> , <br><b>SSID:</b> eduroam<br><b>Enc:</b> WPA2+WPA<br><b>AP:</b> -<br>]]></description>
      <Point>
        <coordinates>-71.0489348,42.3168473,0</coordinates>
      </Point>
    </Placemark>
    <Placemark>
      <name>Smith College</name>
      <description><![CDATA[<b>Name:</b> Main Campus<br><b>Address:</b> , <br><b>SSID:</b> eduroam<br><b>Enc:</b> WPA2+WPA<br><b>AP:</b> -<br>]]></description>
      <Point>
        <coordinates>-72.6398988,42.3172528,0</coordinates>
      </Point>
    </Placemark>
    <Placemark>
      <name>Springfield College</name>
      <description><![CDATA[<b>Name:</b> Springfield College<br><b>Address:</b> , <br><b>SSID:</b> eduroam<br><b>Enc:</b> WPA2+WPA<br><b>AP:</b> 767<br>]]></description>
      <Point>
        <coordinates>-72.5572572,42.1029939,0</coordinates>
      </Point>
    </Placemark>
    <Placemark>
      <name>The Clark Art Institute</name>
      <description><![CDATA[<b>Name:</b> The Clark<br><b>Address:</b> , <br><b>SSID:</b> eduroam<br><b>Enc:</b> WPA2+WPA<br><b>AP:</b> 55<br>]]></description>
      <Point>
        <coordinates>-73.2138641,42.7072792,0</coordinates>
      </Point>
    </Placemark>
    <Placemark>
      <name>Tufts University</name>
      <description><![CDATA[<b>Name:</b> Main Campus<br><b>Address:</b> , <br><b>SSID:</b> eduroam<br><b>Enc:</b> WPA2+WPA<br><b>AP:</b> -<br>]]></description>
      <Point>
        <coordinates>-71.1187016,42.4068148,0</coordinates>
      </Point>
    </Placemark>
    <Placemark>
      <name>University of Massachusetts Amherst</name>
      <description><![CDATA[<b>Name:</b> Main Campus<br><b>Address:</b> , <br><b>SSID:</b> eduroam<br><b>Enc:</b> WPA2+WPA<br><b>AP:</b> 7000<br>]]></description>
      <Point>
        <coordinates>-72.5253785,42.3918417,0</coordinates>
      </Point>
    </Placemark>
    <Placemark>
      <name>University of Massachusetts Amherst</name>
      <description><![CDATA[<b>Name:</b> UMass Amherst Office of Alumni Relations<br><b>Address:</b> , <br><b>SSID:</b> eduroam<br><b>Enc:</b> WPA2<br><b>AP:</b> 3<br>]]></description>
      <Point>
        <coordinates>-72.549068,42.3602405,0</coordinates>
      </Point>
    </Placemark>
    <Placemark>
      <name>University of Massachusetts Amherst</name>
      <description><![CDATA[<b>Name:</b> UMass Aviation Research and Training Center<br><b>Address:</b> , <br><b>SSID:</b> eduroam<br><b>Enc:</b> WPA2<br><b>AP:</b> 3<br>]]></description>
      <Point>
        <coordinates>-72.5558413,42.1796473,0</coordinates>
      </Point>
    </Placemark>
    <Placemark>
      <name>University of Massachusetts Amherst</name>
      <description><![CDATA[<b>Name:</b> UMass Cold Spring Orchard Research &amp; Education Center<br><b>Address:</b> , <br><b>SSID:</b> eduroam<br><b>Enc:</b> WPA2<br><b>AP:</b> 5<br>]]></description>
      <Point>
        <coordinates>-72.3597641,42.2533996,0</coordinates>
      </Point>
    </Placemark>
    <Placemark>
      <name>University of Massachusetts Amherst</name>
      <description><![CDATA[<b>Name:</b> UMass Cranberry Station<br><b>Address:</b> , <br><b>SSID:</b> eduroam<br><b>Enc:</b> WPA2<br><b>AP:</b> 10<br>]]></description>
      <Point>
        <coordinates>-70.6682368,41.7654654,0</coordinates>
      </Point>
    </Placemark>
    <Placemark>
      <name>University of Massachusetts Amherst</name>
      <description><![CDATA[<b>Name:</b> UMass Gloucester Marine Station<br><b>Address:</b> , <br><b>SSID:</b> eduroam<br><b>Enc:</b> WPA2<br><b>AP:</b> 6<br>]]></description>
      <Point>
        <coordinates>-70.6670344,42.6678046,0</coordinates>
      </Point>
    </Placemark>
    <Placemark>
      <name>University of Massachusetts Medical School Worcester</name>
      <description><![CDATA[<b>Name:</b> UMass Medical School Campus<br><b>Address:</b> , <br><b>SSID:</b> eduroam<br><b>Enc:</b> WPA2<br><b>AP:</b> -<br>]]></description>
      <Point>
        <coordinates>-71.7616372,42.2776728,0</coordinates>
      </Point>
    </Placemark>
    <Placemark>
      <name>University of Massachusetts-Boston</name>
      <description><![CDATA[<b>Name:</b> Main Campus<br><b>Address:</b> , <br><b>SSID:</b> eduroam<br><b>Enc:</b> WPA2+WPA<br><b>AP:</b> -<br>]]></description>
      <Point>
        <coordinates>-71.0370298,42.3148046,0</coordinates>
      </Point>
    </Placemark>
    <Placemark>
      <name>University of Massachusetts-Dartmouth</name>
      <description><![CDATA[<b>Name:</b> Center for Innovation &amp; Entrepreneurship<br><b>Address:</b> , <br><b>SSID:</b> eduroam<br><b>Enc:</b> WPA2+WPA<br><b>AP:</b> 14<br>]]></description>
      <Point>
        <coordinates>-71.1269339,41.6804607,0</coordinates>
      </Point>
    </Placemark>
    <Placemark>
      <name>University of Massachusetts-Dartmouth</name>
      <description><![CDATA[<b>Name:</b> Law School Campus<br><b>Address:</b> , <br><b>SSID:</b> eduroam<br><b>Enc:</b> WPA2+WPA<br><b>AP:</b> 20<br>]]></description>
      <Point>
        <coordinates>-70.9881703,41.6612912,0</coordinates>
      </Point>
    </Placemark>
    <Placemark>
      <name>University of Massachusetts-Dartmouth</name>
      <description><![CDATA[<b>Name:</b> Main Campus<br><b>Address:</b> , <br><b>SSID:</b> eduroam<br><b>Enc:</b> WPA2+WPA<br><b>AP:</b> 1599<br>]]></description>
      <Point>
        <coordinates>-71.0063874,41.6294204,0</coordinates>
      </Point>
    </Placemark>
    <Placemark>
      <name>University of Massachusetts-Dartmouth</name>
      <description><![CDATA[<b>Name:</b> New Bedford CVPA<br><b>Address:</b> , <br><b>SSID:</b> eduroam<br><b>Enc:</b> WPA2+WPA<br><b>AP:</b> 29<br>]]></description>
      <Point>
        <coordinates>-70.9264182,41.6340248,0</coordinates>
      </Point>
    </Placemark>
    <Placemark>
      <name>University of Massachusetts-Dartmouth</name>
      <description><![CDATA[<b>Name:</b> School for Marine Science &amp; Technology<br><b>Address:</b> , <br><b>SSID:</b> eduroam<br><b>Enc:</b> WPA2+WPA<br><b>AP:</b> 53<br>]]></description>
      <Point>
        <coordinates>-70.9151395,41.6053411,0</coordinates>
      </Point>
    </Placemark>
    <Placemark>
      <name>University of Massachusetts-Lowell</name>
      <description><![CDATA[<b>Name:</b> Main Campus<br><b>Address:</b> , <br><b>SSID:</b> eduroam<br><b>Enc:</b> WPA2+WPA<br><b>AP:</b> 2800<br>]]></description>
      <Point>
        <coordinates>-71.3250036,42.6539217,0</coordinates>
      </Point>
    </Placemark>
    <Placemark>
      <name>University of Massachusetts-Office of the President</name>
      <description><![CDATA[<b>Name:</b> Main Campus<br><b>Address:</b> , <br><b>SSID:</b> eduroam<br><b>Enc:</b> WPA2+WPA<br><b>AP:</b> -<br>]]></description>
      <Point>
        <coordinates>-71.689442,42.2742025,0</coordinates>
      </Point>
    </Placemark>
    <Placemark>
      <name>Wellesley College</name>
      <description><![CDATA[<b>Name:</b> Main Campus<br><b>Address:</b> , <br><b>SSID:</b> eduroam<br><b>Enc:</b> WPA2+WPA<br><b>AP:</b> 1500<br>]]></description>
      <Point>
        <coordinates>-71.306703,42.2934225,0</coordinates>
      </Point>
    </Placemark>
    <Placemark>
      <name>Wentworth Institute of Technology</name>
      <description><![CDATA[<b>Name:</b> Main Campus<br><b>Address:</b> , <br><b>SSID:</b> eduroam<br><b>Enc:</b> WPA2+WPA<br><b>AP:</b> 814<br>]]></description>
      <Point>
        <coordinates>-71.0957071,42.3366516,0</coordinates>
      </Point>
    </Placemark>
    <Placemark>
      <name>Westfield State University</name>
      <description><![CDATA[<b>Name:</b> Main Campus<br><b>Address:</b> , <br><b>SSID:</b> eduroam<br><b>Enc:</b> WPA2+WPA<br><b>AP:</b> -<br>]]></description>
      <Point>
        <coordinates>-72.7947404,42.1317462,0</coordinates>
      </Point>
    </Placemark>
    <Placemark>
      <name>Whitehead Institute</name>
      <description><![CDATA[<b>Name:</b> Whitehead Institute<br><b>Address:</b> , <br><b>SSID:</b> eduroam<br><b>Enc:</b> WPA2<br><b>AP:</b> 130<br>]]></description>
      <Point>
        <coordinates>-71.089366,42.3634197,0</coordinates>
      </Point>
    </Placemark>
    <Placemark>
      <name>Williams College</name>
      <description><![CDATA[<b>Name:</b> Hopkins Memorial Forest<br><b>Address:</b> , <br><b>SSID:</b> eduroam<br><b>Enc:</b> WPA2+WPA<br><b>AP:</b> 5<br>]]></description>
      <Point>
        <coordinates>-73.2246042,42.7235404,0</coordinates>
      </Point>
    </Placemark>
    <Placemark>
      <name>Williams College</name>
      <description><![CDATA[<b>Name:</b> Williamstown Campus<br><b>Address:</b> , <br><b>SSID:</b> eduroam<br><b>Enc:</b> WPA2+WPA<br><b>AP:</b> 1907<br>]]></description>
      <Point>
        <coordinates>-73.205262,42.713301,0</coordinates>
      </Point>
    </Placemark>
    <Placemark>
      <name>Woods Hole Oceanographic Institution</name>
      <description><![CDATA[<b>Name:</b> Main Campus<br><b>Address:</b> , <br><b>SSID:</b> eduroam<br><b>Enc:</b> WPA2+WPA<br><b>AP:</b> 270<br>]]></description>
      <Point>
        <coordinates>-70.6710657,41.524508,0</coordinates>
      </Point>
    </Placemark>
    <Placemark>
      <name>Worcester Polytechnic Institute</name>
      <description><![CDATA[<b>Name:</b> Main Campus<br><b>Address:</b> , <br><b>SSID:</b> eduroam<br><b>Enc:</b> WPA2<br><b>AP:</b> 1500<br>]]></description>
      <Point>
        <coordinates>-71.8097734,42.2743398,0</coordinates>
      </Point>
    </Placemark>
    <Placemark>
      <name>Worcester State University</name>
      <description><![CDATA[<b>Name:</b> Main Campus<br><b>Address:</b> , <br><b>SSID:</b> eduroam<br><b>Enc:</b> WPA2+WPA<br><b>AP:</b> -<br>]]></description>
      <Point>
        <coordinates>-71.8440057,42.2690588,0</coordinates>
      </Point>
    </Placemark>
  </Document>
</kml>
