<?xml version="1.0" encoding="UTF-8"?>
<kml xmlns="http://www.opengis.net/kml/2.2">
  <Document>
    <name>eduroam — District of Columbia</name>
    <description><![CDATA[14 eduroam service locations in District of Columbia.<br><br>Published by <a href="https://scs.nevada.edu/eduroam">NSHE System Computing Services</a>. Learn more about eduroam Support Organizations from <a href="https://incommon.org/eduroam">Internet2</a>, the eduroam National Roaming Operator for the United States.<br>Service location data comes from the eduroam location database published by GÉANT (<a href="https://monitor.eduroam.org/kml/us.kml">monitor.eduroam.org</a>). These maps are derived from it and are not an official GÉANT or eduroam publication.<br>eduroam is a registered trademark of GÉANT Vereniging.<br>Region boundaries are derived from US Census Bureau cartographic boundary files, which as works of the US federal government are in the public domain.<br>Maps generated by eduroam-us-regional-maps, which is BSD 3-Clause licensed.]]></description>
    <open>1</open>
    <Placemark>
      <name>American University</name>
      <description><![CDATA[<b>Name:</b> American University Washington DC Campus<br><b>Address:</b> , <br><b>SSID:</b> eduroam<br><b>Enc:</b> WPA3+WPA2+WPA<br><b>AP:</b> 2200<br>]]></description>
      <Point>
        <coordinates>-77.0888668,38.9378569,0</coordinates>
      </Point>
    </Placemark>
    <Placemark>
      <name>Association of Universities for Research in Astronomy</name>
      <description><![CDATA[<b>Name:</b> AURA<br><b>Address:</b> , <br><b>SSID:</b> eduroam<br><b>Enc:</b> WPA2<br><b>AP:</b> 3<br>]]></description>
      <Point>
        <coordinates>-77.0298676,38.897127,0</coordinates>
      </Point>
    </Placemark>
    <Placemark>
      <name>Carnegie Institution for Science</name>
      <description><![CDATA[<b>Name:</b> Earth &amp; Planets Laboratory<br><b>Address:</b> , <br><b>SSID:</b> eduroam<br><b>Enc:</b> WPA2<br><b>AP:</b> -<br>]]></description>
      <Point>
        <coordinates>-77.0631484,38.9591096,0</coordinates>
      </Point>
    </Placemark>
    <Placemark>
      <name>Catholic University of America</name>
      <description><![CDATA[<b>Name:</b> The Catholic University Of America<br><b>Address:</b> , <br><b>SSID:</b> eduroam<br><b>Enc:</b> WPA2+WPA<br><b>AP:</b> 1500<br>]]></description>
      <Point>
        <coordinates>-76.9999244,38.9383082,0</coordinates>
      </Point>
    </Placemark>
    <Placemark>
      <name>Drexel University</name>
      <description><![CDATA[<b>Name:</b> Washington DC<br><b>Address:</b> , <br><b>SSID:</b> eduroam<br><b>Enc:</b> WPA2+WPA<br><b>AP:</b> -<br>]]></description>
      <Point>
        <coordinates>-77.0389927,38.9005886,0</coordinates>
      </Point>
    </Placemark>
    <Placemark>
      <name>Gallaudet University</name>
      <description><![CDATA[<b>Name:</b> Gallaudet University<br><b>Address:</b> , <br><b>SSID:</b> eduroam<br><b>Enc:</b> WPA2+WPA<br><b>AP:</b> 600<br>]]></description>
      <Point>
        <coordinates>-76.9937325,38.9073649,0</coordinates>
      </Point>
    </Placemark>
    <Placemark>
      <name>George Washington University</name>
      <description><![CDATA[<b>Name:</b> GW Mount Vernon campus<br><b>Address:</b> , <br><b>SSID:</b> eduroam<br><b>Enc:</b> WPA2+WPA<br><b>AP:</b> 200<br>]]></description>
      <Point>
        <coordinates>-77.0900661,38.9183122,0</coordinates>
      </Point>
    </Placemark>
    <Placemark>
      <name>George Washington University</name>
      <description><![CDATA[<b>Name:</b> GW: Foggy BottomCampus<br><b>Address:</b> , <br><b>SSID:</b> eduroam<br><b>Enc:</b> WPA2+WPA<br><b>AP:</b> 7000<br>]]></description>
      <Point>
        <coordinates>-77.047623,38.899901,0</coordinates>
      </Point>
    </Placemark>
    <Placemark>
      <name>Georgetown University</name>
      <description><![CDATA[<b>Name:</b> Georgetown University<br><b>Address:</b> , <br><b>SSID:</b> eduroam<br><b>Enc:</b> WPA2<br><b>AP:</b> 5000<br>]]></description>
      <Point>
        <coordinates>-77.0716039,38.9076201,0</coordinates>
      </Point>
    </Placemark>
    <Placemark>
      <name>Internet2</name>
      <description><![CDATA[<b>Name:</b> Washington, DC<br><b>Address:</b> , <br><b>SSID:</b> eduroam<br><b>Enc:</b> WPA2+WPA<br><b>AP:</b> 12<br>]]></description>
      <Point>
        <coordinates>-77.0419821,38.9045344,0</coordinates>
      </Point>
    </Placemark>
    <Placemark>
      <name>Smithsonian Institution</name>
      <description><![CDATA[<b>Name:</b> Main Campus<br><b>Address:</b> , <br><b>SSID:</b> eduroam<br><b>Enc:</b> WPA2+WPA<br><b>AP:</b> -<br>]]></description>
      <Point>
        <coordinates>-76.998222,38.894501,0</coordinates>
      </Point>
    </Placemark>
    <Placemark>
      <name>University of California-Office of the President</name>
      <description><![CDATA[<b>Name:</b> UC Washington Center<br><b>Address:</b> , <br><b>SSID:</b> eduroam<br><b>Enc:</b> WPA2+WPA<br><b>AP:</b> -<br>]]></description>
      <Point>
        <coordinates>-77.0373422,38.9065623,0</coordinates>
      </Point>
    </Placemark>
    <Placemark>
      <name>University of Florida</name>
      <description><![CDATA[<b>Name:</b> Office of Federal Government Relations<br><b>Address:</b> , <br><b>SSID:</b> eduroam<br><b>Enc:</b> WPA2+WPA<br><b>AP:</b> 1<br>]]></description>
      <Point>
        <coordinates>-77.0097868,38.8958561,0</coordinates>
      </Point>
    </Placemark>
    <Placemark>
      <name>William &amp; Mary Remote Offices</name>
      <description><![CDATA[<b>Name:</b> Washington Center<br><b>Address:</b> , <br><b>SSID:</b> eduroam<br><b>Enc:</b> WPA2<br><b>AP:</b> 5<br>]]></description>
      <Point>
        <coordinates>-77.0158737,38.9016818,0</coordinates>
      </Point>
    </Placemark>
  </Document>
</kml>
