<?xml version="1.0" encoding="UTF-8"?>
<kml xmlns="http://www.opengis.net/kml/2.2">
  <Document>
    <name>eduroam — Mississippi</name>
    <description><![CDATA[19 eduroam service locations in Mississippi.<br><br>Published by <a href="https://scs.nevada.edu/eduroam">NSHE System Computing Services</a>. Learn more about eduroam Support Organizations from <a href="https://incommon.org/eduroam">Internet2</a>, the eduroam National Roaming Operator for the United States.<br>These maps are derived from data published by GÉANT (<a href="https://monitor.eduroam.org/kml/us.kml">monitor.eduroam.org</a>). This is not an official GÉANT or eduroam publication.<br>eduroam is a registered trademark of the GÉANT Association.<br>Region boundaries are derived from US Census Bureau cartographic boundary files, which as works of the US federal government are in the public domain.<br>Maps generated by eduroam-us-regional-maps, which is BSD 3-Clause licensed.]]></description>
    <open>1</open>
    <Placemark>
      <name>Alcorn State University</name>
      <description><![CDATA[<b>Name:</b> Alcorn State University<br><b>Address:</b> , <br><b>SSID:</b> eduroam<br><b>Enc:</b> WPA2<br><b>AP:</b> 1000<br>]]></description>
      <Point>
        <coordinates>-91.1396882,31.8759414,0</coordinates>
      </Point>
    </Placemark>
    <Placemark>
      <name>Department of Veterans Affairs</name>
      <description><![CDATA[<b>Name:</b> Jackson VA Medical Center<br><b>Address:</b> , <br><b>SSID:</b> eduroam<br><b>Enc:</b> WPA2<br><b>AP:</b> -<br>]]></description>
      <Point>
        <coordinates>-90.16748,32.32801,0</coordinates>
      </Point>
    </Placemark>
    <Placemark>
      <name>Jackson State University</name>
      <description><![CDATA[<b>Name:</b> Main Campus<br><b>Address:</b> , <br><b>SSID:</b> eduroam<br><b>Enc:</b> WPA2<br><b>AP:</b> 500<br>]]></description>
      <Point>
        <coordinates>-90.2059305,32.2979167,0</coordinates>
      </Point>
    </Placemark>
    <Placemark>
      <name>Mississippi Gulf Coast Community College</name>
      <description><![CDATA[<b>Name:</b> MGCCC<br><b>Address:</b> , <br><b>SSID:</b> eduroam<br><b>Enc:</b> WPA3+WPA2+WPA<br><b>AP:</b> 800<br>]]></description>
      <Point>
        <coordinates>-89.1413481,30.780742,0</coordinates>
      </Point>
    </Placemark>
    <Placemark>
      <name>Mississippi State University</name>
      <description><![CDATA[<b>Name:</b> Mississippi State University<br><b>Address:</b> , <br><b>SSID:</b> eduroam<br><b>Enc:</b> WPA2+WPA<br><b>AP:</b> 3700<br>]]></description>
      <Point>
        <coordinates>-88.7913048,33.4558498,0</coordinates>
      </Point>
    </Placemark>
    <Placemark>
      <name>Mississippi State University</name>
      <description><![CDATA[<b>Name:</b> Mississippi State University - Meridian campus<br><b>Address:</b> , <br><b>SSID:</b> eduroam<br><b>Enc:</b> WPA3+WPA2+WPA<br><b>AP:</b> 21<br>]]></description>
      <Point>
        <coordinates>-88.7368864,32.3693948,0</coordinates>
      </Point>
    </Placemark>
    <Placemark>
      <name>Mississippi State University</name>
      <description><![CDATA[<b>Name:</b> Mississippi State University - Riley Center<br><b>Address:</b> , <br><b>SSID:</b> eduroam<br><b>Enc:</b> WPA3+WPA2+WPA<br><b>AP:</b> 58<br>]]></description>
      <Point>
        <coordinates>-88.7004373,32.364039,0</coordinates>
      </Point>
    </Placemark>
    <Placemark>
      <name>Mississippi State University</name>
      <description><![CDATA[<b>Name:</b> Mississippi State University Science and Technology Center<br><b>Address:</b> , <br><b>SSID:</b> eduroam<br><b>Enc:</b> WPA3+WPA2+WPA<br><b>AP:</b> 4<br>]]></description>
      <Point>
        <coordinates>-89.6140439,30.374425,0</coordinates>
      </Point>
    </Placemark>
    <Placemark>
      <name>University of Mississippi Main Campus</name>
      <description><![CDATA[<b>Name:</b> Main Campus<br><b>Address:</b> , <br><b>SSID:</b> eduroam<br><b>Enc:</b> WPA2+WPA<br><b>AP:</b> -<br>]]></description>
      <Point>
        <coordinates>-89.5407609,34.3648901,0</coordinates>
      </Point>
    </Placemark>
    <Placemark>
      <name>University of Mississippi Main Campus</name>
      <description><![CDATA[<b>Name:</b> UM Outreach Booneville<br><b>Address:</b> , <br><b>SSID:</b> eduroam<br><b>Enc:</b> WPA2+WPA<br><b>AP:</b> -<br>]]></description>
      <Point>
        <coordinates>-88.5624365,34.6672666,0</coordinates>
      </Point>
    </Placemark>
    <Placemark>
      <name>University of Mississippi Main Campus</name>
      <description><![CDATA[<b>Name:</b> UM Outreach Desoto<br><b>Address:</b> , <br><b>SSID:</b> eduroam<br><b>Enc:</b> WPA2+WPA<br><b>AP:</b> -<br>]]></description>
      <Point>
        <coordinates>-90.0091028,34.9363999,0</coordinates>
      </Point>
    </Placemark>
    <Placemark>
      <name>University of Mississippi Main Campus</name>
      <description><![CDATA[<b>Name:</b> UM Outreach Grenada<br><b>Address:</b> , <br><b>SSID:</b> eduroam<br><b>Enc:</b> WPA2+WPA<br><b>AP:</b> -<br>]]></description>
      <Point>
        <coordinates>-89.8213234,33.7648557,0</coordinates>
      </Point>
    </Placemark>
    <Placemark>
      <name>University of Mississippi Main Campus</name>
      <description><![CDATA[<b>Name:</b> UM Outreach Tupelo<br><b>Address:</b> , <br><b>SSID:</b> eduroam<br><b>Enc:</b> WPA2+WPA<br><b>AP:</b> -<br>]]></description>
      <Point>
        <coordinates>-88.6761973,34.2398257,0</coordinates>
      </Point>
    </Placemark>
    <Placemark>
      <name>University of Southern Mississippi</name>
      <description><![CDATA[<b>Name:</b> University of Southern Mississippi - Main Campus<br><b>Address:</b> , <br><b>SSID:</b> eduroam<br><b>Enc:</b> WPA2+WPA<br><b>AP:</b> 1500<br>]]></description>
      <Point>
        <coordinates>-89.3320537,31.3281438,0</coordinates>
      </Point>
    </Placemark>
    <Placemark>
      <name>University of Southern Mississippi</name>
      <description><![CDATA[<b>Name:</b> USM - Cedar Point Campus<br><b>Address:</b> , <br><b>SSID:</b> eduroam<br><b>Enc:</b> WPA2+WPA<br><b>AP:</b> 20<br>]]></description>
      <Point>
        <coordinates>-88.7792628,30.3940105,0</coordinates>
      </Point>
    </Placemark>
    <Placemark>
      <name>University of Southern Mississippi</name>
      <description><![CDATA[<b>Name:</b> USM - Gulf Coast Research Lab<br><b>Address:</b> , <br><b>SSID:</b> eduroam<br><b>Enc:</b> WPA2+WPA<br><b>AP:</b> 45<br>]]></description>
      <Point>
        <coordinates>-88.7985175,30.3934696,0</coordinates>
      </Point>
    </Placemark>
    <Placemark>
      <name>University of Southern Mississippi</name>
      <description><![CDATA[<b>Name:</b> USM - Gulf Park Campus<br><b>Address:</b> , <br><b>SSID:</b> eduroam<br><b>Enc:</b> WPA2+WPA<br><b>AP:</b> 110<br>]]></description>
      <Point>
        <coordinates>-89.1374626,30.3531529,0</coordinates>
      </Point>
    </Placemark>
    <Placemark>
      <name>University of Southern Mississippi</name>
      <description><![CDATA[<b>Name:</b> USM - Port of Gulfport<br><b>Address:</b> , <br><b>SSID:</b> eduroam<br><b>Enc:</b> WPA2+WPA<br><b>AP:</b> 10<br>]]></description>
      <Point>
        <coordinates>-89.0969132,30.363836,0</coordinates>
      </Point>
    </Placemark>
    <Placemark>
      <name>University of Southern Mississippi</name>
      <description><![CDATA[<b>Name:</b> USM - Stennis Space Center<br><b>Address:</b> , <br><b>SSID:</b> eduroam<br><b>Enc:</b> WPA2+WPA<br><b>AP:</b> 30<br>]]></description>
      <Point>
        <coordinates>-89.6147119,30.3737475,0</coordinates>
      </Point>
    </Placemark>
  </Document>
</kml>
