<?xml version="1.0" encoding="UTF-8"?>
<kml xmlns="http://www.opengis.net/kml/2.2">
  <Document>
    <name>eduroam — South Carolina</name>
    <description><![CDATA[20 eduroam service locations in South Carolina.<br><br>Published by <a href="https://scs.nevada.edu/eduroam">NSHE System Computing Services</a>. Learn more about eduroam Support Organizations from <a href="https://incommon.org/eduroam">Internet2</a>, the eduroam National Roaming Operator for the United States.<br>These maps are derived from data published by GÉANT (<a href="https://monitor.eduroam.org/kml/us.kml">monitor.eduroam.org</a>). This is not an official GÉANT or eduroam publication.<br>eduroam is a registered trademark of the GÉANT Association.<br>Region boundaries are derived from US Census Bureau cartographic boundary files, which as works of the US federal government are in the public domain.<br>Maps generated by eduroam-us-regional-maps, which is BSD 3-Clause licensed.]]></description>
    <open>1</open>
    <Placemark>
      <name>Citadel Military College of South Carolina</name>
      <description><![CDATA[<b>Name:</b> The Citadel<br><b>Address:</b> , <br><b>SSID:</b> eduroam<br><b>Enc:</b> WPA2<br><b>AP:</b> 1590<br>]]></description>
      <Point>
        <coordinates>-79.957428,32.797704,0</coordinates>
      </Point>
    </Placemark>
    <Placemark>
      <name>Claflin University</name>
      <description><![CDATA[<b>Name:</b> James (Joey) Brenn<br><b>Address:</b> , <br><b>SSID:</b> eduroam<br><b>Enc:</b> WPA2<br><b>AP:</b> 250<br>]]></description>
      <Point>
        <coordinates>-80.854211,33.4990214,0</coordinates>
      </Point>
    </Placemark>
    <Placemark>
      <name>Clemson University</name>
      <description><![CDATA[<b>Name:</b> Main Campus<br><b>Address:</b> , <br><b>SSID:</b> eduroam<br><b>Enc:</b> WPA3<br><b>AP:</b> 9000<br>]]></description>
      <Point>
        <coordinates>-82.8365462,34.6767983,0</coordinates>
      </Point>
    </Placemark>
    <Placemark>
      <name>Coastal Carolina University</name>
      <description><![CDATA[<b>Name:</b> Main Campus<br><b>Address:</b> , <br><b>SSID:</b> eduroam<br><b>Enc:</b> WPA2+WPA<br><b>AP:</b> 722<br>]]></description>
      <Point>
        <coordinates>-79.0113348,33.7982429,0</coordinates>
      </Point>
    </Placemark>
    <Placemark>
      <name>College of Charleston</name>
      <description><![CDATA[<b>Name:</b> 159 Rutledge Ave<br><b>Address:</b> , <br><b>SSID:</b> eduroam<br><b>Enc:</b> WPA2 + WPA3<br><b>AP:</b> 4<br>]]></description>
      <Point>
        <coordinates>-79.9454888,32.7856467,0</coordinates>
      </Point>
    </Placemark>
    <Placemark>
      <name>College of Charleston</name>
      <description><![CDATA[<b>Name:</b> Avery Center<br><b>Address:</b> , <br><b>SSID:</b> eduroam<br><b>Enc:</b> WPA3+WPA2+WPA<br><b>AP:</b> 8<br>]]></description>
      <Point>
        <coordinates>-79.944623,32.7804589,0</coordinates>
      </Point>
    </Placemark>
    <Placemark>
      <name>College of Charleston</name>
      <description><![CDATA[<b>Name:</b> Central Warehouse<br><b>Address:</b> , <br><b>SSID:</b> eduroam<br><b>Enc:</b> WPA3+WPA2+WPA<br><b>AP:</b> 1<br>]]></description>
      <Point>
        <coordinates>-80.0071645,32.8721353,0</coordinates>
      </Point>
    </Placemark>
    <Placemark>
      <name>College of Charleston</name>
      <description><![CDATA[<b>Name:</b> Grice Marine Lab/Fort Johnson<br><b>Address:</b> , <br><b>SSID:</b> eduroam<br><b>Enc:</b> WPA3+WPA2+WPA<br><b>AP:</b> 6<br>]]></description>
      <Point>
        <coordinates>-79.9370429,32.7833782,0</coordinates>
      </Point>
    </Placemark>
    <Placemark>
      <name>College of Charleston</name>
      <description><![CDATA[<b>Name:</b> Harbor Walk<br><b>Address:</b> , <br><b>SSID:</b> eduroam<br><b>Enc:</b> WPA3+WPA2+WPA<br><b>AP:</b> 52<br>]]></description>
      <Point>
        <coordinates>-79.9262153,32.7916436,0</coordinates>
      </Point>
    </Placemark>
    <Placemark>
      <name>College of Charleston</name>
      <description><![CDATA[<b>Name:</b> Main Campus<br><b>Address:</b> , <br><b>SSID:</b> eduroam<br><b>Enc:</b> WPA3+WPA2+WPA<br><b>AP:</b> 1000<br>]]></description>
      <Point>
        <coordinates>-79.9371121,32.7831723,0</coordinates>
      </Point>
    </Placemark>
    <Placemark>
      <name>College of Charleston</name>
      <description><![CDATA[<b>Name:</b> Patriots Point<br><b>Address:</b> , <br><b>SSID:</b> eduroam<br><b>Enc:</b> WPA3+WPA2+WPA<br><b>AP:</b> 20<br>]]></description>
      <Point>
        <coordinates>-79.9020349,32.7959203,0</coordinates>
      </Point>
    </Placemark>
    <Placemark>
      <name>College of Charleston</name>
      <description><![CDATA[<b>Name:</b> Stono Preserve<br><b>Address:</b> , <br><b>SSID:</b> eduroam<br><b>Enc:</b> WPA3+WPA2+WPA<br><b>AP:</b> 8<br>]]></description>
      <Point>
        <coordinates>-80.1772724,32.7441378,0</coordinates>
      </Point>
    </Placemark>
    <Placemark>
      <name>College of Charleston</name>
      <description><![CDATA[<b>Name:</b> TD Arena/Johnson/Silcox<br><b>Address:</b> , <br><b>SSID:</b> eduroam<br><b>Enc:</b> WPA3+WPA2+WPA<br><b>AP:</b> 90<br>]]></description>
      <Point>
        <coordinates>-79.9337953,32.7852929,0</coordinates>
      </Point>
    </Placemark>
    <Placemark>
      <name>Francis Marion University</name>
      <description><![CDATA[<b>Name:</b> Francis Marion University<br><b>Address:</b> , <br><b>SSID:</b> eduroam<br><b>Enc:</b> WPA2<br><b>AP:</b> 561<br>]]></description>
      <Point>
        <coordinates>-79.6622848,34.193408,0</coordinates>
      </Point>
    </Placemark>
    <Placemark>
      <name>University Center of Greenville</name>
      <description><![CDATA[<b>Name:</b> University Center of Greenville<br><b>Address:</b> , <br><b>SSID:</b> eduroam<br><b>Enc:</b> WPA2+WPA<br><b>AP:</b> 63<br>]]></description>
      <Point>
        <coordinates>-82.3632184,34.8382595,0</coordinates>
      </Point>
    </Placemark>
    <Placemark>
      <name>University of South Carolina - Upstate</name>
      <description><![CDATA[<b>Name:</b> George Dean Johnson, Jr. College of Business - USC Upstate<br><b>Address:</b> , <br><b>SSID:</b> eduroam<br><b>Enc:</b> WPA2<br><b>AP:</b> 32<br>]]></description>
      <Point>
        <coordinates>-81.9308562,34.9525038,0</coordinates>
      </Point>
    </Placemark>
    <Placemark>
      <name>University of South Carolina - Upstate</name>
      <description><![CDATA[<b>Name:</b> University of South Carolina Upstate<br><b>Address:</b> , <br><b>SSID:</b> eduroam<br><b>Enc:</b> WPA2<br><b>AP:</b> 514<br>]]></description>
      <Point>
        <coordinates>-81.9704901,34.9943357,0</coordinates>
      </Point>
    </Placemark>
    <Placemark>
      <name>University of South Carolina-Columbia</name>
      <description><![CDATA[<b>Name:</b> Main Campus<br><b>Address:</b> , <br><b>SSID:</b> eduroam<br><b>Enc:</b> WPA2+WPA<br><b>AP:</b> -<br>]]></description>
      <Point>
        <coordinates>-81.027157,33.9963052,0</coordinates>
      </Point>
    </Placemark>
    <Placemark>
      <name>UofSC School of Medicine Greenville</name>
      <description><![CDATA[<b>Name:</b> UofSC Greenville School of Medicine<br><b>Address:</b> , <br><b>SSID:</b> eduroam<br><b>Enc:</b> WPA2<br><b>AP:</b> -<br>]]></description>
      <Point>
        <coordinates>-82.411423,34.821601,0</coordinates>
      </Point>
    </Placemark>
    <Placemark>
      <name>VCOM</name>
      <description><![CDATA[<b>Name:</b> VCOM-CC<br><b>Address:</b> , <br><b>SSID:</b> eduroam<br><b>Enc:</b> WPA2+WPA<br><b>AP:</b> 50<br>]]></description>
      <Point>
        <coordinates>-81.9402683,34.9546193,0</coordinates>
      </Point>
    </Placemark>
  </Document>
</kml>
