<?xml version="1.0" encoding="UTF-8"?>
<kml xmlns="http://www.opengis.net/kml/2.2">
  <Document>
    <name>eduroam — Oklahoma</name>
    <description><![CDATA[20 eduroam service locations in Oklahoma.<br><br>Published by <a href="https://scs.nevada.edu/eduroam">NSHE System Computing Services</a>. Learn more about eduroam Support Organizations from <a href="https://incommon.org/eduroam">Internet2</a>, the eduroam National Roaming Operator for the United States.<br>Service location data comes from the eduroam location database published by GÉANT (<a href="https://monitor.eduroam.org/kml/us.kml">monitor.eduroam.org</a>). These maps are derived from it and are not an official GÉANT or eduroam publication.<br>eduroam is a registered trademark of GÉANT Vereniging.<br>Region boundaries are derived from US Census Bureau cartographic boundary files, which as works of the US federal government are in the public domain.<br>Maps generated by eduroam-us-regional-maps, which is BSD 3-Clause licensed.]]></description>
    <open>1</open>
    <Placemark>
      <name>Connors State College</name>
      <description><![CDATA[<b>Name:</b> Muskogee Campus<br><b>Address:</b> , <br><b>SSID:</b> eduroam<br><b>Enc:</b> WPA2+WPA<br><b>AP:</b> 32<br>]]></description>
      <Point>
        <coordinates>-95.3120672,35.7777912,0</coordinates>
      </Point>
    </Placemark>
    <Placemark>
      <name>Connors State College</name>
      <description><![CDATA[<b>Name:</b> Warner Campus<br><b>Address:</b> , <br><b>SSID:</b> eduroam<br><b>Enc:</b> WPA2+WPA<br><b>AP:</b> 100<br>]]></description>
      <Point>
        <coordinates>-95.3213749,35.4933441,0</coordinates>
      </Point>
    </Placemark>
    <Placemark>
      <name>Department of Veterans Affairs</name>
      <description><![CDATA[<b>Name:</b> East BEH OPC<br><b>Address:</b> , <br><b>SSID:</b> eduroam<br><b>Enc:</b> WPA2<br><b>AP:</b> -<br>]]></description>
      <Point>
        <coordinates>-95.3367564,35.7709519,0</coordinates>
      </Point>
    </Placemark>
    <Placemark>
      <name>Department of Veterans Affairs</name>
      <description><![CDATA[<b>Name:</b> McAlester OPC<br><b>Address:</b> , <br><b>SSID:</b> eduroam<br><b>Enc:</b> WPA2<br><b>AP:</b> -<br>]]></description>
      <Point>
        <coordinates>-95.7504417,34.9368841,0</coordinates>
      </Point>
    </Placemark>
    <Placemark>
      <name>Department of Veterans Affairs</name>
      <description><![CDATA[<b>Name:</b> Muskogee VA Medical Center<br><b>Address:</b> , <br><b>SSID:</b> eduroam<br><b>Enc:</b> WPA2<br><b>AP:</b> -<br>]]></description>
      <Point>
        <coordinates>-95.4143114,35.7654206,0</coordinates>
      </Point>
    </Placemark>
    <Placemark>
      <name>Department of Veterans Affairs</name>
      <description><![CDATA[<b>Name:</b> Oklahoma City VA Medical Center<br><b>Address:</b> , <br><b>SSID:</b> eduroam<br><b>Enc:</b> WPA2<br><b>AP:</b> -<br>]]></description>
      <Point>
        <coordinates>-97.4963591,35.4829567,0</coordinates>
      </Point>
    </Placemark>
    <Placemark>
      <name>Department of Veterans Affairs</name>
      <description><![CDATA[<b>Name:</b> Tulsa Behavioral<br><b>Address:</b> , <br><b>SSID:</b> eduroam<br><b>Enc:</b> WPA2<br><b>AP:</b> -<br>]]></description>
      <Point>
        <coordinates>-95.8621403,36.1495441,0</coordinates>
      </Point>
    </Placemark>
    <Placemark>
      <name>Department of Veterans Affairs</name>
      <description><![CDATA[<b>Name:</b> Tulsa Dental OPC<br><b>Address:</b> , <br><b>SSID:</b> eduroam<br><b>Enc:</b> WPA2<br><b>AP:</b> -<br>]]></description>
      <Point>
        <coordinates>-95.9232355,36.0894673,0</coordinates>
      </Point>
    </Placemark>
    <Placemark>
      <name>Department of Veterans Affairs</name>
      <description><![CDATA[<b>Name:</b> Tulsa HCS Ernest Childers<br><b>Address:</b> , <br><b>SSID:</b> eduroam<br><b>Enc:</b> WPA2<br><b>AP:</b> -<br>]]></description>
      <Point>
        <coordinates>-95.8656773,36.0344993,0</coordinates>
      </Point>
    </Placemark>
    <Placemark>
      <name>Langston University</name>
      <description><![CDATA[<b>Name:</b> Langston University<br><b>Address:</b> , <br><b>SSID:</b> eduroam<br><b>Enc:</b> WPA2+WPA<br><b>AP:</b> 815<br>]]></description>
      <Point>
        <coordinates>-97.2629012,35.9459607,0</coordinates>
      </Point>
    </Placemark>
    <Placemark>
      <name>Northeastern Oklahoma A&amp;M College</name>
      <description><![CDATA[<b>Name:</b> NEO - Miami<br><b>Address:</b> , <br><b>SSID:</b> eduroam<br><b>Enc:</b> WPA2+WPA<br><b>AP:</b> 700<br>]]></description>
      <Point>
        <coordinates>-94.8648666,36.8784669,0</coordinates>
      </Point>
    </Placemark>
    <Placemark>
      <name>Oklahoma Panhandle State University</name>
      <description><![CDATA[<b>Name:</b> Oklahoma Panhandle State University<br><b>Address:</b> , <br><b>SSID:</b> eduroam<br><b>Enc:</b> WPA2+WPA<br><b>AP:</b> 200<br>]]></description>
      <Point>
        <coordinates>-101.6365504,36.5953038,0</coordinates>
      </Point>
    </Placemark>
    <Placemark>
      <name>Oklahoma State University</name>
      <description><![CDATA[<b>Name:</b> Main Campus<br><b>Address:</b> , <br><b>SSID:</b> eduroam<br><b>Enc:</b> WPA2+WPA<br><b>AP:</b> 5300<br>]]></description>
      <Point>
        <coordinates>-97.0737222,36.1270236,0</coordinates>
      </Point>
    </Placemark>
    <Placemark>
      <name>Oklahoma State University</name>
      <description><![CDATA[<b>Name:</b> Oklahoma State University Oklahoma City<br><b>Address:</b> , <br><b>SSID:</b> eduroam<br><b>Enc:</b> WPA2+WPA<br><b>AP:</b> 113<br>]]></description>
      <Point>
        <coordinates>-97.581811,35.4719072,0</coordinates>
      </Point>
    </Placemark>
    <Placemark>
      <name>Oklahoma State University</name>
      <description><![CDATA[<b>Name:</b> OSU Tulsa Campus<br><b>Address:</b> , <br><b>SSID:</b> eduroam<br><b>Enc:</b> WPA2+WPA<br><b>AP:</b> 70<br>]]></description>
      <Point>
        <coordinates>-95.9875334,36.1638149,0</coordinates>
      </Point>
    </Placemark>
    <Placemark>
      <name>Oklahoma State University</name>
      <description><![CDATA[<b>Name:</b> OSU-IT<br><b>Address:</b> , <br><b>SSID:</b> eduroam<br><b>Enc:</b> WPA2+WPA<br><b>AP:</b> 250<br>]]></description>
      <Point>
        <coordinates>-95.9403751,35.6269876,0</coordinates>
      </Point>
    </Placemark>
    <Placemark>
      <name>OneNet</name>
      <description><![CDATA[<b>Name:</b> OneNet<br><b>Address:</b> , <br><b>SSID:</b> eduroam<br><b>Enc:</b> WPA2 + WPA3<br><b>AP:</b> 20<br>]]></description>
      <Point>
        <coordinates>-97.5035417,35.4735271,0</coordinates>
      </Point>
    </Placemark>
    <Placemark>
      <name>Stillwater Public Schools</name>
      <description><![CDATA[<b>Name:</b> Stillwater Public Schools<br><b>Address:</b> , <br><b>SSID:</b> eduroam<br><b>Enc:</b> WPA2<br><b>AP:</b> 250<br>]]></description>
      <Point>
        <coordinates>-97.0583309,36.1184079,0</coordinates>
      </Point>
    </Placemark>
    <Placemark>
      <name>University of Oklahoma Norman Campus</name>
      <description><![CDATA[<b>Name:</b> University of Oklahoma Health and Science Center Campus<br><b>Address:</b> , <br><b>SSID:</b> eduroam<br><b>Enc:</b> WPA3+WPA2+WPA<br><b>AP:</b> 2500<br>]]></description>
      <Point>
        <coordinates>-97.4986672,35.4842744,0</coordinates>
      </Point>
    </Placemark>
    <Placemark>
      <name>University of Oklahoma Norman Campus</name>
      <description><![CDATA[<b>Name:</b> University of Oklahoma Norman Main Campus<br><b>Address:</b> , <br><b>SSID:</b> eduroam<br><b>Enc:</b> WPA3+WPA2+WPA<br><b>AP:</b> 7600<br>]]></description>
      <Point>
        <coordinates>-97.4454299,35.2058553,0</coordinates>
      </Point>
    </Placemark>
  </Document>
</kml>
