<?xml version="1.0" encoding="UTF-8"?>
<kml xmlns="http://www.opengis.net/kml/2.2">
  <Document>
    <name>eduroam — Minnesota</name>
    <description><![CDATA[142 eduroam service locations in Minnesota.<br><br>Published by <a href="https://scs.nevada.edu/eduroam">NSHE System Computing Services</a>. Learn more about eduroam Support Organizations from <a href="https://incommon.org/eduroam">Internet2</a>, the eduroam National Roaming Operator for the United States.<br>These maps are derived from data published by GÉANT (<a href="https://monitor.eduroam.org/kml/us.kml">monitor.eduroam.org</a>). This is not an official GÉANT or eduroam publication.<br>eduroam is a registered trademark of the GÉANT Association.<br>Region boundaries are derived from US Census Bureau cartographic boundary files, which as works of the US federal government are in the public domain.<br>Maps generated by eduroam-us-regional-maps, which is BSD 3-Clause licensed.]]></description>
    <open>1</open>
    <Placemark>
      <name>Breck School</name>
      <description><![CDATA[<b>Name:</b> Breck School<br><b>Address:</b> , <br><b>SSID:</b> eduroam<br><b>Enc:</b> WPA2<br><b>AP:</b> 160<br>]]></description>
      <Point>
        <coordinates>-93.3419942,44.981208,0</coordinates>
      </Point>
    </Placemark>
    <Placemark>
      <name>Carleton College</name>
      <description><![CDATA[<b>Name:</b> Main Campus<br><b>Address:</b> , <br><b>SSID:</b> eduroam<br><b>Enc:</b> WPA2<br><b>AP:</b> 1000<br>]]></description>
      <Point>
        <coordinates>-93.155467,44.462171,0</coordinates>
      </Point>
    </Placemark>
    <Placemark>
      <name>College of St. Scholastica</name>
      <description><![CDATA[<b>Name:</b> College of St. Scholastica<br><b>Address:</b> , <br><b>SSID:</b> eduroam<br><b>Enc:</b> WPA2<br><b>AP:</b> 500<br>]]></description>
      <Point>
        <coordinates>-92.1079666,46.8164597,0</coordinates>
      </Point>
    </Placemark>
    <Placemark>
      <name>Concordia College at Moorhead</name>
      <description><![CDATA[<b>Name:</b> Main Campus<br><b>Address:</b> , <br><b>SSID:</b> eduroam<br><b>Enc:</b> WPA2+WPA<br><b>AP:</b> 500<br>]]></description>
      <Point>
        <coordinates>-96.7689269,46.8651036,0</coordinates>
      </Point>
    </Placemark>
    <Placemark>
      <name>Fairview Health Services</name>
      <description><![CDATA[<b>Name:</b> 323 Stinson<br><b>Address:</b> , <br><b>SSID:</b> eduroam<br><b>Enc:</b> WPA2<br><b>AP:</b> 40<br>]]></description>
      <Point>
        <coordinates>-93.2264691,44.992619,0</coordinates>
      </Point>
    </Placemark>
    <Placemark>
      <name>Fairview Health Services</name>
      <description><![CDATA[<b>Name:</b> M Health Fairview Clinics and Surgery Center - Minneapolis<br><b>Address:</b> , <br><b>SSID:</b> eduroam<br><b>Enc:</b> WPA2<br><b>AP:</b> 330<br>]]></description>
      <Point>
        <coordinates>-93.2248323,44.9707762,0</coordinates>
      </Point>
    </Placemark>
    <Placemark>
      <name>Fairview Health Services</name>
      <description><![CDATA[<b>Name:</b> M Health Fairview University of Minnesota Medical Center - East Bank Hospital Building (Unit J)<br><b>Address:</b> , <br><b>SSID:</b> eduroam<br><b>Enc:</b> WPA2<br><b>AP:</b> 709<br>]]></description>
      <Point>
        <coordinates>-93.2310298,44.9710574,0</coordinates>
      </Point>
    </Placemark>
    <Placemark>
      <name>Fairview Health Services</name>
      <description><![CDATA[<b>Name:</b> M Health Fairview University of Minnesota Medical Center - West Bank East Building<br><b>Address:</b> , <br><b>SSID:</b> eduroam<br><b>Enc:</b> WPA2<br><b>AP:</b> 660<br>]]></description>
      <Point>
        <coordinates>-93.2371862,44.9667334,0</coordinates>
      </Point>
    </Placemark>
    <Placemark>
      <name>Fairview Health Services</name>
      <description><![CDATA[<b>Name:</b> M Health Fairview University of Minnesota Medical Center - West Bank North Building<br><b>Address:</b> , <br><b>SSID:</b> eduroam<br><b>Enc:</b> WPA2<br><b>AP:</b> 130<br>]]></description>
      <Point>
        <coordinates>-93.2390674,44.9687121,0</coordinates>
      </Point>
    </Placemark>
    <Placemark>
      <name>Fairview Health Services</name>
      <description><![CDATA[<b>Name:</b> M Health Fairview University of Minnesota Medical Center - West Bank South Building - Masonic Childrens Hospital<br><b>Address:</b> , <br><b>SSID:</b> eduroam<br><b>Enc:</b> WPA2<br><b>AP:</b> 209<br>]]></description>
      <Point>
        <coordinates>-93.2371862,44.9667334,0</coordinates>
      </Point>
    </Placemark>
    <Placemark>
      <name>Fairview Health Services</name>
      <description><![CDATA[<b>Name:</b> M Health Fairview University of Minnesota Medical Center - West Bank West Building<br><b>Address:</b> , <br><b>SSID:</b> eduroam<br><b>Enc:</b> WPA2<br><b>AP:</b> 420<br>]]></description>
      <Point>
        <coordinates>-93.2362113,44.9677214,0</coordinates>
      </Point>
    </Placemark>
    <Placemark>
      <name>Hamline University</name>
      <description><![CDATA[<b>Name:</b> St. Paul Campus<br><b>Address:</b> , <br><b>SSID:</b> eduroam<br><b>Enc:</b> WPA2+WPA<br><b>AP:</b> 330<br>]]></description>
      <Point>
        <coordinates>-93.1653282,44.9657814,0</coordinates>
      </Point>
    </Placemark>
    <Placemark>
      <name>Hennepin Technical College</name>
      <description><![CDATA[<b>Name:</b> Brooklyn Park Campus<br><b>Address:</b> , <br><b>SSID:</b> eduroam<br><b>Enc:</b> WPA2<br><b>AP:</b> -<br>]]></description>
      <Point>
        <coordinates>-93.3976883,45.0968573,0</coordinates>
      </Point>
    </Placemark>
    <Placemark>
      <name>Macalester College</name>
      <description><![CDATA[<b>Name:</b> Main Campus<br><b>Address:</b> , <br><b>SSID:</b> eduroam<br><b>Enc:</b> WPA2+WPA<br><b>AP:</b> 600<br>]]></description>
      <Point>
        <coordinates>-93.1690435,44.9378927,0</coordinates>
      </Point>
    </Placemark>
    <Placemark>
      <name>manage.net</name>
      <description><![CDATA[<b>Name:</b> Manage.net LLC<br><b>Address:</b> , <br><b>SSID:</b> eduroam<br><b>Enc:</b> WPA2<br><b>AP:</b> 4<br>]]></description>
      <Point>
        <coordinates>-93.2040736,44.9309042,0</coordinates>
      </Point>
    </Placemark>
    <Placemark>
      <name>Metropolitan State University</name>
      <description><![CDATA[<b>Name:</b> MetroState Brooklyn Park Campus<br><b>Address:</b> , <br><b>SSID:</b> eduroam<br><b>Enc:</b> WPA2+WPA<br><b>AP:</b> 20<br>]]></description>
      <Point>
        <coordinates>-93.3998123,45.0993524,0</coordinates>
      </Point>
    </Placemark>
    <Placemark>
      <name>Metropolitan State University</name>
      <description><![CDATA[<b>Name:</b> MetroState Midway Campus<br><b>Address:</b> , <br><b>SSID:</b> eduroam<br><b>Enc:</b> WPA2+WPA<br><b>AP:</b> 20<br>]]></description>
      <Point>
        <coordinates>-93.1621747,44.9710666,0</coordinates>
      </Point>
    </Placemark>
    <Placemark>
      <name>Metropolitan State University</name>
      <description><![CDATA[<b>Name:</b> MetroState Minneapolis Campus<br><b>Address:</b> , <br><b>SSID:</b> eduroam<br><b>Enc:</b> WPA2+WPA<br><b>AP:</b> 20<br>]]></description>
      <Point>
        <coordinates>-93.2788895,44.974147,0</coordinates>
      </Point>
    </Placemark>
    <Placemark>
      <name>Metropolitan State University</name>
      <description><![CDATA[<b>Name:</b> MetroState St. Paul Campus<br><b>Address:</b> , <br><b>SSID:</b> eduroam<br><b>Enc:</b> WPA2+WPA<br><b>AP:</b> 180<br>]]></description>
      <Point>
        <coordinates>-93.0743566,44.9573363,0</coordinates>
      </Point>
    </Placemark>
    <Placemark>
      <name>Minnehaha Academy</name>
      <description><![CDATA[<b>Name:</b> Minnehaha Academy Middle and Lower School<br><b>Address:</b> , <br><b>SSID:</b> eduroam<br><b>Enc:</b> WPA2<br><b>AP:</b> 83<br>]]></description>
      <Point>
        <coordinates>-93.2045711,44.9264259,0</coordinates>
      </Point>
    </Placemark>
    <Placemark>
      <name>Minnehaha Academy</name>
      <description><![CDATA[<b>Name:</b> Minnehaha Academy Upper School<br><b>Address:</b> , <br><b>SSID:</b> eduroam<br><b>Enc:</b> WPA2<br><b>AP:</b> 105<br>]]></description>
      <Point>
        <coordinates>-93.2058228,44.9458799,0</coordinates>
      </Point>
    </Placemark>
    <Placemark>
      <name>Minnesota State Colleges and Universities</name>
      <description><![CDATA[<b>Name:</b> Alexandria Technical College<br><b>Address:</b> , <br><b>SSID:</b> eduroam<br><b>Enc:</b> WPA2+WPA<br><b>AP:</b> -<br>]]></description>
      <Point>
        <coordinates>-95.371971,45.869214,0</coordinates>
      </Point>
    </Placemark>
    <Placemark>
      <name>Minnesota State Colleges and Universities</name>
      <description><![CDATA[<b>Name:</b> Bemidji State University<br><b>Address:</b> , <br><b>SSID:</b> eduroam<br><b>Enc:</b> WPA2<br><b>AP:</b> -<br>]]></description>
      <Point>
        <coordinates>-94.8746225,47.4863568,0</coordinates>
      </Point>
    </Placemark>
    <Placemark>
      <name>Minnesota State Colleges and Universities</name>
      <description><![CDATA[<b>Name:</b> Central Lakes College - Brainerd Campus<br><b>Address:</b> , <br><b>SSID:</b> eduroam<br><b>Enc:</b> WPA2<br><b>AP:</b> -<br>]]></description>
      <Point>
        <coordinates>-94.2160194,46.3460014,0</coordinates>
      </Point>
    </Placemark>
    <Placemark>
      <name>Minnesota State Colleges and Universities</name>
      <description><![CDATA[<b>Name:</b> Central Lakes College - Staples Campus<br><b>Address:</b> , <br><b>SSID:</b> eduroam<br><b>Enc:</b> WPA2+WPA<br><b>AP:</b> -<br>]]></description>
      <Point>
        <coordinates>-94.7986796,46.3887477,0</coordinates>
      </Point>
    </Placemark>
    <Placemark>
      <name>Minnesota State Colleges and Universities</name>
      <description><![CDATA[<b>Name:</b> Century College<br><b>Address:</b> , <br><b>SSID:</b> eduroam<br><b>Enc:</b> WPA2+WPA<br><b>AP:</b> -<br>]]></description>
      <Point>
        <coordinates>-92.9820041,45.041657,0</coordinates>
      </Point>
    </Placemark>
    <Placemark>
      <name>Minnesota State Colleges and Universities</name>
      <description><![CDATA[<b>Name:</b> Dakota County Technical College<br><b>Address:</b> , <br><b>SSID:</b> eduroam<br><b>Enc:</b> WPA2+WPA<br><b>AP:</b> -<br>]]></description>
      <Point>
        <coordinates>-93.077548,44.737301,0</coordinates>
      </Point>
    </Placemark>
    <Placemark>
      <name>Minnesota State Colleges and Universities</name>
      <description><![CDATA[<b>Name:</b> Fond du Lac Tribal and Community College<br><b>Address:</b> , <br><b>SSID:</b> eduroam<br><b>Enc:</b> WPA2+WPA<br><b>AP:</b> -<br>]]></description>
      <Point>
        <coordinates>-92.4516746,46.6896331,0</coordinates>
      </Point>
    </Placemark>
    <Placemark>
      <name>Minnesota State Colleges and Universities</name>
      <description><![CDATA[<b>Name:</b> Inver Hills Community College<br><b>Address:</b> , <br><b>SSID:</b> eduroam<br><b>Enc:</b> WPA2+WPA<br><b>AP:</b> -<br>]]></description>
      <Point>
        <coordinates>-93.05412,44.828148,0</coordinates>
      </Point>
    </Placemark>
    <Placemark>
      <name>Minnesota State Colleges and Universities</name>
      <description><![CDATA[<b>Name:</b> M State - Detroit Lakes Campus<br><b>Address:</b> , <br><b>SSID:</b> eduroam<br><b>Enc:</b> WPA2+WPA<br><b>AP:</b> -<br>]]></description>
      <Point>
        <coordinates>-95.832655,46.827643,0</coordinates>
      </Point>
    </Placemark>
    <Placemark>
      <name>Minnesota State Colleges and Universities</name>
      <description><![CDATA[<b>Name:</b> M State - Fergus Falls Campus<br><b>Address:</b> , <br><b>SSID:</b> eduroam<br><b>Enc:</b> WPA2+WPA<br><b>AP:</b> -<br>]]></description>
      <Point>
        <coordinates>-96.09732,46.2891802,0</coordinates>
      </Point>
    </Placemark>
    <Placemark>
      <name>Minnesota State Colleges and Universities</name>
      <description><![CDATA[<b>Name:</b> M State - Moorhead Campus<br><b>Address:</b> , <br><b>SSID:</b> eduroam<br><b>Enc:</b> WPA2+WPA<br><b>AP:</b> -<br>]]></description>
      <Point>
        <coordinates>-96.749853,46.848948,0</coordinates>
      </Point>
    </Placemark>
    <Placemark>
      <name>Minnesota State Colleges and Universities</name>
      <description><![CDATA[<b>Name:</b> M State - Wadena Campus<br><b>Address:</b> , <br><b>SSID:</b> eduroam<br><b>Enc:</b> WPA2+WPA<br><b>AP:</b> -<br>]]></description>
      <Point>
        <coordinates>-95.1449408,46.440586,0</coordinates>
      </Point>
    </Placemark>
    <Placemark>
      <name>Minnesota State Colleges and Universities</name>
      <description><![CDATA[<b>Name:</b> Minneapolis Community and Technical College<br><b>Address:</b> , <br><b>SSID:</b> eduroam<br><b>Enc:</b> WPA2+WPA<br><b>AP:</b> -<br>]]></description>
      <Point>
        <coordinates>-93.2831233,44.9729091,0</coordinates>
      </Point>
    </Placemark>
    <Placemark>
      <name>Minnesota State Colleges and Universities</name>
      <description><![CDATA[<b>Name:</b> Minnesota North College - Hibbing<br><b>Address:</b> , <br><b>SSID:</b> eduroam<br><b>Enc:</b> WPA2+WPA<br><b>AP:</b> -<br>]]></description>
      <Point>
        <coordinates>-92.9219148,47.4223258,0</coordinates>
      </Point>
    </Placemark>
    <Placemark>
      <name>Minnesota State Colleges and Universities</name>
      <description><![CDATA[<b>Name:</b> Minnesota North College - Itasca<br><b>Address:</b> , <br><b>SSID:</b> eduroam<br><b>Enc:</b> WPA2+WPA<br><b>AP:</b> -<br>]]></description>
      <Point>
        <coordinates>-93.4954985,47.2415549,0</coordinates>
      </Point>
    </Placemark>
    <Placemark>
      <name>Minnesota State Colleges and Universities</name>
      <description><![CDATA[<b>Name:</b> Minnesota North College - Mesabi Range - Eveleth<br><b>Address:</b> , <br><b>SSID:</b> eduroam<br><b>Enc:</b> WPA2+WPA<br><b>AP:</b> -<br>]]></description>
      <Point>
        <coordinates>-92.5250881,47.4709581,0</coordinates>
      </Point>
    </Placemark>
    <Placemark>
      <name>Minnesota State Colleges and Universities</name>
      <description><![CDATA[<b>Name:</b> Minnesota North College - Mesabi Range - Virginia<br><b>Address:</b> , <br><b>SSID:</b> eduroam<br><b>Enc:</b> WPA2+WPA<br><b>AP:</b> -<br>]]></description>
      <Point>
        <coordinates>-92.5499002,47.524795,0</coordinates>
      </Point>
    </Placemark>
    <Placemark>
      <name>Minnesota State Colleges and Universities</name>
      <description><![CDATA[<b>Name:</b> Minnesota North College - Rainy River<br><b>Address:</b> , <br><b>SSID:</b> eduroam<br><b>Enc:</b> WPA2+WPA<br><b>AP:</b> -<br>]]></description>
      <Point>
        <coordinates>-93.4309891,48.5899949,0</coordinates>
      </Point>
    </Placemark>
    <Placemark>
      <name>Minnesota State Colleges and Universities</name>
      <description><![CDATA[<b>Name:</b> Minnesota North College - Vermilion<br><b>Address:</b> , <br><b>SSID:</b> eduroam<br><b>Enc:</b> WPA2+WPA<br><b>AP:</b> -<br>]]></description>
      <Point>
        <coordinates>-91.8379676,47.9052991,0</coordinates>
      </Point>
    </Placemark>
    <Placemark>
      <name>Minnesota State Colleges and Universities</name>
      <description><![CDATA[<b>Name:</b> Minnesota State System Office - Granite Falls office<br><b>Address:</b> , <br><b>SSID:</b> eduroam<br><b>Enc:</b> WPA2<br><b>AP:</b> -<br>]]></description>
      <Point>
        <coordinates>-95.5597464,44.807983,0</coordinates>
      </Point>
    </Placemark>
    <Placemark>
      <name>Minnesota State Colleges and Universities</name>
      <description><![CDATA[<b>Name:</b> Minnesota State System Office - Wells Fargo Place<br><b>Address:</b> , <br><b>SSID:</b> eduroam<br><b>Enc:</b> WPA2<br><b>AP:</b> 29<br>]]></description>
      <Point>
        <coordinates>-93.095527,44.948019,0</coordinates>
      </Point>
    </Placemark>
    <Placemark>
      <name>Minnesota State Colleges and Universities</name>
      <description><![CDATA[<b>Name:</b> Minnesota West - Canby Campus<br><b>Address:</b> , <br><b>SSID:</b> eduroam<br><b>Enc:</b> WPA2+WPA<br><b>AP:</b> -<br>]]></description>
      <Point>
        <coordinates>-96.2883238,44.7170382,0</coordinates>
      </Point>
    </Placemark>
    <Placemark>
      <name>Minnesota State Colleges and Universities</name>
      <description><![CDATA[<b>Name:</b> Minnesota West - Granite Falls Campus<br><b>Address:</b> , <br><b>SSID:</b> eduroam<br><b>Enc:</b> WPA2+WPA<br><b>AP:</b> -<br>]]></description>
      <Point>
        <coordinates>-95.5597687,44.8071883,0</coordinates>
      </Point>
    </Placemark>
    <Placemark>
      <name>Minnesota State Colleges and Universities</name>
      <description><![CDATA[<b>Name:</b> Minnesota West - Pipestone Campus<br><b>Address:</b> , <br><b>SSID:</b> eduroam<br><b>Enc:</b> WPA2+WPA<br><b>AP:</b> -<br>]]></description>
      <Point>
        <coordinates>-96.3175082,44.015106,0</coordinates>
      </Point>
    </Placemark>
    <Placemark>
      <name>Minnesota State Colleges and Universities</name>
      <description><![CDATA[<b>Name:</b> Minnesota West - Worthington Campus<br><b>Address:</b> , <br><b>SSID:</b> eduroam<br><b>Enc:</b> WPA2+WPA<br><b>AP:</b> -<br>]]></description>
      <Point>
        <coordinates>-95.6280926,43.6244212,0</coordinates>
      </Point>
    </Placemark>
    <Placemark>
      <name>Minnesota State Colleges and Universities</name>
      <description><![CDATA[<b>Name:</b> Northwest Technical College<br><b>Address:</b> , <br><b>SSID:</b> eduroam<br><b>Enc:</b> WPA2<br><b>AP:</b> -<br>]]></description>
      <Point>
        <coordinates>-94.8540677,47.452682,0</coordinates>
      </Point>
    </Placemark>
    <Placemark>
      <name>Minnesota State Colleges and Universities</name>
      <description><![CDATA[<b>Name:</b> Ridgewater College - Hutchinson Campus<br><b>Address:</b> , <br><b>SSID:</b> eduroam<br><b>Enc:</b> WPA2<br><b>AP:</b> -<br>]]></description>
      <Point>
        <coordinates>-94.3720437,44.8734782,0</coordinates>
      </Point>
    </Placemark>
    <Placemark>
      <name>Minnesota State Colleges and Universities</name>
      <description><![CDATA[<b>Name:</b> Ridgewater College - Willmar Campus<br><b>Address:</b> , <br><b>SSID:</b> eduroam<br><b>Enc:</b> WPA2<br><b>AP:</b> -<br>]]></description>
      <Point>
        <coordinates>-95.0726893,45.1386267,0</coordinates>
      </Point>
    </Placemark>
    <Placemark>
      <name>Minnesota State Colleges and Universities</name>
      <description><![CDATA[<b>Name:</b> Riverland Community College - Albert Lea<br><b>Address:</b> , <br><b>SSID:</b> eduroam<br><b>Enc:</b> WPA2+WPA<br><b>AP:</b> -<br>]]></description>
      <Point>
        <coordinates>-93.353081,43.677558,0</coordinates>
      </Point>
    </Placemark>
    <Placemark>
      <name>Minnesota State Colleges and Universities</name>
      <description><![CDATA[<b>Name:</b> Riverland Community College - Austin Campus<br><b>Address:</b> , <br><b>SSID:</b> eduroam<br><b>Enc:</b> WPA2+WPA<br><b>AP:</b> -<br>]]></description>
      <Point>
        <coordinates>-92.9951507,43.6760635,0</coordinates>
      </Point>
    </Placemark>
    <Placemark>
      <name>Minnesota State Colleges and Universities</name>
      <description><![CDATA[<b>Name:</b> Riverland Community College - Owatonna Campus<br><b>Address:</b> , <br><b>SSID:</b> eduroam<br><b>Enc:</b> WPA2+WPA<br><b>AP:</b> -<br>]]></description>
      <Point>
        <coordinates>-93.252779,44.075126,0</coordinates>
      </Point>
    </Placemark>
    <Placemark>
      <name>Minnesota State Colleges and Universities</name>
      <description><![CDATA[<b>Name:</b> Saint Paul College<br><b>Address:</b> , <br><b>SSID:</b> eduroam<br><b>Enc:</b> WPA2+WPA<br><b>AP:</b> -<br>]]></description>
      <Point>
        <coordinates>-93.1097578,44.949298,0</coordinates>
      </Point>
    </Placemark>
    <Placemark>
      <name>Minnesota State Colleges and Universities</name>
      <description><![CDATA[<b>Name:</b> South Central College - Faribault<br><b>Address:</b> , <br><b>SSID:</b> eduroam<br><b>Enc:</b> WPA2<br><b>AP:</b> -<br>]]></description>
      <Point>
        <coordinates>-93.287066,44.285527,0</coordinates>
      </Point>
    </Placemark>
    <Placemark>
      <name>Minnesota State Colleges and Universities</name>
      <description><![CDATA[<b>Name:</b> South Central College - North Mankato<br><b>Address:</b> , <br><b>SSID:</b> eduroam<br><b>Enc:</b> WPA2+WPA<br><b>AP:</b> -<br>]]></description>
      <Point>
        <coordinates>-94.045915,44.1746672,0</coordinates>
      </Point>
    </Placemark>
    <Placemark>
      <name>Minnesota State Colleges and Universities</name>
      <description><![CDATA[<b>Name:</b> Southwest Minnesota State University<br><b>Address:</b> , <br><b>SSID:</b> eduroam<br><b>Enc:</b> WPA2+WPA<br><b>AP:</b> -<br>]]></description>
      <Point>
        <coordinates>-95.759773,44.4560884,0</coordinates>
      </Point>
    </Placemark>
    <Placemark>
      <name>Minnesota State Colleges and Universities</name>
      <description><![CDATA[<b>Name:</b> St. Cloud Technical &amp; Community College<br><b>Address:</b> , <br><b>SSID:</b> eduroam<br><b>Enc:</b> WPA2+WPA<br><b>AP:</b> -<br>]]></description>
      <Point>
        <coordinates>-94.1763079,45.5789637,0</coordinates>
      </Point>
    </Placemark>
    <Placemark>
      <name>Minnesota State Colleges and Universities</name>
      <description><![CDATA[<b>Name:</b> Winona State University<br><b>Address:</b> , <br><b>SSID:</b> eduroam<br><b>Enc:</b> WPA2<br><b>AP:</b> -<br>]]></description>
      <Point>
        <coordinates>-91.6432837,44.0473997,0</coordinates>
      </Point>
    </Placemark>
    <Placemark>
      <name>Minnesota State University - Moorhead</name>
      <description><![CDATA[<b>Name:</b> Minnesota State University Moorhead Main Campus<br><b>Address:</b> , <br><b>SSID:</b> eduroam<br><b>Enc:</b> WPA2+WPA<br><b>AP:</b> 249<br>]]></description>
      <Point>
        <coordinates>-96.7574776,46.8670137,0</coordinates>
      </Point>
    </Placemark>
    <Placemark>
      <name>Minnesota State University-Mankato</name>
      <description><![CDATA[<b>Name:</b> mankato-main-campus<br><b>Address:</b> , <br><b>SSID:</b> eduroam<br><b>Enc:</b> WPA2<br><b>AP:</b> 767<br>]]></description>
      <Point>
        <coordinates>-93.9986131,44.1463506,0</coordinates>
      </Point>
    </Placemark>
    <Placemark>
      <name>Normandale Community College</name>
      <description><![CDATA[<b>Name:</b> Normandale Community College<br><b>Address:</b> , <br><b>SSID:</b> eduroam<br><b>Enc:</b> WPA2+WPA<br><b>AP:</b> -<br>]]></description>
      <Point>
        <coordinates>-93.3315628,44.8292153,0</coordinates>
      </Point>
    </Placemark>
    <Placemark>
      <name>Southwest West Central Service Cooperative</name>
      <description><![CDATA[<b>Name:</b> SWWC Cosmos ELC<br><b>Address:</b> , <br><b>SSID:</b> eduroam<br><b>Enc:</b> WPA3+WPA2+WPA<br><b>AP:</b> 13<br>]]></description>
      <Point>
        <coordinates>-94.7004012,44.9397729,0</coordinates>
      </Point>
    </Placemark>
    <Placemark>
      <name>Southwest West Central Service Cooperative</name>
      <description><![CDATA[<b>Name:</b> SWWC Glencoe ALC<br><b>Address:</b> , <br><b>SSID:</b> eduroam<br><b>Enc:</b> WPA3+WPA2+WPA<br><b>AP:</b> 3<br>]]></description>
      <Point>
        <coordinates>-94.1517191,44.783921,0</coordinates>
      </Point>
    </Placemark>
    <Placemark>
      <name>Southwest West Central Service Cooperative</name>
      <description><![CDATA[<b>Name:</b> SWWC Marshall ELC<br><b>Address:</b> , <br><b>SSID:</b> eduroam<br><b>Enc:</b> WPA3+WPA2+WPA<br><b>AP:</b> 19<br>]]></description>
      <Point>
        <coordinates>-95.7592199,44.4572668,0</coordinates>
      </Point>
    </Placemark>
    <Placemark>
      <name>Southwest West Central Service Cooperative</name>
      <description><![CDATA[<b>Name:</b> SWWC Marshall Main Office<br><b>Address:</b> , <br><b>SSID:</b> eduroam<br><b>Enc:</b> WPA3+WPA2+WPA<br><b>AP:</b> 11<br>]]></description>
      <Point>
        <coordinates>-95.8070838,44.456182,0</coordinates>
      </Point>
    </Placemark>
    <Placemark>
      <name>Southwest West Central Service Cooperative</name>
      <description><![CDATA[<b>Name:</b> SWWC Marshall Ready Clinic<br><b>Address:</b> , <br><b>SSID:</b> eduroam<br><b>Enc:</b> WPA3+WPA2+WPA<br><b>AP:</b> 3<br>]]></description>
      <Point>
        <coordinates>-95.7908656,44.4482438,0</coordinates>
      </Point>
    </Placemark>
    <Placemark>
      <name>Southwest West Central Service Cooperative</name>
      <description><![CDATA[<b>Name:</b> SWWC Montevideo ELC<br><b>Address:</b> , <br><b>SSID:</b> eduroam<br><b>Enc:</b> WPA3+WPA2+WPA<br><b>AP:</b> 10<br>]]></description>
      <Point>
        <coordinates>-95.695671,44.950825,0</coordinates>
      </Point>
    </Placemark>
    <Placemark>
      <name>Southwest West Central Service Cooperative</name>
      <description><![CDATA[<b>Name:</b> SWWC New London ELC<br><b>Address:</b> , <br><b>SSID:</b> eduroam<br><b>Enc:</b> WPA3+WPA2+WPA<br><b>AP:</b> 17<br>]]></description>
      <Point>
        <coordinates>-94.9546402,45.2936025,0</coordinates>
      </Point>
    </Placemark>
    <Placemark>
      <name>Southwest West Central Service Cooperative</name>
      <description><![CDATA[<b>Name:</b> SWWC Pipestone ALC<br><b>Address:</b> , <br><b>SSID:</b> eduroam<br><b>Enc:</b> WPA3+WPA2+WPA<br><b>AP:</b> 1<br>]]></description>
      <Point>
        <coordinates>-96.3014381,43.9936913,0</coordinates>
      </Point>
    </Placemark>
    <Placemark>
      <name>Southwest West Central Service Cooperative</name>
      <description><![CDATA[<b>Name:</b> SWWC Pipestone ELC<br><b>Address:</b> , <br><b>SSID:</b> eduroam<br><b>Enc:</b> WPA3+WPA2+WPA<br><b>AP:</b> 3<br>]]></description>
      <Point>
        <coordinates>-96.3175082,44.015106,0</coordinates>
      </Point>
    </Placemark>
    <Placemark>
      <name>Southwest West Central Service Cooperative</name>
      <description><![CDATA[<b>Name:</b> SWWC Willmar Office<br><b>Address:</b> , <br><b>SSID:</b> eduroam<br><b>Enc:</b> WPA3+WPA2+WPA<br><b>AP:</b> 2<br>]]></description>
      <Point>
        <coordinates>-95.0480891,45.117432,0</coordinates>
      </Point>
    </Placemark>
    <Placemark>
      <name>Southwest West Central Service Cooperative</name>
      <description><![CDATA[<b>Name:</b> SWWC Windom ELC &amp; ALC<br><b>Address:</b> , <br><b>SSID:</b> eduroam<br><b>Enc:</b> WPA3+WPA2+WPA<br><b>AP:</b> 20<br>]]></description>
      <Point>
        <coordinates>-95.121871,43.872293,0</coordinates>
      </Point>
    </Placemark>
    <Placemark>
      <name>St. Olaf College</name>
      <description><![CDATA[<b>Name:</b> St. Olaf College<br><b>Address:</b> , <br><b>SSID:</b> eduroam<br><b>Enc:</b> WPA2+WPA<br><b>AP:</b> 1024<br>]]></description>
      <Point>
        <coordinates>-93.1834255,44.4611148,0</coordinates>
      </Point>
    </Placemark>
    <Placemark>
      <name>The Blake School</name>
      <description><![CDATA[<b>Name:</b> The Blake School - Hopkins<br><b>Address:</b> , <br><b>SSID:</b> eduroam<br><b>Enc:</b> WPA2<br><b>AP:</b> 140<br>]]></description>
      <Point>
        <coordinates>-93.3898679,44.9222045,0</coordinates>
      </Point>
    </Placemark>
    <Placemark>
      <name>The Blake School</name>
      <description><![CDATA[<b>Name:</b> The Blake School - Minneapolis<br><b>Address:</b> , <br><b>SSID:</b> eduroam<br><b>Enc:</b> WPA2<br><b>AP:</b> 90<br>]]></description>
      <Point>
        <coordinates>-93.2935424,44.9694758,0</coordinates>
      </Point>
    </Placemark>
    <Placemark>
      <name>University of Minnesota</name>
      <description><![CDATA[<b>Name:</b> Andersen Library<br><b>Address:</b> , <br><b>SSID:</b> eduroam<br><b>Enc:</b> WPA2<br><b>AP:</b> -<br>]]></description>
      <Point>
        <coordinates>-93.2429144,44.9733103,0</coordinates>
      </Point>
    </Placemark>
    <Placemark>
      <name>University of Minnesota</name>
      <description><![CDATA[<b>Name:</b> Bell Museum<br><b>Address:</b> , <br><b>SSID:</b> eduroam<br><b>Enc:</b> WPA2+WPA<br><b>AP:</b> -<br>]]></description>
      <Point>
        <coordinates>-93.1879197,44.9911494,0</coordinates>
      </Point>
    </Placemark>
    <Placemark>
      <name>University of Minnesota</name>
      <description><![CDATA[<b>Name:</b> Boulder Lake Environmental Learning Center<br><b>Address:</b> , <br><b>SSID:</b> eduroam<br><b>Enc:</b> WPA2+WPA<br><b>AP:</b> -<br>]]></description>
      <Point>
        <coordinates>-92.1789868,47.0454076,0</coordinates>
      </Point>
    </Placemark>
    <Placemark>
      <name>University of Minnesota</name>
      <description><![CDATA[<b>Name:</b> Cedar Creek Long Term Ecological Research<br><b>Address:</b> , <br><b>SSID:</b> eduroam<br><b>Enc:</b> WPA2+WPA<br><b>AP:</b> -<br>]]></description>
      <Point>
        <coordinates>-93.2002662,45.4016545,0</coordinates>
      </Point>
    </Placemark>
    <Placemark>
      <name>University of Minnesota</name>
      <description><![CDATA[<b>Name:</b> Center for Advanced Studies in Child Welfare<br><b>Address:</b> , <br><b>SSID:</b> eduroam<br><b>Enc:</b> WPA2+WPA<br><b>AP:</b> -<br>]]></description>
      <Point>
        <coordinates>-93.1730823,45.0067261,0</coordinates>
      </Point>
    </Placemark>
    <Placemark>
      <name>University of Minnesota</name>
      <description><![CDATA[<b>Name:</b> Center for Economic Development<br><b>Address:</b> , <br><b>SSID:</b> eduroam<br><b>Enc:</b> WPA2+WPA<br><b>AP:</b> -<br>]]></description>
      <Point>
        <coordinates>-92.0979288,46.7875431,0</coordinates>
      </Point>
    </Placemark>
    <Placemark>
      <name>University of Minnesota</name>
      <description><![CDATA[<b>Name:</b> CentraCare Regional Campus - Med School<br><b>Address:</b> , <br><b>SSID:</b> eduroam<br><b>Enc:</b> WPA3+WPA2+WPA<br><b>AP:</b> 24<br>]]></description>
      <Point>
        <coordinates>-94.2090478,45.5797108,0</coordinates>
      </Point>
    </Placemark>
    <Placemark>
      <name>University of Minnesota</name>
      <description><![CDATA[<b>Name:</b> Cloquet Forestry Center<br><b>Address:</b> , <br><b>SSID:</b> eduroam<br><b>Enc:</b> WPA2+WPA<br><b>AP:</b> -<br>]]></description>
      <Point>
        <coordinates>-92.524495,46.703968,0</coordinates>
      </Point>
    </Placemark>
    <Placemark>
      <name>University of Minnesota</name>
      <description><![CDATA[<b>Name:</b> Coffman Memorial Union<br><b>Address:</b> , <br><b>SSID:</b> eduroam<br><b>Enc:</b> WPA2+WPA<br><b>AP:</b> -<br>]]></description>
      <Point>
        <coordinates>-93.2353733,44.9730845,0</coordinates>
      </Point>
    </Placemark>
    <Placemark>
      <name>University of Minnesota</name>
      <description><![CDATA[<b>Name:</b> Community - University Health Care Center<br><b>Address:</b> , <br><b>SSID:</b> eduroam<br><b>Enc:</b> WPA2+WPA<br><b>AP:</b> -<br>]]></description>
      <Point>
        <coordinates>-93.2518308,44.9620691,0</coordinates>
      </Point>
    </Placemark>
    <Placemark>
      <name>University of Minnesota</name>
      <description><![CDATA[<b>Name:</b> Como Student Community Cooperative and University Services Buildings<br><b>Address:</b> , <br><b>SSID:</b> eduroam<br><b>Enc:</b> WPA2+WPA<br><b>AP:</b> -<br>]]></description>
      <Point>
        <coordinates>-93.2127266,44.9879927,0</coordinates>
      </Point>
    </Placemark>
    <Placemark>
      <name>University of Minnesota</name>
      <description><![CDATA[<b>Name:</b> Crookston Campus<br><b>Address:</b> , <br><b>SSID:</b> eduroam<br><b>Enc:</b> WPA2 + WPA3<br><b>AP:</b> 378<br>]]></description>
      <Point>
        <coordinates>-96.6072404,47.7999518,0</coordinates>
      </Point>
    </Placemark>
    <Placemark>
      <name>University of Minnesota</name>
      <description><![CDATA[<b>Name:</b> Dinkytown Safety Center<br><b>Address:</b> , <br><b>SSID:</b> eduroam<br><b>Enc:</b> WPA2 + WPA3<br><b>AP:</b> -<br>]]></description>
      <Point>
        <coordinates>-93.2364807,44.9800323,0</coordinates>
      </Point>
    </Placemark>
    <Placemark>
      <name>University of Minnesota</name>
      <description><![CDATA[<b>Name:</b> Duluth Campus<br><b>Address:</b> , <br><b>SSID:</b> eduroam<br><b>Enc:</b> WPA2 + WPA3<br><b>AP:</b> 2264<br>]]></description>
      <Point>
        <coordinates>-92.0844331,46.8170318,0</coordinates>
      </Point>
    </Placemark>
    <Placemark>
      <name>University of Minnesota</name>
      <description><![CDATA[<b>Name:</b> Extension Office - Ramsey County<br><b>Address:</b> , <br><b>SSID:</b> eduroam<br><b>Enc:</b> WPA2+WPA<br><b>AP:</b> -<br>]]></description>
      <Point>
        <coordinates>-93.0243969,45.0001208,0</coordinates>
      </Point>
    </Placemark>
    <Placemark>
      <name>University of Minnesota</name>
      <description><![CDATA[<b>Name:</b> Extension Regional Office - Andover<br><b>Address:</b> , <br><b>SSID:</b> eduroam<br><b>Enc:</b> WPA2+WPA<br><b>AP:</b> -<br>]]></description>
      <Point>
        <coordinates>-93.2771577,45.2172228,0</coordinates>
      </Point>
    </Placemark>
    <Placemark>
      <name>University of Minnesota</name>
      <description><![CDATA[<b>Name:</b> Extension Regional Office - Brainerd<br><b>Address:</b> , <br><b>SSID:</b> eduroam<br><b>Enc:</b> WPA2+WPA<br><b>AP:</b> -<br>]]></description>
      <Point>
        <coordinates>-94.2041086,46.3549685,0</coordinates>
      </Point>
    </Placemark>
    <Placemark>
      <name>University of Minnesota</name>
      <description><![CDATA[<b>Name:</b> Extension Regional Office - Crookston<br><b>Address:</b> , <br><b>SSID:</b> eduroam<br><b>Enc:</b> WPA2+WPA<br><b>AP:</b> -<br>]]></description>
      <Point>
        <coordinates>-96.6059042,47.80462,0</coordinates>
      </Point>
    </Placemark>
    <Placemark>
      <name>University of Minnesota</name>
      <description><![CDATA[<b>Name:</b> Extension Regional Office - Farmington<br><b>Address:</b> , <br><b>SSID:</b> eduroam<br><b>Enc:</b> WPA2+WPA<br><b>AP:</b> -<br>]]></description>
      <Point>
        <coordinates>-93.1483543,44.6301398,0</coordinates>
      </Point>
    </Placemark>
    <Placemark>
      <name>University of Minnesota</name>
      <description><![CDATA[<b>Name:</b> Extension Regional Office - Mankato<br><b>Address:</b> , <br><b>SSID:</b> eduroam<br><b>Enc:</b> WPA2+WPA<br><b>AP:</b> -<br>]]></description>
      <Point>
        <coordinates>-93.9457666,44.1803324,0</coordinates>
      </Point>
    </Placemark>
    <Placemark>
      <name>University of Minnesota</name>
      <description><![CDATA[<b>Name:</b> Extension Regional Office - Marshall<br><b>Address:</b> , <br><b>SSID:</b> eduroam<br><b>Enc:</b> WPA2+WPA<br><b>AP:</b> -<br>]]></description>
      <Point>
        <coordinates>-95.7571637,44.4480744,0</coordinates>
      </Point>
    </Placemark>
    <Placemark>
      <name>University of Minnesota</name>
      <description><![CDATA[<b>Name:</b> Extension Regional Office - Moorhead<br><b>Address:</b> , <br><b>SSID:</b> eduroam<br><b>Enc:</b> WPA2+WPA<br><b>AP:</b> -<br>]]></description>
      <Point>
        <coordinates>-96.7632431,46.883357,0</coordinates>
      </Point>
    </Placemark>
    <Placemark>
      <name>University of Minnesota</name>
      <description><![CDATA[<b>Name:</b> Extension Regional Office - Rochester<br><b>Address:</b> , <br><b>SSID:</b> eduroam<br><b>Enc:</b> WPA2+WPA<br><b>AP:</b> -<br>]]></description>
      <Point>
        <coordinates>-92.4643916,44.04232,0</coordinates>
      </Point>
    </Placemark>
    <Placemark>
      <name>University of Minnesota</name>
      <description><![CDATA[<b>Name:</b> Extension Regional Office - Saint Cloud<br><b>Address:</b> , <br><b>SSID:</b> eduroam<br><b>Enc:</b> WPA2+WPA<br><b>AP:</b> -<br>]]></description>
      <Point>
        <coordinates>-94.2029244,45.541448,0</coordinates>
      </Point>
    </Placemark>
    <Placemark>
      <name>University of Minnesota</name>
      <description><![CDATA[<b>Name:</b> Extension Regional Office - Willmar<br><b>Address:</b> , <br><b>SSID:</b> eduroam<br><b>Enc:</b> WPA2+WPA<br><b>AP:</b> -<br>]]></description>
      <Point>
        <coordinates>-95.0158917,45.1413551,0</coordinates>
      </Point>
    </Placemark>
    <Placemark>
      <name>University of Minnesota</name>
      <description><![CDATA[<b>Name:</b> Extension Regional Office - Worthington<br><b>Address:</b> , <br><b>SSID:</b> eduroam<br><b>Enc:</b> WPA2+WPA<br><b>AP:</b> -<br>]]></description>
      <Point>
        <coordinates>-95.5898148,43.6405708,0</coordinates>
      </Point>
    </Placemark>
    <Placemark>
      <name>University of Minnesota</name>
      <description><![CDATA[<b>Name:</b> Genomics Center<br><b>Address:</b> , <br><b>SSID:</b> eduroam<br><b>Enc:</b> WPA2<br><b>AP:</b> -<br>]]></description>
      <Point>
        <coordinates>-92.949226,45.0003973,0</coordinates>
      </Point>
    </Placemark>
    <Placemark>
      <name>University of Minnesota</name>
      <description><![CDATA[<b>Name:</b> Glensheen Mansion<br><b>Address:</b> , <br><b>SSID:</b> eduroam<br><b>Enc:</b> WPA2+WPA<br><b>AP:</b> -<br>]]></description>
      <Point>
        <coordinates>-92.0517272,46.815161,0</coordinates>
      </Point>
    </Placemark>
    <Placemark>
      <name>University of Minnesota</name>
      <description><![CDATA[<b>Name:</b> Horticultural Research Center and Apple House<br><b>Address:</b> , <br><b>SSID:</b> eduroam<br><b>Enc:</b> WPA2 + WPA3<br><b>AP:</b> -<br>]]></description>
      <Point>
        <coordinates>-93.6361175,44.8682743,0</coordinates>
      </Point>
    </Placemark>
    <Placemark>
      <name>University of Minnesota</name>
      <description><![CDATA[<b>Name:</b> Hubachek Wilderness Research Center<br><b>Address:</b> , <br><b>SSID:</b> eduroam<br><b>Enc:</b> WPA2+WPA<br><b>AP:</b> -<br>]]></description>
      <Point>
        <coordinates>-91.7573758,47.9447196,0</coordinates>
      </Point>
    </Placemark>
    <Placemark>
      <name>University of Minnesota</name>
      <description><![CDATA[<b>Name:</b> Itasca Biological Station and Laboratories<br><b>Address:</b> , <br><b>SSID:</b> eduroam<br><b>Enc:</b> WPA2+WPA<br><b>AP:</b> -<br>]]></description>
      <Point>
        <coordinates>-95.195026,47.2260985,0</coordinates>
      </Point>
    </Placemark>
    <Placemark>
      <name>University of Minnesota</name>
      <description><![CDATA[<b>Name:</b> Large Lakes Observatory<br><b>Address:</b> , <br><b>SSID:</b> eduroam<br><b>Enc:</b> WPA2+WPA<br><b>AP:</b> -<br>]]></description>
      <Point>
        <coordinates>-92.0769694,46.8119715,0</coordinates>
      </Point>
    </Placemark>
    <Placemark>
      <name>University of Minnesota</name>
      <description><![CDATA[<b>Name:</b> Magrath Library<br><b>Address:</b> , <br><b>SSID:</b> eduroam<br><b>Enc:</b> WPA2<br><b>AP:</b> -<br>]]></description>
      <Point>
        <coordinates>-93.1835984,44.9840748,0</coordinates>
      </Point>
    </Placemark>
    <Placemark>
      <name>University of Minnesota</name>
      <description><![CDATA[<b>Name:</b> Masonic Institute for the Developing Brain<br><b>Address:</b> , <br><b>SSID:</b> eduroam<br><b>Enc:</b> WPA2+WPA<br><b>AP:</b> -<br>]]></description>
      <Point>
        <coordinates>-93.2115818,44.9590885,0</coordinates>
      </Point>
    </Placemark>
    <Placemark>
      <name>University of Minnesota</name>
      <description><![CDATA[<b>Name:</b> McNamara Alumni Center<br><b>Address:</b> , <br><b>SSID:</b> eduroam<br><b>Enc:</b> WPA2<br><b>AP:</b> -<br>]]></description>
      <Point>
        <coordinates>-93.2274579,44.9749339,0</coordinates>
      </Point>
    </Placemark>
    <Placemark>
      <name>University of Minnesota</name>
      <description><![CDATA[<b>Name:</b> Memory Keepers Medical Discovery Team<br><b>Address:</b> , <br><b>SSID:</b> eduroam<br><b>Enc:</b> WPA2+WPA<br><b>AP:</b> -<br>]]></description>
      <Point>
        <coordinates>-92.0907059,46.7940026,0</coordinates>
      </Point>
    </Placemark>
    <Placemark>
      <name>University of Minnesota</name>
      <description><![CDATA[<b>Name:</b> Minnesota Landscape Arboretum<br><b>Address:</b> , <br><b>SSID:</b> eduroam<br><b>Enc:</b> WPA2 + WPA3<br><b>AP:</b> -<br>]]></description>
      <Point>
        <coordinates>-93.6151039,44.8615933,0</coordinates>
      </Point>
    </Placemark>
    <Placemark>
      <name>University of Minnesota</name>
      <description><![CDATA[<b>Name:</b> Minnesota Poultry Testing Laboratory<br><b>Address:</b> , <br><b>SSID:</b> eduroam<br><b>Enc:</b> WPA3+WPA2+WPA<br><b>AP:</b> 8<br>]]></description>
      <Point>
        <coordinates>-95.0275412,45.132342,0</coordinates>
      </Point>
    </Placemark>
    <Placemark>
      <name>University of Minnesota</name>
      <description><![CDATA[<b>Name:</b> Morris Campus<br><b>Address:</b> , <br><b>SSID:</b> eduroam<br><b>Enc:</b> WPA2 + WPA3<br><b>AP:</b> 407<br>]]></description>
      <Point>
        <coordinates>-95.897131,45.5891093,0</coordinates>
      </Point>
    </Placemark>
    <Placemark>
      <name>University of Minnesota</name>
      <description><![CDATA[<b>Name:</b> Natural Resources Research Institute<br><b>Address:</b> , <br><b>SSID:</b> eduroam<br><b>Enc:</b> WPA2+WPA<br><b>AP:</b> -<br>]]></description>
      <Point>
        <coordinates>-92.207366,46.8360169,0</coordinates>
      </Point>
    </Placemark>
    <Placemark>
      <name>University of Minnesota</name>
      <description><![CDATA[<b>Name:</b> North Central Research and Outreach Center<br><b>Address:</b> , <br><b>SSID:</b> eduroam<br><b>Enc:</b> WPA2+WPA<br><b>AP:</b> -<br>]]></description>
      <Point>
        <coordinates>-93.494281,47.2427224,0</coordinates>
      </Point>
    </Placemark>
    <Placemark>
      <name>University of Minnesota</name>
      <description><![CDATA[<b>Name:</b> Northrop Memorial Auditorium<br><b>Address:</b> , <br><b>SSID:</b> eduroam<br><b>Enc:</b> WPA2<br><b>AP:</b> -<br>]]></description>
      <Point>
        <coordinates>-93.2353548,44.9764735,0</coordinates>
      </Point>
    </Placemark>
    <Placemark>
      <name>University of Minnesota</name>
      <description><![CDATA[<b>Name:</b> Northwest Research and Outreach Center<br><b>Address:</b> , <br><b>SSID:</b> eduroam<br><b>Enc:</b> WPA2+WPA<br><b>AP:</b> -<br>]]></description>
      <Point>
        <coordinates>-96.6058779,47.8011049,0</coordinates>
      </Point>
    </Placemark>
    <Placemark>
      <name>University of Minnesota</name>
      <description><![CDATA[<b>Name:</b> NOvA Far Detector<br><b>Address:</b> , <br><b>SSID:</b> eduroam<br><b>Enc:</b> WPA2+WPA<br><b>AP:</b> -<br>]]></description>
      <Point>
        <coordinates>-92.8312681,48.3790018,0</coordinates>
      </Point>
    </Placemark>
    <Placemark>
      <name>University of Minnesota</name>
      <description><![CDATA[<b>Name:</b> Rarig Center<br><b>Address:</b> , <br><b>SSID:</b> eduroam<br><b>Enc:</b> WPA2+WPA<br><b>AP:</b> -<br>]]></description>
      <Point>
        <coordinates>-93.2423951,44.9703261,0</coordinates>
      </Point>
    </Placemark>
    <Placemark>
      <name>University of Minnesota</name>
      <description><![CDATA[<b>Name:</b> Rochester Campus<br><b>Address:</b> , <br><b>SSID:</b> eduroam<br><b>Enc:</b> WPA2 + WPA3<br><b>AP:</b> -<br>]]></description>
      <Point>
        <coordinates>-92.4634048,44.0223499,0</coordinates>
      </Point>
    </Placemark>
    <Placemark>
      <name>University of Minnesota</name>
      <description><![CDATA[<b>Name:</b> Rosemount Research and Outreach Center<br><b>Address:</b> , <br><b>SSID:</b> eduroam<br><b>Enc:</b> WPA2+WPA<br><b>AP:</b> -<br>]]></description>
      <Point>
        <coordinates>-93.0971736,44.7148777,0</coordinates>
      </Point>
    </Placemark>
    <Placemark>
      <name>University of Minnesota</name>
      <description><![CDATA[<b>Name:</b> Sand Plains Research Farm<br><b>Address:</b> , <br><b>SSID:</b> eduroam<br><b>Enc:</b> WPA2<br><b>AP:</b> -<br>]]></description>
      <Point>
        <coordinates>-93.8448972,45.3437422,0</coordinates>
      </Point>
    </Placemark>
    <Placemark>
      <name>University of Minnesota</name>
      <description><![CDATA[<b>Name:</b> Southern Research and Outreach Center<br><b>Address:</b> , <br><b>SSID:</b> eduroam<br><b>Enc:</b> WPA2+WPA<br><b>AP:</b> -<br>]]></description>
      <Point>
        <coordinates>-93.5243984,44.0781254,0</coordinates>
      </Point>
    </Placemark>
    <Placemark>
      <name>University of Minnesota</name>
      <description><![CDATA[<b>Name:</b> Southwest Research and Outreach Center<br><b>Address:</b> , <br><b>SSID:</b> eduroam<br><b>Enc:</b> WPA2+WPA<br><b>AP:</b> -<br>]]></description>
      <Point>
        <coordinates>-95.3174344,44.2396871,0</coordinates>
      </Point>
    </Placemark>
    <Placemark>
      <name>University of Minnesota</name>
      <description><![CDATA[<b>Name:</b> St. Anthony Falls Laboratory<br><b>Address:</b> , <br><b>SSID:</b> eduroam<br><b>Enc:</b> WPA2+WPA<br><b>AP:</b> -<br>]]></description>
      <Point>
        <coordinates>-93.2548129,44.9823831,0</coordinates>
      </Point>
    </Placemark>
    <Placemark>
      <name>University of Minnesota</name>
      <description><![CDATA[<b>Name:</b> St. Paul Student Center<br><b>Address:</b> , <br><b>SSID:</b> eduroam<br><b>Enc:</b> WPA2+WPA<br><b>AP:</b> -<br>]]></description>
      <Point>
        <coordinates>-93.1852562,44.9849057,0</coordinates>
      </Point>
    </Placemark>
    <Placemark>
      <name>University of Minnesota</name>
      <description><![CDATA[<b>Name:</b> Ted Mann Concert Hall<br><b>Address:</b> , <br><b>SSID:</b> eduroam<br><b>Enc:</b> WPA2+WPA<br><b>AP:</b> -<br>]]></description>
      <Point>
        <coordinates>-93.240979,44.9704816,0</coordinates>
      </Point>
    </Placemark>
    <Placemark>
      <name>University of Minnesota</name>
      <description><![CDATA[<b>Name:</b> The Hormel Institute<br><b>Address:</b> , <br><b>SSID:</b> eduroam<br><b>Enc:</b> WPA2+WPA<br><b>AP:</b> -<br>]]></description>
      <Point>
        <coordinates>-92.9660732,43.6822467,0</coordinates>
      </Point>
    </Placemark>
    <Placemark>
      <name>University of Minnesota</name>
      <description><![CDATA[<b>Name:</b> Twin Cities Campus - East Bank<br><b>Address:</b> , <br><b>SSID:</b> eduroam<br><b>Enc:</b> WPA2 + WPA3<br><b>AP:</b> 7693<br>]]></description>
      <Point>
        <coordinates>-93.2278161,44.9740538,0</coordinates>
      </Point>
    </Placemark>
    <Placemark>
      <name>University of Minnesota</name>
      <description><![CDATA[<b>Name:</b> Twin Cities Campus - Saint Paul<br><b>Address:</b> , <br><b>SSID:</b> eduroam<br><b>Enc:</b> WPA2 + WPA3<br><b>AP:</b> 1740<br>]]></description>
      <Point>
        <coordinates>-93.1851703,44.9846287,0</coordinates>
      </Point>
    </Placemark>
    <Placemark>
      <name>University of Minnesota</name>
      <description><![CDATA[<b>Name:</b> Twin Cities Campus - West Bank<br><b>Address:</b> , <br><b>SSID:</b> eduroam<br><b>Enc:</b> WPA2 + WPA3<br><b>AP:</b> 1415<br>]]></description>
      <Point>
        <coordinates>-93.2433118,44.971863,0</coordinates>
      </Point>
    </Placemark>
    <Placemark>
      <name>University of Minnesota</name>
      <description><![CDATA[<b>Name:</b> University Press<br><b>Address:</b> , <br><b>SSID:</b> eduroam<br><b>Enc:</b> WPA2+WPA<br><b>AP:</b> -<br>]]></description>
      <Point>
        <coordinates>-93.2624125,44.9815332,0</coordinates>
      </Point>
    </Placemark>
    <Placemark>
      <name>University of Minnesota</name>
      <description><![CDATA[<b>Name:</b> Urban Research and Outreach - Engagement Center<br><b>Address:</b> , <br><b>SSID:</b> eduroam<br><b>Enc:</b> WPA2+WPA<br><b>AP:</b> -<br>]]></description>
      <Point>
        <coordinates>-93.3064717,44.9909873,0</coordinates>
      </Point>
    </Placemark>
    <Placemark>
      <name>University of Minnesota</name>
      <description><![CDATA[<b>Name:</b> Walter Library<br><b>Address:</b> , <br><b>SSID:</b> eduroam<br><b>Enc:</b> WPA2<br><b>AP:</b> -<br>]]></description>
      <Point>
        <coordinates>-93.2362203,44.975264,0</coordinates>
      </Point>
    </Placemark>
    <Placemark>
      <name>University of Minnesota</name>
      <description><![CDATA[<b>Name:</b> West Central Research and Outreach Center<br><b>Address:</b> , <br><b>SSID:</b> eduroam<br><b>Enc:</b> WPA2+WPA<br><b>AP:</b> -<br>]]></description>
      <Point>
        <coordinates>-95.8786125,45.5935609,0</coordinates>
      </Point>
    </Placemark>
    <Placemark>
      <name>University of Minnesota</name>
      <description><![CDATA[<b>Name:</b> Wilson Library<br><b>Address:</b> , <br><b>SSID:</b> eduroam<br><b>Enc:</b> WPA2<br><b>AP:</b> -<br>]]></description>
      <Point>
        <coordinates>-93.2434819,44.9708822,0</coordinates>
      </Point>
    </Placemark>
    <Placemark>
      <name>University of Minnesota</name>
      <description><![CDATA[<b>Name:</b> Wiseman Art Museum<br><b>Address:</b> , <br><b>SSID:</b> eduroam<br><b>Enc:</b> WPA2<br><b>AP:</b> -<br>]]></description>
      <Point>
        <coordinates>-93.2369332,44.973091,0</coordinates>
      </Point>
    </Placemark>
    <Placemark>
      <name>University of St. Thomas</name>
      <description><![CDATA[<b>Name:</b> University of St. Thomas - Saint Paul, Minnesota<br><b>Address:</b> , <br><b>SSID:</b> eduroam<br><b>Enc:</b> WPA2<br><b>AP:</b> 1900<br>]]></description>
      <Point>
        <coordinates>-93.1900129,44.9422555,0</coordinates>
      </Point>
    </Placemark>
    <Placemark>
      <name>Warroad Public Schools</name>
      <description><![CDATA[<b>Name:</b> Angle Inlet Elementary<br><b>Address:</b> , <br><b>SSID:</b> eduroam<br><b>Enc:</b> WPA2<br><b>AP:</b> 2<br>]]></description>
      <Point>
        <coordinates>-95.08137,49.353056,0</coordinates>
      </Point>
    </Placemark>
    <Placemark>
      <name>Warroad Public Schools</name>
      <description><![CDATA[<b>Name:</b> Warroad Public Schools<br><b>Address:</b> , <br><b>SSID:</b> eduroam<br><b>Enc:</b> WPA2<br><b>AP:</b> 106<br>]]></description>
      <Point>
        <coordinates>-95.3294119,48.9113129,0</coordinates>
      </Point>
    </Placemark>
    <Placemark>
      <name>Warroad Public Schools</name>
      <description><![CDATA[<b>Name:</b> Warroad Public Schools Bus Garage<br><b>Address:</b> , <br><b>SSID:</b> eduroam<br><b>Enc:</b> WPA2<br><b>AP:</b> 2<br>]]></description>
      <Point>
        <coordinates>-95.317453,48.8996532,0</coordinates>
      </Point>
    </Placemark>
  </Document>
</kml>
