<?xml version="1.0" encoding="UTF-8"?>
<kml xmlns="http://www.opengis.net/kml/2.2">
  <Document>
    <name>eduroam — South Dakota</name>
    <description><![CDATA[15 eduroam service locations in South Dakota.<br><br>Published by <a href="https://scs.nevada.edu/eduroam">NSHE System Computing Services</a>. Learn more about eduroam Support Organizations from <a href="https://incommon.org/eduroam">Internet2</a>, the eduroam National Roaming Operator for the United States.<br>These maps are derived from data published by GÉANT (<a href="https://monitor.eduroam.org/kml/us.kml">monitor.eduroam.org</a>). This is not an official GÉANT or eduroam publication.<br>eduroam is a registered trademark of the GÉANT Association.<br>Region boundaries are derived from US Census Bureau cartographic boundary files, which as works of the US federal government are in the public domain.<br>Maps generated by eduroam-us-regional-maps, which is BSD 3-Clause licensed.]]></description>
    <open>1</open>
    <Placemark>
      <name>Augustana University</name>
      <description><![CDATA[<b>Name:</b> Augustana University<br><b>Address:</b> , <br><b>SSID:</b> eduroam<br><b>Enc:</b> WPA2+WPA<br><b>AP:</b> 500<br>]]></description>
      <Point>
        <coordinates>-96.7369991,43.5265643,0</coordinates>
      </Point>
    </Placemark>
    <Placemark>
      <name>Black Hills State University</name>
      <description><![CDATA[<b>Name:</b> Rapid City<br><b>Address:</b> , <br><b>SSID:</b> eduroam<br><b>Enc:</b> WPA2+WPA<br><b>AP:</b> -<br>]]></description>
      <Point>
        <coordinates>-103.1459895,44.0969609,0</coordinates>
      </Point>
    </Placemark>
    <Placemark>
      <name>Black Hills State University</name>
      <description><![CDATA[<b>Name:</b> Spearfish<br><b>Address:</b> , <br><b>SSID:</b> eduroam<br><b>Enc:</b> WPA2+WPA<br><b>AP:</b> -<br>]]></description>
      <Point>
        <coordinates>-103.8712643,44.4965054,0</coordinates>
      </Point>
    </Placemark>
    <Placemark>
      <name>Dakota State University</name>
      <description><![CDATA[<b>Name:</b> Main Campus<br><b>Address:</b> , <br><b>SSID:</b> eduroam<br><b>Enc:</b> WPA2+WPA<br><b>AP:</b> 610<br>]]></description>
      <Point>
        <coordinates>-97.1117559,44.0126571,0</coordinates>
      </Point>
    </Placemark>
    <Placemark>
      <name>Department of Veterans Affairs</name>
      <description><![CDATA[<b>Name:</b> Hot Springs VA Medical Center<br><b>Address:</b> , <br><b>SSID:</b> eduroam<br><b>Enc:</b> WPA2<br><b>AP:</b> -<br>]]></description>
      <Point>
        <coordinates>-103.47666,43.43703,0</coordinates>
      </Point>
    </Placemark>
    <Placemark>
      <name>Department of Veterans Affairs</name>
      <description><![CDATA[<b>Name:</b> Sioux Falls VA Medical Center<br><b>Address:</b> , <br><b>SSID:</b> eduroam<br><b>Enc:</b> WPA2<br><b>AP:</b> -<br>]]></description>
      <Point>
        <coordinates>-96.755201,43.530949,0</coordinates>
      </Point>
    </Placemark>
    <Placemark>
      <name>Northern State University</name>
      <description><![CDATA[<b>Name:</b> Main Campus<br><b>Address:</b> , <br><b>SSID:</b> eduroam<br><b>Enc:</b> WPA2+WPA<br><b>AP:</b> -<br>]]></description>
      <Point>
        <coordinates>-98.4825404,45.450895,0</coordinates>
      </Point>
    </Placemark>
    <Placemark>
      <name>Northern State University</name>
      <description><![CDATA[<b>Name:</b> NSU<br><b>Address:</b> , <br><b>SSID:</b> eduroam<br><b>Enc:</b> WPA2<br><b>AP:</b> -<br>]]></description>
      <Point>
        <coordinates>-98.4846854,45.4507483,0</coordinates>
      </Point>
    </Placemark>
    <Placemark>
      <name>South Dakota Board of Regents</name>
      <description><![CDATA[<b>Name:</b> Main Campus<br><b>Address:</b> , <br><b>SSID:</b> eduroam<br><b>Enc:</b> WPA2+WPA<br><b>AP:</b> -<br>]]></description>
      <Point>
        <coordinates>-100.3341558,44.3635911,0</coordinates>
      </Point>
    </Placemark>
    <Placemark>
      <name>South Dakota School of Mines and Technology</name>
      <description><![CDATA[<b>Name:</b> Main Campus<br><b>Address:</b> , <br><b>SSID:</b> eduroam<br><b>Enc:</b> WPA2<br><b>AP:</b> -<br>]]></description>
      <Point>
        <coordinates>-103.2062801,44.0730941,0</coordinates>
      </Point>
    </Placemark>
    <Placemark>
      <name>South Dakota State University</name>
      <description><![CDATA[<b>Name:</b> Main Campus<br><b>Address:</b> , <br><b>SSID:</b> eduroam<br><b>Enc:</b> WPA2+WPA<br><b>AP:</b> -<br>]]></description>
      <Point>
        <coordinates>-96.7821483,44.318633,0</coordinates>
      </Point>
    </Placemark>
    <Placemark>
      <name>University of Sioux Falls</name>
      <description><![CDATA[<b>Name:</b> University of Sioux Falls<br><b>Address:</b> , <br><b>SSID:</b> eduroam<br><b>Enc:</b> WPA2+WPA<br><b>AP:</b> 600<br>]]></description>
      <Point>
        <coordinates>-96.737942,43.5327632,0</coordinates>
      </Point>
    </Placemark>
    <Placemark>
      <name>University of South Dakota</name>
      <description><![CDATA[<b>Name:</b> Main Campus<br><b>Address:</b> , <br><b>SSID:</b> eduroam<br><b>Enc:</b> WPA2+WPA<br><b>AP:</b> -<br>]]></description>
      <Point>
        <coordinates>-96.9256232,42.7865772,0</coordinates>
      </Point>
    </Placemark>
    <Placemark>
      <name>University of South Dakota</name>
      <description><![CDATA[<b>Name:</b> Rapid City<br><b>Address:</b> , <br><b>SSID:</b> eduroam<br><b>Enc:</b> WPA2+WPA<br><b>AP:</b> -<br>]]></description>
      <Point>
        <coordinates>-103.2267234,44.0790649,0</coordinates>
      </Point>
    </Placemark>
    <Placemark>
      <name>University of South Dakota</name>
      <description><![CDATA[<b>Name:</b> University of South Dakota - Sioux Falls<br><b>Address:</b> , <br><b>SSID:</b> eduroam<br><b>Enc:</b> WPA2+WPA<br><b>AP:</b> -<br>]]></description>
      <Point>
        <coordinates>-96.7815548,43.6010018,0</coordinates>
      </Point>
    </Placemark>
  </Document>
</kml>
