<?xml version="1.0" encoding="UTF-8"?>
<kml xmlns="http://www.opengis.net/kml/2.2">
  <Document>
    <name>eduroam — Illinois</name>
    <description><![CDATA[40 eduroam service locations in Illinois.<br><br>Published by <a href="https://scs.nevada.edu/eduroam">NSHE System Computing Services</a>. Learn more about eduroam Support Organizations from <a href="https://incommon.org/eduroam">Internet2</a>, the eduroam National Roaming Operator for the United States.<br>These maps are derived from data published by GÉANT (<a href="https://monitor.eduroam.org/kml/us.kml">monitor.eduroam.org</a>). This is not an official GÉANT or eduroam publication.<br>eduroam is a registered trademark of the GÉANT Association.<br>Region boundaries are derived from US Census Bureau cartographic boundary files, which as works of the US federal government are in the public domain.<br>Maps generated by eduroam-us-regional-maps, which is BSD 3-Clause licensed.]]></description>
    <open>1</open>
    <Placemark>
      <name>Adler University</name>
      <description><![CDATA[<b>Name:</b> Adler University Chicago Campus<br><b>Address:</b> , <br><b>SSID:</b> eduroam<br><b>Enc:</b> WPA2<br><b>AP:</b> 40<br>]]></description>
      <Point>
        <coordinates>-87.6291652,41.8824688,0</coordinates>
      </Point>
    </Placemark>
    <Placemark>
      <name>Argonne National Laboratory</name>
      <description><![CDATA[<b>Name:</b> Argonne National Laboratory<br><b>Address:</b> , <br><b>SSID:</b> eduroam<br><b>Enc:</b> WPA2<br><b>AP:</b> 1500<br>]]></description>
      <Point>
        <coordinates>-87.9830343,41.7138833,0</coordinates>
      </Point>
    </Placemark>
    <Placemark>
      <name>Big Ten Conference</name>
      <description><![CDATA[<b>Name:</b> Big Ten Headquarters and Conferencing Center<br><b>Address:</b> , <br><b>SSID:</b> eduroam<br><b>Enc:</b> WPA2<br><b>AP:</b> -<br>]]></description>
      <Point>
        <coordinates>-87.8683636,41.9773717,0</coordinates>
      </Point>
    </Placemark>
    <Placemark>
      <name>Carl R. Woese Institute for Genomic Biology</name>
      <description><![CDATA[<b>Name:</b> Carl R. Woese Institute for Genomic Biology<br><b>Address:</b> , <br><b>SSID:</b> eduroam<br><b>Enc:</b> WPA2<br><b>AP:</b> 40<br>]]></description>
      <Point>
        <coordinates>-88.224893,40.104993,0</coordinates>
      </Point>
    </Placemark>
    <Placemark>
      <name>Champaign Unit # 4 School District</name>
      <description><![CDATA[<b>Name:</b> Champaign Unit 4 Schools<br><b>Address:</b> , <br><b>SSID:</b> eduroam<br><b>Enc:</b> WPA2<br><b>AP:</b> 1020<br>]]></description>
      <Point>
        <coordinates>-88.2504594,40.084023,0</coordinates>
      </Point>
    </Placemark>
    <Placemark>
      <name>Columbia College Chicago</name>
      <description><![CDATA[<b>Name:</b> Columbia College Chicago<br><b>Address:</b> , <br><b>SSID:</b> eduroam<br><b>Enc:</b> WPA2<br><b>AP:</b> -<br>]]></description>
      <Point>
        <coordinates>-87.6248074,41.8742424,0</coordinates>
      </Point>
    </Placemark>
    <Placemark>
      <name>Concordia University</name>
      <description><![CDATA[<b>Name:</b> Concordia University Chicago<br><b>Address:</b> , <br><b>SSID:</b> eduroam<br><b>Enc:</b> WPA2<br><b>AP:</b> 300<br>]]></description>
      <Point>
        <coordinates>-87.809547,41.899594,0</coordinates>
      </Point>
    </Placemark>
    <Placemark>
      <name>Department of Veterans Affairs</name>
      <description><![CDATA[<b>Name:</b> Auburn Gresham CBOC<br><b>Address:</b> , <br><b>SSID:</b> eduroam<br><b>Enc:</b> WPA2<br><b>AP:</b> -<br>]]></description>
      <Point>
        <coordinates>-87.643893,41.7532639,0</coordinates>
      </Point>
    </Placemark>
    <Placemark>
      <name>Department of Veterans Affairs</name>
      <description><![CDATA[<b>Name:</b> Chicago VA Medical Center<br><b>Address:</b> , <br><b>SSID:</b> eduroam<br><b>Enc:</b> WPA2<br><b>AP:</b> -<br>]]></description>
      <Point>
        <coordinates>-87.6774302,41.870659,0</coordinates>
      </Point>
    </Placemark>
    <Placemark>
      <name>Department of Veterans Affairs</name>
      <description><![CDATA[<b>Name:</b> Hines VA Medical Center<br><b>Address:</b> , <br><b>SSID:</b> eduroam<br><b>Enc:</b> WPA2<br><b>AP:</b> -<br>]]></description>
      <Point>
        <coordinates>-87.63966,41.86787,0</coordinates>
      </Point>
    </Placemark>
    <Placemark>
      <name>Department of Veterans Affairs</name>
      <description><![CDATA[<b>Name:</b> North Chicago VA Medical Center<br><b>Address:</b> , <br><b>SSID:</b> eduroam<br><b>Enc:</b> WPA2<br><b>AP:</b> -<br>]]></description>
      <Point>
        <coordinates>-87.8593485,42.3054515,0</coordinates>
      </Point>
    </Placemark>
    <Placemark>
      <name>DePaul University</name>
      <description><![CDATA[<b>Name:</b> Loop Campus<br><b>Address:</b> , <br><b>SSID:</b> eduroam<br><b>Enc:</b> WPA2+WPA<br><b>AP:</b> -<br>]]></description>
      <Point>
        <coordinates>-87.6272213,41.8775737,0</coordinates>
      </Point>
    </Placemark>
    <Placemark>
      <name>DePaul University</name>
      <description><![CDATA[<b>Name:</b> Main Campus<br><b>Address:</b> , <br><b>SSID:</b> eduroam<br><b>Enc:</b> WPA2+WPA<br><b>AP:</b> -<br>]]></description>
      <Point>
        <coordinates>-87.6554531,41.9249849,0</coordinates>
      </Point>
    </Placemark>
    <Placemark>
      <name>Fermi National Accelerator Lab</name>
      <description><![CDATA[<b>Name:</b> Main Campus<br><b>Address:</b> , <br><b>SSID:</b> eduroam<br><b>Enc:</b> WPA2+WPA<br><b>AP:</b> -<br>]]></description>
      <Point>
        <coordinates>-88.2627654,41.8380349,0</coordinates>
      </Point>
    </Placemark>
    <Placemark>
      <name>Field Museum of Natural History</name>
      <description><![CDATA[<b>Name:</b> Field Museum<br><b>Address:</b> , <br><b>SSID:</b> eduroam<br><b>Enc:</b> WPA2<br><b>AP:</b> 200<br>]]></description>
      <Point>
        <coordinates>-87.6169542,41.8661185,0</coordinates>
      </Point>
    </Placemark>
    <Placemark>
      <name>Garrett Evangelical Theological Seminary</name>
      <description><![CDATA[<b>Name:</b> Garrett Evangelical Theological Seminary<br><b>Address:</b> , <br><b>SSID:</b> eduroam<br><b>Enc:</b> WPA2<br><b>AP:</b> 20<br>]]></description>
      <Point>
        <coordinates>-87.6755804,42.0562209,0</coordinates>
      </Point>
    </Placemark>
    <Placemark>
      <name>Illinois Institute of Technology</name>
      <description><![CDATA[<b>Name:</b> Conviser Law Center<br><b>Address:</b> , <br><b>SSID:</b> eduroam<br><b>Enc:</b> WPA2<br><b>AP:</b> 121<br>]]></description>
      <Point>
        <coordinates>-87.642104,41.878981,0</coordinates>
      </Point>
    </Placemark>
    <Placemark>
      <name>Illinois Institute of Technology</name>
      <description><![CDATA[<b>Name:</b> Illinois Institute of Technology<br><b>Address:</b> , <br><b>SSID:</b> eduroam<br><b>Enc:</b> WPA2<br><b>AP:</b> 1486<br>]]></description>
      <Point>
        <coordinates>-87.626717,41.8357084,0</coordinates>
      </Point>
    </Placemark>
    <Placemark>
      <name>Illinois Institute of Technology</name>
      <description><![CDATA[<b>Name:</b> Institute of Food Safety and Health<br><b>Address:</b> , <br><b>SSID:</b> eduroam<br><b>Enc:</b> WPA2<br><b>AP:</b> 15<br>]]></description>
      <Point>
        <coordinates>-87.8175915,41.7731803,0</coordinates>
      </Point>
    </Placemark>
    <Placemark>
      <name>Illinois Institute of Technology</name>
      <description><![CDATA[<b>Name:</b> Rice Campus<br><b>Address:</b> , <br><b>SSID:</b> eduroam<br><b>Enc:</b> WPA2<br><b>AP:</b> 22<br>]]></description>
      <Point>
        <coordinates>-88.0951791,41.8320809,0</coordinates>
      </Point>
    </Placemark>
    <Placemark>
      <name>Illinois State University</name>
      <description><![CDATA[<b>Name:</b> Main Campus<br><b>Address:</b> , <br><b>SSID:</b> eduroam<br><b>Enc:</b> WPA2+WPA<br><b>AP:</b> 3300<br>]]></description>
      <Point>
        <coordinates>-88.9911367,40.508779,0</coordinates>
      </Point>
    </Placemark>
    <Placemark>
      <name>Lawrence Berkeley National Laboratory</name>
      <description><![CDATA[<b>Name:</b> ESnet-Champaign<br><b>Address:</b> , <br><b>SSID:</b> eduroam<br><b>Enc:</b> WPA2+WPA<br><b>AP:</b> 1<br>]]></description>
      <Point>
        <coordinates>-88.245558,40.1123273,0</coordinates>
      </Point>
    </Placemark>
    <Placemark>
      <name>Monmouth College</name>
      <description><![CDATA[<b>Name:</b> Monmouth College<br><b>Address:</b> , <br><b>SSID:</b> eduroam<br><b>Enc:</b> WPA2<br><b>AP:</b> 410<br>]]></description>
      <Point>
        <coordinates>-90.6388503,40.9137541,0</coordinates>
      </Point>
    </Placemark>
    <Placemark>
      <name>Northern Illinois University</name>
      <description><![CDATA[<b>Name:</b> Northern Illinois University<br><b>Address:</b> , <br><b>SSID:</b> eduroam<br><b>Enc:</b> WPA2+WPA<br><b>AP:</b> -<br>]]></description>
      <Point>
        <coordinates>-88.7740803,41.9342422,0</coordinates>
      </Point>
    </Placemark>
    <Placemark>
      <name>Northwestern University</name>
      <description><![CDATA[<b>Name:</b> Main Campus<br><b>Address:</b> , <br><b>SSID:</b> eduroam<br><b>Enc:</b> WPA2+WPA<br><b>AP:</b> 7000<br>]]></description>
      <Point>
        <coordinates>-87.6727009,42.053276,0</coordinates>
      </Point>
    </Placemark>
    <Placemark>
      <name>Parkland College</name>
      <description><![CDATA[<b>Name:</b> Parkland College<br><b>Address:</b> , <br><b>SSID:</b> eduroam<br><b>Enc:</b> WPA2<br><b>AP:</b> 200<br>]]></description>
      <Point>
        <coordinates>-88.290315,40.1319766,0</coordinates>
      </Point>
    </Placemark>
    <Placemark>
      <name>Rosalind Franklin University of Medicine and Science</name>
      <description><![CDATA[<b>Name:</b> Rosalind Franklin University<br><b>Address:</b> , <br><b>SSID:</b> eduroam<br><b>Enc:</b> WPA3+WPA2+WPA<br><b>AP:</b> -<br>]]></description>
      <Point>
        <coordinates>-87.8594257,42.2999605,0</coordinates>
      </Point>
    </Placemark>
    <Placemark>
      <name>Southern Illinois University Carbondale</name>
      <description><![CDATA[<b>Name:</b> Main Campus<br><b>Address:</b> , <br><b>SSID:</b> eduroam<br><b>Enc:</b> WPA2+WPA<br><b>AP:</b> -<br>]]></description>
      <Point>
        <coordinates>-89.2190086,37.7149621,0</coordinates>
      </Point>
    </Placemark>
    <Placemark>
      <name>Southern Illinois University Edwardsville</name>
      <description><![CDATA[<b>Name:</b> Alton School of Dental Medicine<br><b>Address:</b> , <br><b>SSID:</b> eduroam<br><b>Enc:</b> WPA2<br><b>AP:</b> 50<br>]]></description>
      <Point>
        <coordinates>-90.1433835,38.9037581,0</coordinates>
      </Point>
    </Placemark>
    <Placemark>
      <name>Southern Illinois University Edwardsville</name>
      <description><![CDATA[<b>Name:</b> East St. Louis Center<br><b>Address:</b> , <br><b>SSID:</b> eduroam<br><b>Enc:</b> WPA2<br><b>AP:</b> 50<br>]]></description>
      <Point>
        <coordinates>-90.1629611,38.6214809,0</coordinates>
      </Point>
    </Placemark>
    <Placemark>
      <name>Southern Illinois University Edwardsville</name>
      <description><![CDATA[<b>Name:</b> Main Campus<br><b>Address:</b> , <br><b>SSID:</b> eduroam<br><b>Enc:</b> WPA2<br><b>AP:</b> 1500<br>]]></description>
      <Point>
        <coordinates>-89.9967072,38.7930622,0</coordinates>
      </Point>
    </Placemark>
    <Placemark>
      <name>The Chan Zuckerberg Biohub, Inc.</name>
      <description><![CDATA[<b>Name:</b> CZ Biohub Chicago<br><b>Address:</b> , <br><b>SSID:</b> eduroam<br><b>Enc:</b> WPA2<br><b>AP:</b> 21<br>]]></description>
      <Point>
        <coordinates>-87.6550587,41.8891558,0</coordinates>
      </Point>
    </Placemark>
    <Placemark>
      <name>The Study at University of Chicago</name>
      <description><![CDATA[<b>Name:</b> The Study at University of Chicago<br><b>Address:</b> , <br><b>SSID:</b> eduroam<br><b>Enc:</b> WPA2+WPA<br><b>AP:</b> 132<br>]]></description>
      <Point>
        <coordinates>-87.5952084,41.7858301,0</coordinates>
      </Point>
    </Placemark>
    <Placemark>
      <name>ULSE INC</name>
      <description><![CDATA[<b>Name:</b> Evanston<br><b>Address:</b> , <br><b>SSID:</b> eduroam<br><b>Enc:</b> WPA3+WPA2+WPA<br><b>AP:</b> 42<br>]]></description>
      <Point>
        <coordinates>-87.6808915,42.0468491,0</coordinates>
      </Point>
    </Placemark>
    <Placemark>
      <name>ULSE INC</name>
      <description><![CDATA[<b>Name:</b> Skokie<br><b>Address:</b> , <br><b>SSID:</b> eduroam<br><b>Enc:</b> WPA3+WPA2+WPA<br><b>AP:</b> 6<br>]]></description>
      <Point>
        <coordinates>-87.7494959,42.027992,0</coordinates>
      </Point>
    </Placemark>
    <Placemark>
      <name>University of Chicago</name>
      <description><![CDATA[<b>Name:</b> Main Campus<br><b>Address:</b> , <br><b>SSID:</b> eduroam<br><b>Enc:</b> WPA2+WPA<br><b>AP:</b> -<br>]]></description>
      <Point>
        <coordinates>-87.5991769,41.7901848,0</coordinates>
      </Point>
    </Placemark>
    <Placemark>
      <name>University of Illinois at Chicago</name>
      <description><![CDATA[<b>Name:</b> Main Campus<br><b>Address:</b> , <br><b>SSID:</b> eduroam<br><b>Enc:</b> WPA2+WPA<br><b>AP:</b> -<br>]]></description>
      <Point>
        <coordinates>-87.6492778,41.8724796,0</coordinates>
      </Point>
    </Placemark>
    <Placemark>
      <name>University of Illinois at Springfield</name>
      <description><![CDATA[<b>Name:</b> Main Campus<br><b>Address:</b> , <br><b>SSID:</b> eduroam<br><b>Enc:</b> WPA2+WPA<br><b>AP:</b> 530<br>]]></description>
      <Point>
        <coordinates>-89.617002,39.7295181,0</coordinates>
      </Point>
    </Placemark>
    <Placemark>
      <name>University of Illinois at Urbana-Champaign</name>
      <description><![CDATA[<b>Name:</b> Main Campus<br><b>Address:</b> , <br><b>SSID:</b> eduroam<br><b>Enc:</b> WPA2<br><b>AP:</b> -<br>]]></description>
      <Point>
        <coordinates>-88.2300279,40.0981141,0</coordinates>
      </Point>
    </Placemark>
    <Placemark>
      <name>Wheaton College (IL)</name>
      <description><![CDATA[<b>Name:</b> Wheaton College<br><b>Address:</b> , <br><b>SSID:</b> eduroam<br><b>Enc:</b> WPA2<br><b>AP:</b> 900<br>]]></description>
      <Point>
        <coordinates>-88.0996058,41.868737,0</coordinates>
      </Point>
    </Placemark>
  </Document>
</kml>
