<?xml version="1.0" encoding="UTF-8"?>
<kml xmlns="http://www.opengis.net/kml/2.2">
  <Document>
    <name>eduroam — New Hampshire</name>
    <description><![CDATA[14 eduroam service locations in New Hampshire.<br><br>Published by <a href="https://scs.nevada.edu/eduroam">NSHE System Computing Services</a>. Learn more about eduroam Support Organizations from <a href="https://incommon.org/eduroam">Internet2</a>, the eduroam National Roaming Operator for the United States.<br>These maps are derived from data published by GÉANT (<a href="https://monitor.eduroam.org/kml/us.kml">monitor.eduroam.org</a>). This is not an official GÉANT or eduroam publication.<br>eduroam is a registered trademark of the GÉANT Association.<br>Region boundaries are derived from US Census Bureau cartographic boundary files, which as works of the US federal government are in the public domain.<br>Maps generated by eduroam-us-regional-maps, which is BSD 3-Clause licensed.]]></description>
    <open>1</open>
    <Placemark>
      <name>Antioch University</name>
      <description><![CDATA[<b>Name:</b> Antioch University - New England<br><b>Address:</b> , <br><b>SSID:</b> eduroam<br><b>Enc:</b> WPA2<br><b>AP:</b> 18<br>]]></description>
      <Point>
        <coordinates>-72.2938339,42.9317822,0</coordinates>
      </Point>
    </Placemark>
    <Placemark>
      <name>Dartmouth College</name>
      <description><![CDATA[<b>Name:</b> Main Campus<br><b>Address:</b> , <br><b>SSID:</b> eduroam<br><b>Enc:</b> WPA2<br><b>AP:</b> 6500<br>]]></description>
      <Point>
        <coordinates>-72.2899051,43.7035561,0</coordinates>
      </Point>
    </Placemark>
    <Placemark>
      <name>Department of Veterans Affairs</name>
      <description><![CDATA[<b>Name:</b> Manchester VA Medical Center<br><b>Address:</b> , <br><b>SSID:</b> eduroam<br><b>Enc:</b> WPA2<br><b>AP:</b> -<br>]]></description>
      <Point>
        <coordinates>-71.4411818,43.0126344,0</coordinates>
      </Point>
    </Placemark>
    <Placemark>
      <name>Franklin Pierce University</name>
      <description><![CDATA[<b>Name:</b> Franklin Pierce at Lebanon<br><b>Address:</b> , <br><b>SSID:</b> eduroam<br><b>Enc:</b> WPA2+WPA<br><b>AP:</b> 21<br>]]></description>
      <Point>
        <coordinates>-72.2492351,43.6217757,0</coordinates>
      </Point>
    </Placemark>
    <Placemark>
      <name>Franklin Pierce University</name>
      <description><![CDATA[<b>Name:</b> Franklin Pierce at Manchester<br><b>Address:</b> , <br><b>SSID:</b> eduroam<br><b>Enc:</b> WPA2+WPA<br><b>AP:</b> 19<br>]]></description>
      <Point>
        <coordinates>-71.4686174,42.9977348,0</coordinates>
      </Point>
    </Placemark>
    <Placemark>
      <name>Franklin Pierce University</name>
      <description><![CDATA[<b>Name:</b> Franklin Pierce at Rindge<br><b>Address:</b> , <br><b>SSID:</b> eduroam<br><b>Enc:</b> WPA2+WPA<br><b>AP:</b> 500<br>]]></description>
      <Point>
        <coordinates>-72.0555393,42.7789743,0</coordinates>
      </Point>
    </Placemark>
    <Placemark>
      <name>Keene State College</name>
      <description><![CDATA[<b>Name:</b> Keene State College<br><b>Address:</b> , <br><b>SSID:</b> eduroam<br><b>Enc:</b> WPA2+WPA<br><b>AP:</b> 1200<br>]]></description>
      <Point>
        <coordinates>-72.280327,42.9255005,0</coordinates>
      </Point>
    </Placemark>
    <Placemark>
      <name>Keene State College</name>
      <description><![CDATA[<b>Name:</b> Keene State College - OSHA<br><b>Address:</b> , <br><b>SSID:</b> eduroam<br><b>Enc:</b> WPA2+WPA<br><b>AP:</b> 6<br>]]></description>
      <Point>
        <coordinates>-71.4456134,42.9348059,0</coordinates>
      </Point>
    </Placemark>
    <Placemark>
      <name>Plymouth State University</name>
      <description><![CDATA[<b>Name:</b> Plymouth State University Main Campus<br><b>Address:</b> , <br><b>SSID:</b> eduroam<br><b>Enc:</b> WPA2+WPA<br><b>AP:</b> 995<br>]]></description>
      <Point>
        <coordinates>-71.6900574,43.7605038,0</coordinates>
      </Point>
    </Placemark>
    <Placemark>
      <name>University of New Hampshire</name>
      <description><![CDATA[<b>Name:</b> UNH Durham<br><b>Address:</b> , <br><b>SSID:</b> eduroam<br><b>Enc:</b> WPA2<br><b>AP:</b> 4118<br>]]></description>
      <Point>
        <coordinates>-70.9347739,43.135634,0</coordinates>
      </Point>
    </Placemark>
    <Placemark>
      <name>University of New Hampshire</name>
      <description><![CDATA[<b>Name:</b> UNH Manchester<br><b>Address:</b> , <br><b>SSID:</b> eduroam<br><b>Enc:</b> WPA2<br><b>AP:</b> 80<br>]]></description>
      <Point>
        <coordinates>-71.4684732,42.9876372,0</coordinates>
      </Point>
    </Placemark>
    <Placemark>
      <name>University of New Hampshire</name>
      <description><![CDATA[<b>Name:</b> UNH School of Law<br><b>Address:</b> , <br><b>SSID:</b> eduroam<br><b>Enc:</b> WPA2<br><b>AP:</b> 69<br>]]></description>
      <Point>
        <coordinates>-71.544995,43.207492,0</coordinates>
      </Point>
    </Placemark>
    <Placemark>
      <name>University of New Hampshire</name>
      <description><![CDATA[<b>Name:</b> USNH System Office<br><b>Address:</b> , <br><b>SSID:</b> eduroam<br><b>Enc:</b> WPA2<br><b>AP:</b> 12<br>]]></description>
      <Point>
        <coordinates>-71.4949024,43.2128169,0</coordinates>
      </Point>
    </Placemark>
    <Placemark>
      <name>Worldcom Exchange, Inc.</name>
      <description><![CDATA[<b>Name:</b> Main<br><b>Address:</b> , <br><b>SSID:</b> eduroam<br><b>Enc:</b> WPA2<br><b>AP:</b> 2<br>]]></description>
      <Point>
        <coordinates>-71.2576178,42.7792176,0</coordinates>
      </Point>
    </Placemark>
  </Document>
</kml>
