<?xml version="1.0" encoding="UTF-8"?>
<kml xmlns="http://www.opengis.net/kml/2.2">
  <Document>
    <name>eduroam — California</name>
    <description><![CDATA[191 eduroam service locations in California.<br><br>Published by <a href="https://scs.nevada.edu/eduroam">NSHE System Computing Services</a>. Learn more about eduroam Support Organizations from <a href="https://incommon.org/eduroam">Internet2</a>, the eduroam National Roaming Operator for the United States.<br>Service location data comes from the eduroam location database published by GÉANT (<a href="https://monitor.eduroam.org/kml/us.kml">monitor.eduroam.org</a>). These maps are derived from it and are not an official GÉANT or eduroam publication.<br>eduroam is a registered trademark of GÉANT Vereniging.<br>Region boundaries are derived from US Census Bureau cartographic boundary files, which as works of the US federal government are in the public domain.<br>Maps generated by eduroam-us-regional-maps, which is BSD 3-Clause licensed.]]></description>
    <open>1</open>
    <Placemark>
      <name>Antioch University</name>
      <description><![CDATA[<b>Name:</b> Antioch University - Los Angeles<br><b>Address:</b> , <br><b>SSID:</b> eduroam<br><b>Enc:</b> WPA2<br><b>AP:</b> 24<br>]]></description>
      <Point>
        <coordinates>-118.3840097,33.9882473,0</coordinates>
      </Point>
    </Placemark>
    <Placemark>
      <name>Antioch University</name>
      <description><![CDATA[<b>Name:</b> Antioch University - Santa Barbara<br><b>Address:</b> , <br><b>SSID:</b> eduroam<br><b>Enc:</b> WPA2<br><b>AP:</b> 32<br>]]></description>
      <Point>
        <coordinates>-119.6958223,34.4193355,0</coordinates>
      </Point>
    </Placemark>
    <Placemark>
      <name>Aruba Networks</name>
      <description><![CDATA[<b>Name:</b> Aruba Networks<br><b>Address:</b> , <br><b>SSID:</b> eduroam<br><b>Enc:</b> WPA2<br><b>AP:</b> 2<br>]]></description>
      <Point>
        <coordinates>-121.9788586,37.4192348,0</coordinates>
      </Point>
    </Placemark>
    <Placemark>
      <name>Aruba Networks</name>
      <description><![CDATA[<b>Name:</b> Ptown<br><b>Address:</b> , <br><b>SSID:</b> eduroam<br><b>Enc:</b> WPA2<br><b>AP:</b> 2<br>]]></description>
      <Point>
        <coordinates>-121.870028,37.6752871,0</coordinates>
      </Point>
    </Placemark>
    <Placemark>
      <name>Cal Poly Humboldt</name>
      <description><![CDATA[<b>Name:</b> Arcata Campus<br><b>Address:</b> , <br><b>SSID:</b> eduroam<br><b>Enc:</b> WPA2+WPA<br><b>AP:</b> 900<br>]]></description>
      <Point>
        <coordinates>-124.078587,40.877196,0</coordinates>
      </Point>
    </Placemark>
    <Placemark>
      <name>California Institute of Technology</name>
      <description><![CDATA[<b>Name:</b> Main Campus<br><b>Address:</b> , <br><b>SSID:</b> eduroam<br><b>Enc:</b> WPA2<br><b>AP:</b> 3500<br>]]></description>
      <Point>
        <coordinates>-118.1251573,34.1380764,0</coordinates>
      </Point>
    </Placemark>
    <Placemark>
      <name>California Polytechnic State University-San Luis Obispo</name>
      <description><![CDATA[<b>Name:</b> California Polytechnic State University-San Luis Obispo<br><b>Address:</b> , <br><b>SSID:</b> eduroam<br><b>Enc:</b> WPA2+WPA<br><b>AP:</b> 3400<br>]]></description>
      <Point>
        <coordinates>-120.6582713,35.3026927,0</coordinates>
      </Point>
    </Placemark>
    <Placemark>
      <name>California Polytechnic State University-San Luis Obispo</name>
      <description><![CDATA[<b>Name:</b> Main Campus<br><b>Address:</b> , <br><b>SSID:</b> eduroam<br><b>Enc:</b> WPA2+WPA<br><b>AP:</b> 2000<br>]]></description>
      <Point>
        <coordinates>-120.6624942,35.3050053,0</coordinates>
      </Point>
    </Placemark>
    <Placemark>
      <name>California State Polytechnic University-Pomona</name>
      <description><![CDATA[<b>Name:</b> Main Campus<br><b>Address:</b> , <br><b>SSID:</b> eduroam<br><b>Enc:</b> WPA2+WPA<br><b>AP:</b> -<br>]]></description>
      <Point>
        <coordinates>-117.8220958,34.0575409,0</coordinates>
      </Point>
    </Placemark>
    <Placemark>
      <name>California State University Maritime Academy</name>
      <description><![CDATA[<b>Name:</b> California State University Maritime Academy<br><b>Address:</b> , <br><b>SSID:</b> eduroam<br><b>Enc:</b> WPA2+WPA<br><b>AP:</b> 50<br>]]></description>
      <Point>
        <coordinates>-122.2325063,38.0692105,0</coordinates>
      </Point>
    </Placemark>
    <Placemark>
      <name>California State University-Bakersfield</name>
      <description><![CDATA[<b>Name:</b> California State University-Bakersfield<br><b>Address:</b> , <br><b>SSID:</b> eduroam<br><b>Enc:</b> WPA2<br><b>AP:</b> 458<br>]]></description>
      <Point>
        <coordinates>-119.1027377,35.3488097,0</coordinates>
      </Point>
    </Placemark>
    <Placemark>
      <name>California State University-Channel Islands</name>
      <description><![CDATA[<b>Name:</b> Main Campus<br><b>Address:</b> , <br><b>SSID:</b> eduroam<br><b>Enc:</b> WPA2+WPA<br><b>AP:</b> 1000<br>]]></description>
      <Point>
        <coordinates>-119.0444724,34.1621917,0</coordinates>
      </Point>
    </Placemark>
    <Placemark>
      <name>California State University-Chico</name>
      <description><![CDATA[<b>Name:</b> Main Campus<br><b>Address:</b> , <br><b>SSID:</b> eduroam<br><b>Enc:</b> WPA2<br><b>AP:</b> 1200<br>]]></description>
      <Point>
        <coordinates>-121.8483045,39.7295695,0</coordinates>
      </Point>
    </Placemark>
    <Placemark>
      <name>California State University-Dominguez Hills</name>
      <description><![CDATA[<b>Name:</b> CSUDH<br><b>Address:</b> , <br><b>SSID:</b> eduroam<br><b>Enc:</b> WPA2<br><b>AP:</b> 1078<br>]]></description>
      <Point>
        <coordinates>-118.2589841,33.8652873,0</coordinates>
      </Point>
    </Placemark>
    <Placemark>
      <name>California State University-East Bay</name>
      <description><![CDATA[<b>Name:</b> Concord Campus<br><b>Address:</b> , <br><b>SSID:</b> eduroam<br><b>Enc:</b> WPA2+WPA<br><b>AP:</b> 20<br>]]></description>
      <Point>
        <coordinates>-121.9772175,37.9444089,0</coordinates>
      </Point>
    </Placemark>
    <Placemark>
      <name>California State University-East Bay</name>
      <description><![CDATA[<b>Name:</b> Hayward Campus<br><b>Address:</b> , <br><b>SSID:</b> eduroam<br><b>Enc:</b> WPA2+WPA<br><b>AP:</b> 600<br>]]></description>
      <Point>
        <coordinates>-122.0600356,37.6582681,0</coordinates>
      </Point>
    </Placemark>
    <Placemark>
      <name>California State University-East Bay</name>
      <description><![CDATA[<b>Name:</b> Oakland Center<br><b>Address:</b> , <br><b>SSID:</b> eduroam<br><b>Enc:</b> WPA2+WPA<br><b>AP:</b> 6<br>]]></description>
      <Point>
        <coordinates>-122.2723293,37.8020191,0</coordinates>
      </Point>
    </Placemark>
    <Placemark>
      <name>California State University-Fresno</name>
      <description><![CDATA[<b>Name:</b> Main Campus<br><b>Address:</b> , <br><b>SSID:</b> eduroam<br><b>Enc:</b> WPA2<br><b>AP:</b> 1700<br>]]></description>
      <Point>
        <coordinates>-119.749687,36.8115983,0</coordinates>
      </Point>
    </Placemark>
    <Placemark>
      <name>California State University-Fullerton</name>
      <description><![CDATA[<b>Name:</b> California State University - Fullerton<br><b>Address:</b> , <br><b>SSID:</b> eduroam<br><b>Enc:</b> WPA2<br><b>AP:</b> 1000<br>]]></description>
      <Point>
        <coordinates>-117.8834616,33.8790824,0</coordinates>
      </Point>
    </Placemark>
    <Placemark>
      <name>California State University-Fullerton</name>
      <description><![CDATA[<b>Name:</b> California State University - Fullerton - UEE Coastline Community College<br><b>Address:</b> , <br><b>SSID:</b> eduroam<br><b>Enc:</b> WPA2<br><b>AP:</b> 3<br>]]></description>
      <Point>
        <coordinates>-117.9365283,33.7753246,0</coordinates>
      </Point>
    </Placemark>
    <Placemark>
      <name>California State University-Fullerton</name>
      <description><![CDATA[<b>Name:</b> Fullerton Marriott<br><b>Address:</b> , <br><b>SSID:</b> eduroam<br><b>Enc:</b> WPA2<br><b>AP:</b> 6<br>]]></description>
      <Point>
        <coordinates>-117.8819319,33.8788971,0</coordinates>
      </Point>
    </Placemark>
    <Placemark>
      <name>California State University-Long Beach</name>
      <description><![CDATA[<b>Name:</b> Main Campus<br><b>Address:</b> , <br><b>SSID:</b> eduroam<br><b>Enc:</b> WPA2<br><b>AP:</b> -<br>]]></description>
      <Point>
        <coordinates>-118.1148909,33.7830608,0</coordinates>
      </Point>
    </Placemark>
    <Placemark>
      <name>California State University-Los Angeles</name>
      <description><![CDATA[<b>Name:</b> Main Campus<br><b>Address:</b> , <br><b>SSID:</b> eduroam<br><b>Enc:</b> WPA2+WPA<br><b>AP:</b> -<br>]]></description>
      <Point>
        <coordinates>-118.1708233,34.063607,0</coordinates>
      </Point>
    </Placemark>
    <Placemark>
      <name>California State University-Monterey Bay</name>
      <description><![CDATA[<b>Name:</b> CSUMB<br><b>Address:</b> , <br><b>SSID:</b> eduroam<br><b>Enc:</b> WPA2<br><b>AP:</b> -<br>]]></description>
      <Point>
        <coordinates>-121.7977026,36.6508506,0</coordinates>
      </Point>
    </Placemark>
    <Placemark>
      <name>California State University-Northridge</name>
      <description><![CDATA[<b>Name:</b> Main Campus<br><b>Address:</b> , <br><b>SSID:</b> eduroam<br><b>Enc:</b> WPA2<br><b>AP:</b> 4000<br>]]></description>
      <Point>
        <coordinates>-118.5282607,34.2404794,0</coordinates>
      </Point>
    </Placemark>
    <Placemark>
      <name>California State University-Office of the Chancellor</name>
      <description><![CDATA[<b>Name:</b> Main Campus<br><b>Address:</b> , <br><b>SSID:</b> eduroam<br><b>Enc:</b> WPA2+WPA<br><b>AP:</b> 140<br>]]></description>
      <Point>
        <coordinates>-118.2013061,33.7642348,0</coordinates>
      </Point>
    </Placemark>
    <Placemark>
      <name>California State University-Sacramento</name>
      <description><![CDATA[<b>Name:</b> Main Campus<br><b>Address:</b> , <br><b>SSID:</b> eduroam<br><b>Enc:</b> WPA2<br><b>AP:</b> 1900<br>]]></description>
      <Point>
        <coordinates>-121.423645,38.5597774,0</coordinates>
      </Point>
    </Placemark>
    <Placemark>
      <name>California State University-San Bernardino</name>
      <description><![CDATA[<b>Name:</b> Main Campus<br><b>Address:</b> , <br><b>SSID:</b> eduroam<br><b>Enc:</b> WPA2<br><b>AP:</b> 1340<br>]]></description>
      <Point>
        <coordinates>-117.3240768,34.1827171,0</coordinates>
      </Point>
    </Placemark>
    <Placemark>
      <name>California State University-San Bernardino</name>
      <description><![CDATA[<b>Name:</b> Palm Desert Campus<br><b>Address:</b> , <br><b>SSID:</b> eduroam<br><b>Enc:</b> WPA2<br><b>AP:</b> 70<br>]]></description>
      <Point>
        <coordinates>-116.3555848,33.7756924,0</coordinates>
      </Point>
    </Placemark>
    <Placemark>
      <name>California State University-San Marcos</name>
      <description><![CDATA[<b>Name:</b> CSU San Marcos<br><b>Address:</b> , <br><b>SSID:</b> eduroam<br><b>Enc:</b> WPA2<br><b>AP:</b> 1000<br>]]></description>
      <Point>
        <coordinates>-117.1596579,33.129054,0</coordinates>
      </Point>
    </Placemark>
    <Placemark>
      <name>California State University-San Marcos</name>
      <description><![CDATA[<b>Name:</b> Main Campus<br><b>Address:</b> , <br><b>SSID:</b> eduroam<br><b>Enc:</b> WPA2<br><b>AP:</b> 746<br>]]></description>
      <Point>
        <coordinates>-117.1595924,33.1289376,0</coordinates>
      </Point>
    </Placemark>
    <Placemark>
      <name>California State University-Sonoma</name>
      <description><![CDATA[<b>Name:</b> California State University-Sonoma<br><b>Address:</b> , <br><b>SSID:</b> eduroam<br><b>Enc:</b> WPA2+WPA<br><b>AP:</b> -<br>]]></description>
      <Point>
        <coordinates>-122.6734913,38.339263,0</coordinates>
      </Point>
    </Placemark>
    <Placemark>
      <name>California State University-Stanislaus</name>
      <description><![CDATA[<b>Name:</b> California State University - Stanislaus<br><b>Address:</b> , <br><b>SSID:</b> eduroam<br><b>Enc:</b> WPA2<br><b>AP:</b> 680<br>]]></description>
      <Point>
        <coordinates>-120.8571556,37.5240049,0</coordinates>
      </Point>
    </Placemark>
    <Placemark>
      <name>California State University-Stanislaus</name>
      <description><![CDATA[<b>Name:</b> California State University Stanislaus Stockton Campus<br><b>Address:</b> , <br><b>SSID:</b> eduroam<br><b>Enc:</b> WPA2<br><b>AP:</b> 50<br>]]></description>
      <Point>
        <coordinates>-121.2846309,37.9640281,0</coordinates>
      </Point>
    </Placemark>
    <Placemark>
      <name>California Western School of Law</name>
      <description><![CDATA[<b>Name:</b> California Western School of Law - San Diego<br><b>Address:</b> , <br><b>SSID:</b> eduroam<br><b>Enc:</b> WPA2<br><b>AP:</b> 80<br>]]></description>
      <Point>
        <coordinates>-117.1625497,32.7217154,0</coordinates>
      </Point>
    </Placemark>
    <Placemark>
      <name>Carnegie Institution for Science</name>
      <description><![CDATA[<b>Name:</b> Carnegie Observatories<br><b>Address:</b> , <br><b>SSID:</b> eduroam<br><b>Enc:</b> WPA2<br><b>AP:</b> -<br>]]></description>
      <Point>
        <coordinates>-118.1336634,34.1559888,0</coordinates>
      </Point>
    </Placemark>
    <Placemark>
      <name>Chaffey Community College District</name>
      <description><![CDATA[<b>Name:</b> Chaffey Chino Campus<br><b>Address:</b> , <br><b>SSID:</b> eduroam<br><b>Enc:</b> WPA2<br><b>AP:</b> 100<br>]]></description>
      <Point>
        <coordinates>-117.6760225,33.9943892,0</coordinates>
      </Point>
    </Placemark>
    <Placemark>
      <name>Chaffey Community College District</name>
      <description><![CDATA[<b>Name:</b> Chaffey Fontana Campus<br><b>Address:</b> , <br><b>SSID:</b> eduroam<br><b>Enc:</b> WPA2<br><b>AP:</b> 100<br>]]></description>
      <Point>
        <coordinates>-117.4366884,34.0918482,0</coordinates>
      </Point>
    </Placemark>
    <Placemark>
      <name>Chaffey Community College District</name>
      <description><![CDATA[<b>Name:</b> Chaffey Rancho Cucamonga Campus<br><b>Address:</b> , <br><b>SSID:</b> eduroam<br><b>Enc:</b> WPA2<br><b>AP:</b> 750<br>]]></description>
      <Point>
        <coordinates>-117.572403,34.145229,0</coordinates>
      </Point>
    </Placemark>
    <Placemark>
      <name>Chaffey Community College District</name>
      <description><![CDATA[<b>Name:</b> InTech<br><b>Address:</b> , <br><b>SSID:</b> eduroam<br><b>Enc:</b> WPA2<br><b>AP:</b> 15<br>]]></description>
      <Point>
        <coordinates>-117.4913304,34.082203,0</coordinates>
      </Point>
    </Placemark>
    <Placemark>
      <name>Chapman University</name>
      <description><![CDATA[<b>Name:</b> CU Orange<br><b>Address:</b> , <br><b>SSID:</b> eduroam<br><b>Enc:</b> WPA2<br><b>AP:</b> 1800<br>]]></description>
      <Point>
        <coordinates>-117.8524747,33.7930045,0</coordinates>
      </Point>
    </Placemark>
    <Placemark>
      <name>Corporation For Education Network Initiatives In California</name>
      <description><![CDATA[<b>Name:</b> CENIC La Mirada<br><b>Address:</b> , <br><b>SSID:</b> eduroam<br><b>Enc:</b> WPA2+WPA<br><b>AP:</b> 1<br>]]></description>
      <Point>
        <coordinates>-118.0278919,33.8798931,0</coordinates>
      </Point>
    </Placemark>
    <Placemark>
      <name>Cuesta College</name>
      <description><![CDATA[<b>Name:</b> North County Campus<br><b>Address:</b> , <br><b>SSID:</b> eduroam<br><b>Enc:</b> WPA2<br><b>AP:</b> 89<br>]]></description>
      <Point>
        <coordinates>-120.670445,35.6502439,0</coordinates>
      </Point>
    </Placemark>
    <Placemark>
      <name>Cuesta College</name>
      <description><![CDATA[<b>Name:</b> San Luis Obispo Campus<br><b>Address:</b> , <br><b>SSID:</b> eduroam<br><b>Enc:</b> WPA2<br><b>AP:</b> 239<br>]]></description>
      <Point>
        <coordinates>-120.740771,35.32977,0</coordinates>
      </Point>
    </Placemark>
    <Placemark>
      <name>Cypress College</name>
      <description><![CDATA[<b>Name:</b> Cypress College<br><b>Address:</b> , <br><b>SSID:</b> eduroam<br><b>Enc:</b> WPA2+WPA<br><b>AP:</b> 1000<br>]]></description>
      <Point>
        <coordinates>-118.0232288,33.8282829,0</coordinates>
      </Point>
    </Placemark>
    <Placemark>
      <name>Department of Veterans Affairs</name>
      <description><![CDATA[<b>Name:</b> Aspire CBOC<br><b>Address:</b> , <br><b>SSID:</b> eduroam<br><b>Enc:</b> WPA2<br><b>AP:</b> -<br>]]></description>
      <Point>
        <coordinates>-117.189468,32.746341,0</coordinates>
      </Point>
    </Placemark>
    <Placemark>
      <name>Department of Veterans Affairs</name>
      <description><![CDATA[<b>Name:</b> Capitola CBOC<br><b>Address:</b> , <br><b>SSID:</b> eduroam<br><b>Enc:</b> WPA2<br><b>AP:</b> -<br>]]></description>
      <Point>
        <coordinates>-121.9642823,36.9706526,0</coordinates>
      </Point>
    </Placemark>
    <Placemark>
      <name>Department of Veterans Affairs</name>
      <description><![CDATA[<b>Name:</b> Chula Vista CBOC<br><b>Address:</b> , <br><b>SSID:</b> eduroam<br><b>Enc:</b> WPA2<br><b>AP:</b> -<br>]]></description>
      <Point>
        <coordinates>-117.079394,32.634418,0</coordinates>
      </Point>
    </Placemark>
    <Placemark>
      <name>Department of Veterans Affairs</name>
      <description><![CDATA[<b>Name:</b> Comp &amp; Pen Lease Admin<br><b>Address:</b> , <br><b>SSID:</b> eduroam<br><b>Enc:</b> WPA2<br><b>AP:</b> -<br>]]></description>
      <Point>
        <coordinates>-117.126189,32.773413,0</coordinates>
      </Point>
    </Placemark>
    <Placemark>
      <name>Department of Veterans Affairs</name>
      <description><![CDATA[<b>Name:</b> Escondido CBOC<br><b>Address:</b> , <br><b>SSID:</b> eduroam<br><b>Enc:</b> WPA2<br><b>AP:</b> -<br>]]></description>
      <Point>
        <coordinates>-117.071314,33.127285,0</coordinates>
      </Point>
    </Placemark>
    <Placemark>
      <name>Department of Veterans Affairs</name>
      <description><![CDATA[<b>Name:</b> Fremont CBOC<br><b>Address:</b> , <br><b>SSID:</b> eduroam<br><b>Enc:</b> WPA2<br><b>AP:</b> -<br>]]></description>
      <Point>
        <coordinates>-121.9818758,37.5503762,0</coordinates>
      </Point>
    </Placemark>
    <Placemark>
      <name>Department of Veterans Affairs</name>
      <description><![CDATA[<b>Name:</b> Greater Los Angeles AACOC<br><b>Address:</b> , <br><b>SSID:</b> eduroam<br><b>Enc:</b> WPA2<br><b>AP:</b> -<br>]]></description>
      <Point>
        <coordinates>-118.23855,34.05226,0</coordinates>
      </Point>
    </Placemark>
    <Placemark>
      <name>Department of Veterans Affairs</name>
      <description><![CDATA[<b>Name:</b> Homeless Counseling Center<br><b>Address:</b> , <br><b>SSID:</b> eduroam<br><b>Enc:</b> WPA2<br><b>AP:</b> -<br>]]></description>
      <Point>
        <coordinates>-117.160673,32.776725,0</coordinates>
      </Point>
    </Placemark>
    <Placemark>
      <name>Department of Veterans Affairs</name>
      <description><![CDATA[<b>Name:</b> Imperial Valley CBOC<br><b>Address:</b> , <br><b>SSID:</b> eduroam<br><b>Enc:</b> WPA2<br><b>AP:</b> -<br>]]></description>
      <Point>
        <coordinates>-115.551997,32.782612,0</coordinates>
      </Point>
    </Placemark>
    <Placemark>
      <name>Department of Veterans Affairs</name>
      <description><![CDATA[<b>Name:</b> Kearny Mesa Clinic<br><b>Address:</b> , <br><b>SSID:</b> eduroam<br><b>Enc:</b> WPA2<br><b>AP:</b> -<br>]]></description>
      <Point>
        <coordinates>-117.137059,32.808771,0</coordinates>
      </Point>
    </Placemark>
    <Placemark>
      <name>Department of Veterans Affairs</name>
      <description><![CDATA[<b>Name:</b> Livermore VA Medical Center<br><b>Address:</b> , <br><b>SSID:</b> eduroam<br><b>Enc:</b> WPA2<br><b>AP:</b> -<br>]]></description>
      <Point>
        <coordinates>-121.766527,37.6263182,0</coordinates>
      </Point>
    </Placemark>
    <Placemark>
      <name>Department of Veterans Affairs</name>
      <description><![CDATA[<b>Name:</b> Loma Linda VA Medical Center<br><b>Address:</b> , <br><b>SSID:</b> eduroam<br><b>Enc:</b> WPA2<br><b>AP:</b> -<br>]]></description>
      <Point>
        <coordinates>-117.25266,34.05026,0</coordinates>
      </Point>
    </Placemark>
    <Placemark>
      <name>Department of Veterans Affairs</name>
      <description><![CDATA[<b>Name:</b> Long Beach VA Medical Center<br><b>Address:</b> , <br><b>SSID:</b> eduroam<br><b>Enc:</b> WPA2<br><b>AP:</b> -<br>]]></description>
      <Point>
        <coordinates>-118.11864,33.77876,0</coordinates>
      </Point>
    </Placemark>
    <Placemark>
      <name>Department of Veterans Affairs</name>
      <description><![CDATA[<b>Name:</b> Los Angeles VA Medical Center West<br><b>Address:</b> , <br><b>SSID:</b> eduroam<br><b>Enc:</b> WPA2<br><b>AP:</b> -<br>]]></description>
      <Point>
        <coordinates>-118.45288,34.05316,0</coordinates>
      </Point>
    </Placemark>
    <Placemark>
      <name>Department of Veterans Affairs</name>
      <description><![CDATA[<b>Name:</b> Martinez VA Medical Center<br><b>Address:</b> , <br><b>SSID:</b> eduroam<br><b>Enc:</b> WPA2<br><b>AP:</b> -<br>]]></description>
      <Point>
        <coordinates>-122.11173,37.99465,0</coordinates>
      </Point>
    </Placemark>
    <Placemark>
      <name>Department of Veterans Affairs</name>
      <description><![CDATA[<b>Name:</b> Mather VA Medical Center<br><b>Address:</b> , <br><b>SSID:</b> eduroam<br><b>Enc:</b> WPA2<br><b>AP:</b> -<br>]]></description>
      <Point>
        <coordinates>-121.296525,38.572439,0</coordinates>
      </Point>
    </Placemark>
    <Placemark>
      <name>Department of Veterans Affairs</name>
      <description><![CDATA[<b>Name:</b> Menlo Park VA Medical Center<br><b>Address:</b> , <br><b>SSID:</b> eduroam<br><b>Enc:</b> WPA2<br><b>AP:</b> -<br>]]></description>
      <Point>
        <coordinates>-122.1604427,37.465979,0</coordinates>
      </Point>
    </Placemark>
    <Placemark>
      <name>Department of Veterans Affairs</name>
      <description><![CDATA[<b>Name:</b> Monterey Park CBOC<br><b>Address:</b> , <br><b>SSID:</b> eduroam<br><b>Enc:</b> WPA2<br><b>AP:</b> -<br>]]></description>
      <Point>
        <coordinates>-121.8136352,36.6630256,0</coordinates>
      </Point>
    </Placemark>
    <Placemark>
      <name>Department of Veterans Affairs</name>
      <description><![CDATA[<b>Name:</b> Mountain View Admin<br><b>Address:</b> , <br><b>SSID:</b> eduroam<br><b>Enc:</b> WPA2<br><b>AP:</b> -<br>]]></description>
      <Point>
        <coordinates>-122.086089,37.4150392,0</coordinates>
      </Point>
    </Placemark>
    <Placemark>
      <name>Department of Veterans Affairs</name>
      <description><![CDATA[<b>Name:</b> Oceanside CBOC<br><b>Address:</b> , <br><b>SSID:</b> eduroam<br><b>Enc:</b> WPA2<br><b>AP:</b> -<br>]]></description>
      <Point>
        <coordinates>-117.31086,33.207399,0</coordinates>
      </Point>
    </Placemark>
    <Placemark>
      <name>Department of Veterans Affairs</name>
      <description><![CDATA[<b>Name:</b> Palo Alto VA Medical Center<br><b>Address:</b> , <br><b>SSID:</b> eduroam<br><b>Enc:</b> WPA2<br><b>AP:</b> -<br>]]></description>
      <Point>
        <coordinates>-122.1400035,37.4055309,0</coordinates>
      </Point>
    </Placemark>
    <Placemark>
      <name>Department of Veterans Affairs</name>
      <description><![CDATA[<b>Name:</b> Redding CBOC<br><b>Address:</b> , <br><b>SSID:</b> eduroam<br><b>Enc:</b> WPA2<br><b>AP:</b> -<br>]]></description>
      <Point>
        <coordinates>-122.312763,40.506163,0</coordinates>
      </Point>
    </Placemark>
    <Placemark>
      <name>Department of Veterans Affairs</name>
      <description><![CDATA[<b>Name:</b> Rio Clinic<br><b>Address:</b> , <br><b>SSID:</b> eduroam<br><b>Enc:</b> WPA2<br><b>AP:</b> -<br>]]></description>
      <Point>
        <coordinates>-117.054629,33.015575,0</coordinates>
      </Point>
    </Placemark>
    <Placemark>
      <name>Department of Veterans Affairs</name>
      <description><![CDATA[<b>Name:</b> San Francisco HCS<br><b>Address:</b> , <br><b>SSID:</b> eduroam<br><b>Enc:</b> WPA2<br><b>AP:</b> -<br>]]></description>
      <Point>
        <coordinates>-122.504847,37.781538,0</coordinates>
      </Point>
    </Placemark>
    <Placemark>
      <name>Department of Veterans Affairs</name>
      <description><![CDATA[<b>Name:</b> San Jose (Silver Creek) CBOC<br><b>Address:</b> , <br><b>SSID:</b> eduroam<br><b>Enc:</b> WPA2<br><b>AP:</b> -<br>]]></description>
      <Point>
        <coordinates>-121.7916065,37.2559938,0</coordinates>
      </Point>
    </Placemark>
    <Placemark>
      <name>Department of Veterans Affairs</name>
      <description><![CDATA[<b>Name:</b> Sepulveda VA Medical Center<br><b>Address:</b> , <br><b>SSID:</b> eduroam<br><b>Enc:</b> WPA2<br><b>AP:</b> -<br>]]></description>
      <Point>
        <coordinates>-118.48226,34.24498,0</coordinates>
      </Point>
    </Placemark>
    <Placemark>
      <name>Department of Veterans Affairs</name>
      <description><![CDATA[<b>Name:</b> Sorrento Valley CBOC<br><b>Address:</b> , <br><b>SSID:</b> eduroam<br><b>Enc:</b> WPA2<br><b>AP:</b> -<br>]]></description>
      <Point>
        <coordinates>-117.21677,32.89542,0</coordinates>
      </Point>
    </Placemark>
    <Placemark>
      <name>Department of Veterans Affairs</name>
      <description><![CDATA[<b>Name:</b> Stockton CBOC<br><b>Address:</b> , <br><b>SSID:</b> eduroam<br><b>Enc:</b> WPA2<br><b>AP:</b> -<br>]]></description>
      <Point>
        <coordinates>-121.282936,37.890121,0</coordinates>
      </Point>
    </Placemark>
    <Placemark>
      <name>Department of Veterans Affairs</name>
      <description><![CDATA[<b>Name:</b> VASDHS (La Jolla) VA Medical Center<br><b>Address:</b> , <br><b>SSID:</b> eduroam<br><b>Enc:</b> WPA2<br><b>AP:</b> -<br>]]></description>
      <Point>
        <coordinates>-117.231945,32.87151,0</coordinates>
      </Point>
    </Placemark>
    <Placemark>
      <name>Fullerton College</name>
      <description><![CDATA[<b>Name:</b> Fullerton College<br><b>Address:</b> , <br><b>SSID:</b> eduroam<br><b>Enc:</b> WPA2+WPA<br><b>AP:</b> 1200<br>]]></description>
      <Point>
        <coordinates>-117.918401,33.8765758,0</coordinates>
      </Point>
    </Placemark>
    <Placemark>
      <name>Gladstone Institutes</name>
      <description><![CDATA[<b>Name:</b> Gladstone Institutes<br><b>Address:</b> , <br><b>SSID:</b> eduroam<br><b>Enc:</b> WPA2<br><b>AP:</b> 34<br>]]></description>
      <Point>
        <coordinates>-122.3943165,37.7677719,0</coordinates>
      </Point>
    </Placemark>
    <Placemark>
      <name>Glendale Community College District</name>
      <description><![CDATA[<b>Name:</b> Glendale Community College District<br><b>Address:</b> , <br><b>SSID:</b> eduroam<br><b>Enc:</b> WPA2<br><b>AP:</b> 450<br>]]></description>
      <Point>
        <coordinates>-118.2286772,34.1674122,0</coordinates>
      </Point>
    </Placemark>
    <Placemark>
      <name>High Performance Wireless Research and Education Network (HPWREN)</name>
      <description><![CDATA[<b>Name:</b> Black Mountain Fire Lookout<br><b>Address:</b> , <br><b>SSID:</b> eduroam<br><b>Enc:</b> WPA2<br><b>AP:</b> 1<br>]]></description>
      <Point>
        <coordinates>-116.7957424,33.8389441,0</coordinates>
      </Point>
    </Placemark>
    <Placemark>
      <name>High Performance Wireless Research and Education Network (HPWREN)</name>
      <description><![CDATA[<b>Name:</b> Camp Pendleton<br><b>Address:</b> , <br><b>SSID:</b> eduroam<br><b>Enc:</b> WPA2<br><b>AP:</b> 2<br>]]></description>
      <Point>
        <coordinates>-117.3874272,33.2145161,0</coordinates>
      </Point>
    </Placemark>
    <Placemark>
      <name>High Performance Wireless Research and Education Network (HPWREN)</name>
      <description><![CDATA[<b>Name:</b> Marion Ridge<br><b>Address:</b> , <br><b>SSID:</b> eduroam<br><b>Enc:</b> WPA2<br><b>AP:</b> 1<br>]]></description>
      <Point>
        <coordinates>-116.7332887,33.7653917,0</coordinates>
      </Point>
    </Placemark>
    <Placemark>
      <name>High Performance Wireless Research and Education Network (HPWREN)</name>
      <description><![CDATA[<b>Name:</b> Mount Palomar<br><b>Address:</b> , <br><b>SSID:</b> eduroam<br><b>Enc:</b> WPA2<br><b>AP:</b> 3<br>]]></description>
      <Point>
        <coordinates>-116.9057113,33.3320219,0</coordinates>
      </Point>
    </Placemark>
    <Placemark>
      <name>High Performance Wireless Research and Education Network (HPWREN)</name>
      <description><![CDATA[<b>Name:</b> Redonda Mesa<br><b>Address:</b> , <br><b>SSID:</b> eduroam<br><b>Enc:</b> WPA2<br><b>AP:</b> 1<br>]]></description>
      <Point>
        <coordinates>-117.3454424,33.4960462,0</coordinates>
      </Point>
    </Placemark>
    <Placemark>
      <name>High Performance Wireless Research and Education Network (HPWREN)</name>
      <description><![CDATA[<b>Name:</b> San Marcos Peak<br><b>Address:</b> , <br><b>SSID:</b> eduroam<br><b>Enc:</b> WPA2<br><b>AP:</b> 1<br>]]></description>
      <Point>
        <coordinates>-117.187402,33.215766,0</coordinates>
      </Point>
    </Placemark>
    <Placemark>
      <name>Information Sciences Institute</name>
      <description><![CDATA[<b>Name:</b> USC - Information Sciences Institute MDR<br><b>Address:</b> , <br><b>SSID:</b> eduroam<br><b>Enc:</b> WPA2<br><b>AP:</b> -<br>]]></description>
      <Point>
        <coordinates>-118.4400862,33.9803656,0</coordinates>
      </Point>
    </Placemark>
    <Placemark>
      <name>Irvine Valley College</name>
      <description><![CDATA[<b>Name:</b> Irvine Valley College<br><b>Address:</b> , <br><b>SSID:</b> eduroam<br><b>Enc:</b> WPA2<br><b>AP:</b> -<br>]]></description>
      <Point>
        <coordinates>-117.7781536,33.6742555,0</coordinates>
      </Point>
    </Placemark>
    <Placemark>
      <name>J Paul Getty Trust</name>
      <description><![CDATA[<b>Name:</b> Getty Center<br><b>Address:</b> , <br><b>SSID:</b> eduroam<br><b>Enc:</b> WPA2+WPA<br><b>AP:</b> -<br>]]></description>
      <Point>
        <coordinates>-118.4743424,34.0819968,0</coordinates>
      </Point>
    </Placemark>
    <Placemark>
      <name>Jet Propulsion Laboratory</name>
      <description><![CDATA[<b>Name:</b> Main Campus<br><b>Address:</b> , <br><b>SSID:</b> eduroam<br><b>Enc:</b> WPA2+WPA<br><b>AP:</b> -<br>]]></description>
      <Point>
        <coordinates>-118.171969,34.2005049,0</coordinates>
      </Point>
    </Placemark>
    <Placemark>
      <name>Keck Medicine of USC</name>
      <description><![CDATA[<b>Name:</b> Health Sciences Campus<br><b>Address:</b> , <br><b>SSID:</b> eduroam<br><b>Enc:</b> WPA2<br><b>AP:</b> -<br>]]></description>
      <Point>
        <coordinates>-118.2012607,34.0619943,0</coordinates>
      </Point>
    </Placemark>
    <Placemark>
      <name>Kern Community College District</name>
      <description><![CDATA[<b>Name:</b> Bakersfield College<br><b>Address:</b> , <br><b>SSID:</b> eduroam<br><b>Enc:</b> WPA2+WPA<br><b>AP:</b> 363<br>]]></description>
      <Point>
        <coordinates>-118.9716483,35.408,0</coordinates>
      </Point>
    </Placemark>
    <Placemark>
      <name>La Jolla Institute for Immunology</name>
      <description><![CDATA[<b>Name:</b> La Jolla Institute<br><b>Address:</b> , <br><b>SSID:</b> eduroam<br><b>Enc:</b> WPA2<br><b>AP:</b> 51<br>]]></description>
      <Point>
        <coordinates>-117.2199194,32.8772625,0</coordinates>
      </Point>
    </Placemark>
    <Placemark>
      <name>Lawrence Berkeley National Laboratory</name>
      <description><![CDATA[<b>Name:</b> JBEI/ABPDU<br><b>Address:</b> , <br><b>SSID:</b> eduroam<br><b>Enc:</b> WPA2<br><b>AP:</b> -<br>]]></description>
      <Point>
        <coordinates>-122.2899738,37.8405026,0</coordinates>
      </Point>
    </Placemark>
    <Placemark>
      <name>Lawrence Berkeley National Laboratory</name>
      <description><![CDATA[<b>Name:</b> JGI<br><b>Address:</b> , <br><b>SSID:</b> eduroam<br><b>Enc:</b> WPA2<br><b>AP:</b> -<br>]]></description>
      <Point>
        <coordinates>-122.0217454,37.9313884,0</coordinates>
      </Point>
    </Placemark>
    <Placemark>
      <name>Lawrence Berkeley National Laboratory</name>
      <description><![CDATA[<b>Name:</b> Main Campus<br><b>Address:</b> , <br><b>SSID:</b> eduroam<br><b>Enc:</b> WPA2+WPA<br><b>AP:</b> -<br>]]></description>
      <Point>
        <coordinates>-122.2475788,37.8767996,0</coordinates>
      </Point>
    </Placemark>
    <Placemark>
      <name>Loyola Marymount University</name>
      <description><![CDATA[<b>Name:</b> Brickyard Campus<br><b>Address:</b> , <br><b>SSID:</b> eduroam<br><b>Enc:</b> WPA2+WPA<br><b>AP:</b> 50<br>]]></description>
      <Point>
        <coordinates>-118.4079582,33.9805823,0</coordinates>
      </Point>
    </Placemark>
    <Placemark>
      <name>Loyola Marymount University</name>
      <description><![CDATA[<b>Name:</b> Law School Campus<br><b>Address:</b> , <br><b>SSID:</b> eduroam<br><b>Enc:</b> WPA2+WPA<br><b>AP:</b> 101<br>]]></description>
      <Point>
        <coordinates>-118.2712126,34.0489615,0</coordinates>
      </Point>
    </Placemark>
    <Placemark>
      <name>Loyola Marymount University</name>
      <description><![CDATA[<b>Name:</b> Westchester Campus<br><b>Address:</b> , <br><b>SSID:</b> eduroam<br><b>Enc:</b> WPA2+WPA<br><b>AP:</b> 1700<br>]]></description>
      <Point>
        <coordinates>-118.4173053,33.9701828,0</coordinates>
      </Point>
    </Placemark>
    <Placemark>
      <name>Mathematical Sciences Research Institute</name>
      <description><![CDATA[<b>Name:</b> MSRI - Mathematical Sciences Research Institute<br><b>Address:</b> , <br><b>SSID:</b> eduroam<br><b>Enc:</b> WPA2+WPA<br><b>AP:</b> 12<br>]]></description>
      <Point>
        <coordinates>-122.2442633,37.8797962,0</coordinates>
      </Point>
    </Placemark>
    <Placemark>
      <name>Mendocino-Lake Community College District D/B/A Mendocino College</name>
      <description><![CDATA[<b>Name:</b> Mendocino College Coast Center<br><b>Address:</b> , <br><b>SSID:</b> eduroam<br><b>Enc:</b> WPA2<br><b>AP:</b> 14<br>]]></description>
      <Point>
        <coordinates>-123.8105384,39.4225423,0</coordinates>
      </Point>
    </Placemark>
    <Placemark>
      <name>Mendocino-Lake Community College District D/B/A Mendocino College</name>
      <description><![CDATA[<b>Name:</b> Mendocino College Lake Center<br><b>Address:</b> , <br><b>SSID:</b> eduroam<br><b>Enc:</b> WPA2<br><b>AP:</b> 8<br>]]></description>
      <Point>
        <coordinates>-122.9173938,39.0196298,0</coordinates>
      </Point>
    </Placemark>
    <Placemark>
      <name>Mendocino-Lake Community College District D/B/A Mendocino College</name>
      <description><![CDATA[<b>Name:</b> Mendocino College North County Center<br><b>Address:</b> , <br><b>SSID:</b> eduroam<br><b>Enc:</b> WPA2<br><b>AP:</b> 5<br>]]></description>
      <Point>
        <coordinates>-123.3485689,39.4127513,0</coordinates>
      </Point>
    </Placemark>
    <Placemark>
      <name>Mendocino-Lake Community College District D/B/A Mendocino College</name>
      <description><![CDATA[<b>Name:</b> Ukiah Campus<br><b>Address:</b> , <br><b>SSID:</b> eduroam<br><b>Enc:</b> WPA2<br><b>AP:</b> 152<br>]]></description>
      <Point>
        <coordinates>-123.2303631,39.1895753,0</coordinates>
      </Point>
    </Placemark>
    <Placemark>
      <name>Mount Saint Mary's University</name>
      <description><![CDATA[<b>Name:</b> MSMU Chalon Campus<br><b>Address:</b> , <br><b>SSID:</b> eduroam<br><b>Enc:</b> WPA2+WPA<br><b>AP:</b> 377<br>]]></description>
      <Point>
        <coordinates>-118.4815847,34.084163,0</coordinates>
      </Point>
    </Placemark>
    <Placemark>
      <name>Mount Saint Mary's University</name>
      <description><![CDATA[<b>Name:</b> MSMU Doheny Campus<br><b>Address:</b> , <br><b>SSID:</b> eduroam<br><b>Enc:</b> WPA2+WPA<br><b>AP:</b> 354<br>]]></description>
      <Point>
        <coordinates>-118.2785624,34.0299121,0</coordinates>
      </Point>
    </Placemark>
    <Placemark>
      <name>Naval Postgraduate School</name>
      <description><![CDATA[<b>Name:</b> Naval Postgraduate School<br><b>Address:</b> , <br><b>SSID:</b> eduroam<br><b>Enc:</b> WPA2<br><b>AP:</b> 321<br>]]></description>
      <Point>
        <coordinates>-121.874317,36.5971924,0</coordinates>
      </Point>
    </Placemark>
    <Placemark>
      <name>North Orange County Community College District</name>
      <description><![CDATA[<b>Name:</b> NOCCCD<br><b>Address:</b> , <br><b>SSID:</b> eduroam<br><b>Enc:</b> WPA2+WPA<br><b>AP:</b> 150<br>]]></description>
      <Point>
        <coordinates>-117.9455534,33.8499704,0</coordinates>
      </Point>
    </Placemark>
    <Placemark>
      <name>Northeastern University</name>
      <description><![CDATA[<b>Name:</b> Silicon Valley Campus<br><b>Address:</b> , <br><b>SSID:</b> eduroam<br><b>Enc:</b> WPA2<br><b>AP:</b> -<br>]]></description>
      <Point>
        <coordinates>-121.7863313,37.25716,0</coordinates>
      </Point>
    </Placemark>
    <Placemark>
      <name>Pepperdine University</name>
      <description><![CDATA[<b>Name:</b> Main Campus<br><b>Address:</b> , <br><b>SSID:</b> eduroam<br><b>Enc:</b> WPA2+WPA<br><b>AP:</b> -<br>]]></description>
      <Point>
        <coordinates>-118.7091457,34.041766,0</coordinates>
      </Point>
    </Placemark>
    <Placemark>
      <name>Riverside Community College District</name>
      <description><![CDATA[<b>Name:</b> Centennial Plaza<br><b>Address:</b> , <br><b>SSID:</b> eduroam<br><b>Enc:</b> WPA2<br><b>AP:</b> 100<br>]]></description>
      <Point>
        <coordinates>-117.3766046,33.9825847,0</coordinates>
      </Point>
    </Placemark>
    <Placemark>
      <name>Rockefeller Lane</name>
      <description><![CDATA[<b>Name:</b> Rockefeller Lane<br><b>Address:</b> , <br><b>SSID:</b> eduroam<br><b>Enc:</b> WPA2<br><b>AP:</b> 1<br>]]></description>
      <Point>
        <coordinates>-118.3672948,33.8696821,0</coordinates>
      </Point>
    </Placemark>
    <Placemark>
      <name>Saddleback College</name>
      <description><![CDATA[<b>Name:</b> Saddleback College<br><b>Address:</b> , <br><b>SSID:</b> eduroam<br><b>Enc:</b> WPA3+WPA2+WPA<br><b>AP:</b> 825<br>]]></description>
      <Point>
        <coordinates>-117.6652487,33.5539048,0</coordinates>
      </Point>
    </Placemark>
    <Placemark>
      <name>Salk Institute for Biological Studies</name>
      <description><![CDATA[<b>Name:</b> Salk Institute - Greenhouse<br><b>Address:</b> , <br><b>SSID:</b> eduroam<br><b>Enc:</b> WPA2<br><b>AP:</b> 10<br>]]></description>
      <Point>
        <coordinates>-117.2834544,33.0560504,0</coordinates>
      </Point>
    </Placemark>
    <Placemark>
      <name>Salk Institute for Biological Studies</name>
      <description><![CDATA[<b>Name:</b> Salk Institute - Main Campus<br><b>Address:</b> , <br><b>SSID:</b> eduroam<br><b>Enc:</b> WPA2<br><b>AP:</b> 100<br>]]></description>
      <Point>
        <coordinates>-117.24427,32.8865284,0</coordinates>
      </Point>
    </Placemark>
    <Placemark>
      <name>San Diego State University</name>
      <description><![CDATA[<b>Name:</b> Main Campus<br><b>Address:</b> , <br><b>SSID:</b> eduroam<br><b>Enc:</b> WPA2<br><b>AP:</b> 3100<br>]]></description>
      <Point>
        <coordinates>-117.0718347,32.7748004,0</coordinates>
      </Point>
    </Placemark>
    <Placemark>
      <name>San Francisco State University</name>
      <description><![CDATA[<b>Name:</b> San Francisco State University<br><b>Address:</b> , <br><b>SSID:</b> eduroam<br><b>Enc:</b> WPA2<br><b>AP:</b> -<br>]]></description>
      <Point>
        <coordinates>-122.4770789,37.7216625,0</coordinates>
      </Point>
    </Placemark>
    <Placemark>
      <name>San José State University</name>
      <description><![CDATA[<b>Name:</b> San Jose State University<br><b>Address:</b> , <br><b>SSID:</b> eduroam<br><b>Enc:</b> WPA2<br><b>AP:</b> 3000<br>]]></description>
      <Point>
        <coordinates>-121.8812758,37.3351424,0</coordinates>
      </Point>
    </Placemark>
    <Placemark>
      <name>San Mateo Community College</name>
      <description><![CDATA[<b>Name:</b> San Mateo Community College - Main Campus<br><b>Address:</b> , <br><b>SSID:</b> eduroam<br><b>Enc:</b> WPA2<br><b>AP:</b> 1000<br>]]></description>
      <Point>
        <coordinates>-122.3375439,37.5313116,0</coordinates>
      </Point>
    </Placemark>
    <Placemark>
      <name>Santa Barbara City College</name>
      <description><![CDATA[<b>Name:</b> Cosmotology SBCC<br><b>Address:</b> , <br><b>SSID:</b> eduroam<br><b>Enc:</b> WPA2<br><b>AP:</b> 8<br>]]></description>
      <Point>
        <coordinates>-119.6954403,34.418352,0</coordinates>
      </Point>
    </Placemark>
    <Placemark>
      <name>Santa Barbara City College</name>
      <description><![CDATA[<b>Name:</b> Santa Barbara City College<br><b>Address:</b> , <br><b>SSID:</b> eduroam<br><b>Enc:</b> WPA2<br><b>AP:</b> 371<br>]]></description>
      <Point>
        <coordinates>-119.699331,34.4059714,0</coordinates>
      </Point>
    </Placemark>
    <Placemark>
      <name>Santa Barbara City College</name>
      <description><![CDATA[<b>Name:</b> Schott Campus SBCC<br><b>Address:</b> , <br><b>SSID:</b> eduroam<br><b>Enc:</b> WPA2<br><b>AP:</b> 21<br>]]></description>
      <Point>
        <coordinates>-119.720428,34.4284029,0</coordinates>
      </Point>
    </Placemark>
    <Placemark>
      <name>Santa Barbara City College</name>
      <description><![CDATA[<b>Name:</b> Wake Campus SBCC<br><b>Address:</b> , <br><b>SSID:</b> eduroam<br><b>Enc:</b> WPA2<br><b>AP:</b> 31<br>]]></description>
      <Point>
        <coordinates>-119.787633,34.44498,0</coordinates>
      </Point>
    </Placemark>
    <Placemark>
      <name>Santa Clara University</name>
      <description><![CDATA[<b>Name:</b> Santa Clara University<br><b>Address:</b> , <br><b>SSID:</b> eduroam<br><b>Enc:</b> WPA2+WPA<br><b>AP:</b> 3000<br>]]></description>
      <Point>
        <coordinates>-121.9389875,37.3496418,0</coordinates>
      </Point>
    </Placemark>
    <Placemark>
      <name>Scripps Research</name>
      <description><![CDATA[<b>Name:</b> Calibr<br><b>Address:</b> , <br><b>SSID:</b> eduroam<br><b>Enc:</b> WPA2<br><b>AP:</b> 30<br>]]></description>
      <Point>
        <coordinates>-117.2429262,32.9079514,0</coordinates>
      </Point>
    </Placemark>
    <Placemark>
      <name>Scripps Research</name>
      <description><![CDATA[<b>Name:</b> La Jolla<br><b>Address:</b> , <br><b>SSID:</b> eduroam<br><b>Enc:</b> WPA2<br><b>AP:</b> 500<br>]]></description>
      <Point>
        <coordinates>-117.2412937,32.8944433,0</coordinates>
      </Point>
    </Placemark>
    <Placemark>
      <name>Soka University of America</name>
      <description><![CDATA[<b>Name:</b> Soka University of America<br><b>Address:</b> , <br><b>SSID:</b> eduroam<br><b>Enc:</b> WPA2<br><b>AP:</b> 700<br>]]></description>
      <Point>
        <coordinates>-117.7334498,33.5558579,0</coordinates>
      </Point>
    </Placemark>
    <Placemark>
      <name>SRI International</name>
      <description><![CDATA[<b>Name:</b> Menlo Park<br><b>Address:</b> , <br><b>SSID:</b> eduroam<br><b>Enc:</b> WPA3+WPA2+WPA<br><b>AP:</b> 400<br>]]></description>
      <Point>
        <coordinates>-122.1774188,37.4575838,0</coordinates>
      </Point>
    </Placemark>
    <Placemark>
      <name>Stanford University</name>
      <description><![CDATA[<b>Name:</b> Main Campus<br><b>Address:</b> , <br><b>SSID:</b> eduroam<br><b>Enc:</b> WPA2<br><b>AP:</b> -<br>]]></description>
      <Point>
        <coordinates>-122.1687868,37.4286446,0</coordinates>
      </Point>
    </Placemark>
    <Placemark>
      <name>Stanford University</name>
      <description><![CDATA[<b>Name:</b> Redwood City<br><b>Address:</b> , <br><b>SSID:</b> eduroam<br><b>Enc:</b> WPA2<br><b>AP:</b> -<br>]]></description>
      <Point>
        <coordinates>-122.2037542,37.4836513,0</coordinates>
      </Point>
    </Placemark>
    <Placemark>
      <name>Stanford University</name>
      <description><![CDATA[<b>Name:</b> SLAC National Accelerator Laboratory<br><b>Address:</b> , <br><b>SSID:</b> eduroam<br><b>Enc:</b> WPA2<br><b>AP:</b> -<br>]]></description>
      <Point>
        <coordinates>-122.2040337,37.4196331,0</coordinates>
      </Point>
    </Placemark>
    <Placemark>
      <name>The Chan Zuckerberg Biohub, Inc.</name>
      <description><![CDATA[<b>Name:</b> CZ Biohub SF<br><b>Address:</b> , <br><b>SSID:</b> eduroam<br><b>Enc:</b> WPA2<br><b>AP:</b> 42<br>]]></description>
      <Point>
        <coordinates>-122.3877002,37.7658385,0</coordinates>
      </Point>
    </Placemark>
    <Placemark>
      <name>The Chan Zuckerberg Biohub, Inc.</name>
      <description><![CDATA[<b>Name:</b> CZ Imaging Institute<br><b>Address:</b> , <br><b>SSID:</b> eduroam<br><b>Enc:</b> WPA2<br><b>AP:</b> 34<br>]]></description>
      <Point>
        <coordinates>-122.2551805,37.5377719,0</coordinates>
      </Point>
    </Placemark>
    <Placemark>
      <name>The Claremont Colleges</name>
      <description><![CDATA[<b>Name:</b> Claremont Graduate University<br><b>Address:</b> , <br><b>SSID:</b> eduroam<br><b>Enc:</b> WPA2<br><b>AP:</b> -<br>]]></description>
      <Point>
        <coordinates>-117.7138718,34.1038236,0</coordinates>
      </Point>
    </Placemark>
    <Placemark>
      <name>The Claremont Colleges</name>
      <description><![CDATA[<b>Name:</b> Claremont McKenna College<br><b>Address:</b> , <br><b>SSID:</b> eduroam<br><b>Enc:</b> WPA2<br><b>AP:</b> -<br>]]></description>
      <Point>
        <coordinates>-117.7075909,34.1016553,0</coordinates>
      </Point>
    </Placemark>
    <Placemark>
      <name>The Claremont Colleges</name>
      <description><![CDATA[<b>Name:</b> Harvey Mudd College<br><b>Address:</b> , <br><b>SSID:</b> eduroam<br><b>Enc:</b> WPA2<br><b>AP:</b> -<br>]]></description>
      <Point>
        <coordinates>-117.7093147,34.106067,0</coordinates>
      </Point>
    </Placemark>
    <Placemark>
      <name>The Claremont Colleges</name>
      <description><![CDATA[<b>Name:</b> Keck Graduate Institute<br><b>Address:</b> , <br><b>SSID:</b> eduroam<br><b>Enc:</b> WPA2<br><b>AP:</b> -<br>]]></description>
      <Point>
        <coordinates>-117.7230424,34.0927787,0</coordinates>
      </Point>
    </Placemark>
    <Placemark>
      <name>The Claremont Colleges</name>
      <description><![CDATA[<b>Name:</b> Pitzer College<br><b>Address:</b> , <br><b>SSID:</b> eduroam<br><b>Enc:</b> WPA2<br><b>AP:</b> -<br>]]></description>
      <Point>
        <coordinates>-117.7047392,34.1046694,0</coordinates>
      </Point>
    </Placemark>
    <Placemark>
      <name>The Claremont Colleges</name>
      <description><![CDATA[<b>Name:</b> Pomona College<br><b>Address:</b> , <br><b>SSID:</b> eduroam<br><b>Enc:</b> WPA2<br><b>AP:</b> -<br>]]></description>
      <Point>
        <coordinates>-117.7094496,34.097718,0</coordinates>
      </Point>
    </Placemark>
    <Placemark>
      <name>The Claremont Colleges</name>
      <description><![CDATA[<b>Name:</b> Scripps College<br><b>Address:</b> , <br><b>SSID:</b> eduroam<br><b>Enc:</b> WPA2<br><b>AP:</b> -<br>]]></description>
      <Point>
        <coordinates>-117.710379,34.1042118,0</coordinates>
      </Point>
    </Placemark>
    <Placemark>
      <name>The Claremont Colleges</name>
      <description><![CDATA[<b>Name:</b> The Claremont Colleges Services<br><b>Address:</b> , <br><b>SSID:</b> eduroam<br><b>Enc:</b> WPA2<br><b>AP:</b> -<br>]]></description>
      <Point>
        <coordinates>-117.7079673,34.0943946,0</coordinates>
      </Point>
    </Placemark>
    <Placemark>
      <name>The Jackson Laboratory</name>
      <description><![CDATA[<b>Name:</b> Sacramento<br><b>Address:</b> , <br><b>SSID:</b> eduroam<br><b>Enc:</b> WPA2<br><b>AP:</b> 68<br>]]></description>
      <Point>
        <coordinates>-121.4272408,38.6574128,0</coordinates>
      </Point>
    </Placemark>
    <Placemark>
      <name>UC College of the Law San Francisco</name>
      <description><![CDATA[<b>Name:</b> UC College of the Law San Francisco<br><b>Address:</b> , <br><b>SSID:</b> eduroam<br><b>Enc:</b> WPA2 + WPA3<br><b>AP:</b> 620<br>]]></description>
      <Point>
        <coordinates>-122.4158445,37.7811659,0</coordinates>
      </Point>
    </Placemark>
    <Placemark>
      <name>UC Davis Medical Center</name>
      <description><![CDATA[<b>Name:</b> UC Davis Health<br><b>Address:</b> , <br><b>SSID:</b> eduroam<br><b>Enc:</b> WPA2<br><b>AP:</b> 4000<br>]]></description>
      <Point>
        <coordinates>-121.4554222,38.5544352,0</coordinates>
      </Point>
    </Placemark>
    <Placemark>
      <name>University of California-Berkeley</name>
      <description><![CDATA[<b>Name:</b> 1608 Fourth Street<br><b>Address:</b> , <br><b>SSID:</b> eduroam<br><b>Enc:</b> WPA2<br><b>AP:</b> 70<br>]]></description>
      <Point>
        <coordinates>-122.3020495,37.8729837,0</coordinates>
      </Point>
    </Placemark>
    <Placemark>
      <name>University of California-Berkeley</name>
      <description><![CDATA[<b>Name:</b> 2000 Carlton<br><b>Address:</b> , <br><b>SSID:</b> eduroam<br><b>Enc:</b> WPA2<br><b>AP:</b> 30<br>]]></description>
      <Point>
        <coordinates>-122.2684017,37.8605571,0</coordinates>
      </Point>
    </Placemark>
    <Placemark>
      <name>University of California-Berkeley</name>
      <description><![CDATA[<b>Name:</b> 2850 Telegraph<br><b>Address:</b> , <br><b>SSID:</b> eduroam<br><b>Enc:</b> WPA2<br><b>AP:</b> 60<br>]]></description>
      <Point>
        <coordinates>-122.2598203,37.8583115,0</coordinates>
      </Point>
    </Placemark>
    <Placemark>
      <name>University of California-Berkeley</name>
      <description><![CDATA[<b>Name:</b> Botanical Gardens<br><b>Address:</b> , <br><b>SSID:</b> eduroam<br><b>Enc:</b> WPA2<br><b>AP:</b> 5<br>]]></description>
      <Point>
        <coordinates>-122.2385375,37.874996,0</coordinates>
      </Point>
    </Placemark>
    <Placemark>
      <name>University of California-Berkeley</name>
      <description><![CDATA[<b>Name:</b> Clark Kerr Campus<br><b>Address:</b> , <br><b>SSID:</b> eduroam<br><b>Enc:</b> WPA2<br><b>AP:</b> 300<br>]]></description>
      <Point>
        <coordinates>-122.2491991,37.8641984,0</coordinates>
      </Point>
    </Placemark>
    <Placemark>
      <name>University of California-Berkeley</name>
      <description><![CDATA[<b>Name:</b> Lawrence Hall of Science<br><b>Address:</b> , <br><b>SSID:</b> eduroam<br><b>Enc:</b> WPA2<br><b>AP:</b> 70<br>]]></description>
      <Point>
        <coordinates>-122.2465253,37.8792063,0</coordinates>
      </Point>
    </Placemark>
    <Placemark>
      <name>University of California-Berkeley</name>
      <description><![CDATA[<b>Name:</b> Main Campus<br><b>Address:</b> , <br><b>SSID:</b> eduroam<br><b>Enc:</b> WPA2<br><b>AP:</b> 8000<br>]]></description>
      <Point>
        <coordinates>-122.2583197,37.8719396,0</coordinates>
      </Point>
    </Placemark>
    <Placemark>
      <name>University of California-Berkeley</name>
      <description><![CDATA[<b>Name:</b> Richmond Field Station<br><b>Address:</b> , <br><b>SSID:</b> eduroam<br><b>Enc:</b> WPA2<br><b>AP:</b> 150<br>]]></description>
      <Point>
        <coordinates>-122.334094,37.9133258,0</coordinates>
      </Point>
    </Placemark>
    <Placemark>
      <name>University of California-Berkeley</name>
      <description><![CDATA[<b>Name:</b> University Village Albany<br><b>Address:</b> , <br><b>SSID:</b> eduroam<br><b>Enc:</b> WPA2<br><b>AP:</b> 900<br>]]></description>
      <Point>
        <coordinates>-122.3043215,37.8837367,0</coordinates>
      </Point>
    </Placemark>
    <Placemark>
      <name>University of California-Davis</name>
      <description><![CDATA[<b>Name:</b> UCDavis<br><b>Address:</b> , <br><b>SSID:</b> eduroam<br><b>Enc:</b> WPA2<br><b>AP:</b> -<br>]]></description>
      <Point>
        <coordinates>-121.7520819,38.5392873,0</coordinates>
      </Point>
    </Placemark>
    <Placemark>
      <name>University of California-Irvine</name>
      <description><![CDATA[<b>Name:</b> Main Campus<br><b>Address:</b> , <br><b>SSID:</b> eduroam<br><b>Enc:</b> WPA2+WPA<br><b>AP:</b> -<br>]]></description>
      <Point>
        <coordinates>-117.8418281,33.6469426,0</coordinates>
      </Point>
    </Placemark>
    <Placemark>
      <name>University of California-Los Angeles</name>
      <description><![CDATA[<b>Name:</b> Main Campus<br><b>Address:</b> , <br><b>SSID:</b> eduroam<br><b>Enc:</b> WPA2+WPA<br><b>AP:</b> -<br>]]></description>
      <Point>
        <coordinates>-118.4431496,34.0707561,0</coordinates>
      </Point>
    </Placemark>
    <Placemark>
      <name>University of California-Merced</name>
      <description><![CDATA[<b>Name:</b> Main Campus<br><b>Address:</b> , <br><b>SSID:</b> eduroam<br><b>Enc:</b> WPA2+WPA<br><b>AP:</b> 2500<br>]]></description>
      <Point>
        <coordinates>-120.4245695,37.3662574,0</coordinates>
      </Point>
    </Placemark>
    <Placemark>
      <name>University of California-Office of the President</name>
      <description><![CDATA[<b>Name:</b> Main Campus<br><b>Address:</b> , <br><b>SSID:</b> eduroam<br><b>Enc:</b> WPA2+WPA<br><b>AP:</b> -<br>]]></description>
      <Point>
        <coordinates>-122.271326,37.8023966,0</coordinates>
      </Point>
    </Placemark>
    <Placemark>
      <name>University of California-Riverside</name>
      <description><![CDATA[<b>Name:</b> Agricultural Operations<br><b>Address:</b> , <br><b>SSID:</b> eduroam<br><b>Enc:</b> WPA2<br><b>AP:</b> 19<br>]]></description>
      <Point>
        <coordinates>-117.334614,33.9678734,0</coordinates>
      </Point>
    </Placemark>
    <Placemark>
      <name>University of California-Riverside</name>
      <description><![CDATA[<b>Name:</b> Barbara and Art Culver Center of the Arts<br><b>Address:</b> , <br><b>SSID:</b> eduroam<br><b>Enc:</b> WPA2<br><b>AP:</b> 10<br>]]></description>
      <Point>
        <coordinates>-117.3357334,34.0192465,0</coordinates>
      </Point>
    </Placemark>
    <Placemark>
      <name>University of California-Riverside</name>
      <description><![CDATA[<b>Name:</b> California Museum of Photography<br><b>Address:</b> , <br><b>SSID:</b> eduroam<br><b>Enc:</b> WPA2<br><b>AP:</b> 3<br>]]></description>
      <Point>
        <coordinates>-117.335733,34.0192465,0</coordinates>
      </Point>
    </Placemark>
    <Placemark>
      <name>University of California-Riverside</name>
      <description><![CDATA[<b>Name:</b> Center for Environmental Research &amp; Technology<br><b>Address:</b> , <br><b>SSID:</b> eduroam<br><b>Enc:</b> WPA2<br><b>AP:</b> 34<br>]]></description>
      <Point>
        <coordinates>-117.3351126,34.0002823,0</coordinates>
      </Point>
    </Placemark>
    <Placemark>
      <name>University of California-Riverside</name>
      <description><![CDATA[<b>Name:</b> Early Academic Outreach Program (EAOP)<br><b>Address:</b> , <br><b>SSID:</b> eduroam<br><b>Enc:</b> WPA2 + WPA3<br><b>AP:</b> 60<br>]]></description>
      <Point>
        <coordinates>-117.3388505,33.9988288,0</coordinates>
      </Point>
    </Placemark>
    <Placemark>
      <name>University of California-Riverside</name>
      <description><![CDATA[<b>Name:</b> Intellicenter<br><b>Address:</b> , <br><b>SSID:</b> eduroam<br><b>Enc:</b> WPA2<br><b>AP:</b> 18<br>]]></description>
      <Point>
        <coordinates>-117.2875428,33.9107725,0</coordinates>
      </Point>
    </Placemark>
    <Placemark>
      <name>University of California-Riverside</name>
      <description><![CDATA[<b>Name:</b> Main Campus<br><b>Address:</b> , <br><b>SSID:</b> eduroam<br><b>Enc:</b> WPA2<br><b>AP:</b> 3092<br>]]></description>
      <Point>
        <coordinates>-117.3315931,33.975426,0</coordinates>
      </Point>
    </Placemark>
    <Placemark>
      <name>University of California-Riverside</name>
      <description><![CDATA[<b>Name:</b> MFA Program graduate art studios<br><b>Address:</b> , <br><b>SSID:</b> eduroam<br><b>Enc:</b> WPA2 + WPA3<br><b>AP:</b> 3<br>]]></description>
      <Point>
        <coordinates>-117.3345222,34.0087732,0</coordinates>
      </Point>
    </Placemark>
    <Placemark>
      <name>University of California-Riverside</name>
      <description><![CDATA[<b>Name:</b> Palm Desert Center<br><b>Address:</b> , <br><b>SSID:</b> eduroam<br><b>Enc:</b> WPA2<br><b>AP:</b> 15<br>]]></description>
      <Point>
        <coordinates>-116.3544159,33.7732964,0</coordinates>
      </Point>
    </Placemark>
    <Placemark>
      <name>University of California-San Diego</name>
      <description><![CDATA[<b>Name:</b> Main Campus<br><b>Address:</b> , <br><b>SSID:</b> eduroam<br><b>Enc:</b> WPA2+WPA<br><b>AP:</b> 10000<br>]]></description>
      <Point>
        <coordinates>-117.2320838,32.8784839,0</coordinates>
      </Point>
    </Placemark>
    <Placemark>
      <name>University of California-San Francisco</name>
      <description><![CDATA[<b>Name:</b> Main Campus<br><b>Address:</b> , <br><b>SSID:</b> eduroam<br><b>Enc:</b> WPA2+WPA<br><b>AP:</b> -<br>]]></description>
      <Point>
        <coordinates>-122.4590883,37.7629216,0</coordinates>
      </Point>
    </Placemark>
    <Placemark>
      <name>University of California-Santa Barbara</name>
      <description><![CDATA[<b>Name:</b> Main Campus UCSB<br><b>Address:</b> , <br><b>SSID:</b> eduroam<br><b>Enc:</b> WPA2<br><b>AP:</b> 5498<br>]]></description>
      <Point>
        <coordinates>-119.848947,34.4139629,0</coordinates>
      </Point>
    </Placemark>
    <Placemark>
      <name>University of California-Santa Cruz</name>
      <description><![CDATA[<b>Name:</b> Main Campus<br><b>Address:</b> , <br><b>SSID:</b> eduroam<br><b>Enc:</b> WPA3+WPA2+WPA<br><b>AP:</b> 4700<br>]]></description>
      <Point>
        <coordinates>-122.0577165,36.9886313,0</coordinates>
      </Point>
    </Placemark>
    <Placemark>
      <name>University of Redlands</name>
      <description><![CDATA[<b>Name:</b> University of Redlands<br><b>Address:</b> , <br><b>SSID:</b> eduroam<br><b>Enc:</b> WPA2+WPA<br><b>AP:</b> 1200<br>]]></description>
      <Point>
        <coordinates>-117.1640768,34.0629,0</coordinates>
      </Point>
    </Placemark>
    <Placemark>
      <name>University of Redlands</name>
      <description><![CDATA[<b>Name:</b> Woodbury University<br><b>Address:</b> , <br><b>SSID:</b> eduroam<br><b>Enc:</b> WPA2+WPA<br><b>AP:</b> 150<br>]]></description>
      <Point>
        <coordinates>-118.3404551,34.2069718,0</coordinates>
      </Point>
    </Placemark>
    <Placemark>
      <name>University of San Diego</name>
      <description><![CDATA[<b>Name:</b> University of San Diego<br><b>Address:</b> , <br><b>SSID:</b> eduroam<br><b>Enc:</b> WPA2+WPA<br><b>AP:</b> 2100<br>]]></description>
      <Point>
        <coordinates>-117.190359,32.7716296,0</coordinates>
      </Point>
    </Placemark>
    <Placemark>
      <name>University of San Francisco</name>
      <description><![CDATA[<b>Name:</b> University of San Francisco<br><b>Address:</b> , <br><b>SSID:</b> eduroam<br><b>Enc:</b> WPA2+WPA<br><b>AP:</b> -<br>]]></description>
      <Point>
        <coordinates>-122.4443488,37.7789944,0</coordinates>
      </Point>
    </Placemark>
    <Placemark>
      <name>University of Southern California</name>
      <description><![CDATA[<b>Name:</b> Main Campus<br><b>Address:</b> , <br><b>SSID:</b> eduroam<br><b>Enc:</b> WPA2+WPA<br><b>AP:</b> -<br>]]></description>
      <Point>
        <coordinates>-118.2855996,34.0228166,0</coordinates>
      </Point>
    </Placemark>
    <Placemark>
      <name>Ventura County Library System</name>
      <description><![CDATA[<b>Name:</b> Albert H. Soliz Library<br><b>Address:</b> , <br><b>SSID:</b> eduroam<br><b>Enc:</b> WPA2<br><b>AP:</b> 1<br>]]></description>
      <Point>
        <coordinates>-119.1682055,34.2371068,0</coordinates>
      </Point>
    </Placemark>
    <Placemark>
      <name>Ventura County Library System</name>
      <description><![CDATA[<b>Name:</b> Avenue Library<br><b>Address:</b> , <br><b>SSID:</b> eduroam<br><b>Enc:</b> WPA2<br><b>AP:</b> 2<br>]]></description>
      <Point>
        <coordinates>-119.298455,34.2886782,0</coordinates>
      </Point>
    </Placemark>
    <Placemark>
      <name>Ventura County Library System</name>
      <description><![CDATA[<b>Name:</b> County of Ventura - Hall of Administration<br><b>Address:</b> , <br><b>SSID:</b> eduroam<br><b>Enc:</b> WPA2<br><b>AP:</b> 1<br>]]></description>
      <Point>
        <coordinates>-119.210384,34.2674864,0</coordinates>
      </Point>
    </Placemark>
    <Placemark>
      <name>Ventura County Library System</name>
      <description><![CDATA[<b>Name:</b> E.P. Foster Library<br><b>Address:</b> , <br><b>SSID:</b> eduroam<br><b>Enc:</b> WPA2<br><b>AP:</b> 6<br>]]></description>
      <Point>
        <coordinates>-119.290845,34.2812227,0</coordinates>
      </Point>
    </Placemark>
    <Placemark>
      <name>Ventura County Library System</name>
      <description><![CDATA[<b>Name:</b> Fillmore Library<br><b>Address:</b> , <br><b>SSID:</b> eduroam<br><b>Enc:</b> WPA2<br><b>AP:</b> 4<br>]]></description>
      <Point>
        <coordinates>-118.9149697,34.4047531,0</coordinates>
      </Point>
    </Placemark>
    <Placemark>
      <name>Ventura County Library System</name>
      <description><![CDATA[<b>Name:</b> Hill Road Library<br><b>Address:</b> , <br><b>SSID:</b> eduroam<br><b>Enc:</b> WPA2<br><b>AP:</b> 1<br>]]></description>
      <Point>
        <coordinates>-119.2064235,34.2676182,0</coordinates>
      </Point>
    </Placemark>
    <Placemark>
      <name>Ventura County Library System</name>
      <description><![CDATA[<b>Name:</b> Meiners Oaks Library<br><b>Address:</b> , <br><b>SSID:</b> eduroam<br><b>Enc:</b> WPA2<br><b>AP:</b> 2<br>]]></description>
      <Point>
        <coordinates>-119.2769189,34.4447691,0</coordinates>
      </Point>
    </Placemark>
    <Placemark>
      <name>Ventura County Library System</name>
      <description><![CDATA[<b>Name:</b> Oak Park Library<br><b>Address:</b> , <br><b>SSID:</b> eduroam<br><b>Enc:</b> WPA2<br><b>AP:</b> 1<br>]]></description>
      <Point>
        <coordinates>-118.7626609,34.1802987,0</coordinates>
      </Point>
    </Placemark>
    <Placemark>
      <name>Ventura County Library System</name>
      <description><![CDATA[<b>Name:</b> Oak View Library<br><b>Address:</b> , <br><b>SSID:</b> eduroam<br><b>Enc:</b> WPA2<br><b>AP:</b> 8<br>]]></description>
      <Point>
        <coordinates>-119.3051425,34.3996823,0</coordinates>
      </Point>
    </Placemark>
    <Placemark>
      <name>Ventura County Library System</name>
      <description><![CDATA[<b>Name:</b> Ojai Library<br><b>Address:</b> , <br><b>SSID:</b> eduroam<br><b>Enc:</b> WPA2<br><b>AP:</b> 1<br>]]></description>
      <Point>
        <coordinates>-119.2466934,34.4473932,0</coordinates>
      </Point>
    </Placemark>
    <Placemark>
      <name>Ventura County Library System</name>
      <description><![CDATA[<b>Name:</b> Piru Library<br><b>Address:</b> , <br><b>SSID:</b> eduroam<br><b>Enc:</b> WPA2<br><b>AP:</b> 1<br>]]></description>
      <Point>
        <coordinates>-118.7981566,34.4156364,0</coordinates>
      </Point>
    </Placemark>
    <Placemark>
      <name>Ventura County Library System</name>
      <description><![CDATA[<b>Name:</b> Ray D. Prueter Library<br><b>Address:</b> , <br><b>SSID:</b> eduroam<br><b>Enc:</b> WPA2<br><b>AP:</b> 4<br>]]></description>
      <Point>
        <coordinates>-119.1929359,34.1567626,0</coordinates>
      </Point>
    </Placemark>
    <Placemark>
      <name>Ventura County Library System</name>
      <description><![CDATA[<b>Name:</b> Saticoy Library<br><b>Address:</b> , <br><b>SSID:</b> eduroam<br><b>Enc:</b> WPA2<br><b>AP:</b> 1<br>]]></description>
      <Point>
        <coordinates>-119.1481047,34.2835661,0</coordinates>
      </Point>
    </Placemark>
    <Placemark>
      <name>Western University of Health Sciences</name>
      <description><![CDATA[<b>Name:</b> Western University of Health Sciences Pomona Campus<br><b>Address:</b> , <br><b>SSID:</b> eduroam<br><b>Enc:</b> WPA2<br><b>AP:</b> 461<br>]]></description>
      <Point>
        <coordinates>-117.7470106,34.0580124,0</coordinates>
      </Point>
    </Placemark>
    <Placemark>
      <name>Western University of Health Sciences</name>
      <description><![CDATA[<b>Name:</b> WesternU East Valley Spay/Neuter Center<br><b>Address:</b> , <br><b>SSID:</b> eduroam<br><b>Enc:</b> WPA2<br><b>AP:</b> 3<br>]]></description>
      <Point>
        <coordinates>-118.4462262,34.1943841,0</coordinates>
      </Point>
    </Placemark>
    <Placemark>
      <name>Western University of Health Sciences</name>
      <description><![CDATA[<b>Name:</b> WesternU Health Dental Center Rancho Mirage<br><b>Address:</b> , <br><b>SSID:</b> eduroam<br><b>Enc:</b> WPA2<br><b>AP:</b> 4<br>]]></description>
      <Point>
        <coordinates>-116.409599,33.7369359,0</coordinates>
      </Point>
    </Placemark>
    <Placemark>
      <name>Western University of Health Sciences</name>
      <description><![CDATA[<b>Name:</b> WesternU Health Dental Center Village at Indian Hill<br><b>Address:</b> , <br><b>SSID:</b> eduroam<br><b>Enc:</b> WPA2<br><b>AP:</b> 8<br>]]></description>
      <Point>
        <coordinates>-117.7206041,34.0621035,0</coordinates>
      </Point>
    </Placemark>
    <Placemark>
      <name>Western University of Health Sciences</name>
      <description><![CDATA[<b>Name:</b> WesternU Health Eye Care Center Century City<br><b>Address:</b> , <br><b>SSID:</b> eduroam<br><b>Enc:</b> WPA2<br><b>AP:</b> 3<br>]]></description>
      <Point>
        <coordinates>-118.4112215,34.0593428,0</coordinates>
      </Point>
    </Placemark>
  </Document>
</kml>
