<?xml version="1.0" encoding="UTF-8"?>
<kml xmlns="http://www.opengis.net/kml/2.2">
  <Document>
    <name>eduroam — Rhode Island</name>
    <description><![CDATA[9 eduroam service locations in Rhode Island.<br><br>Published by <a href="https://scs.nevada.edu/eduroam">NSHE System Computing Services</a>. Learn more about eduroam Support Organizations from <a href="https://incommon.org/eduroam">Internet2</a>, the eduroam National Roaming Operator for the United States.<br>These maps are derived from data published by GÉANT (<a href="https://monitor.eduroam.org/kml/us.kml">monitor.eduroam.org</a>). This is not an official GÉANT or eduroam publication.<br>eduroam is a registered trademark of the GÉANT Association.<br>Region boundaries are derived from US Census Bureau cartographic boundary files, which as works of the US federal government are in the public domain.<br>Maps generated by eduroam-us-regional-maps, which is BSD 3-Clause licensed.]]></description>
    <open>1</open>
    <Placemark>
      <name>Brown University</name>
      <description><![CDATA[<b>Name:</b> Main Campus<br><b>Address:</b> , <br><b>SSID:</b> eduroam<br><b>Enc:</b> WPA2+WPA<br><b>AP:</b> -<br>]]></description>
      <Point>
        <coordinates>-71.3995007,41.8258917,0</coordinates>
      </Point>
    </Placemark>
    <Placemark>
      <name>Bryant University</name>
      <description><![CDATA[<b>Name:</b> Main Campus<br><b>Address:</b> , <br><b>SSID:</b> eduroam<br><b>Enc:</b> WPA2+WPA<br><b>AP:</b> -<br>]]></description>
      <Point>
        <coordinates>-71.5368788,41.9204627,0</coordinates>
      </Point>
    </Placemark>
    <Placemark>
      <name>Community College of Rhode Island</name>
      <description><![CDATA[<b>Name:</b> Knight Campus<br><b>Address:</b> , <br><b>SSID:</b> eduroam<br><b>Enc:</b> WPA3+WPA2+WPA<br><b>AP:</b> 250<br>]]></description>
      <Point>
        <coordinates>-71.4817015,41.7113233,0</coordinates>
      </Point>
    </Placemark>
    <Placemark>
      <name>Department of Veterans Affairs</name>
      <description><![CDATA[<b>Name:</b> Providence VA Medical Center<br><b>Address:</b> , <br><b>SSID:</b> eduroam<br><b>Enc:</b> WPA2<br><b>AP:</b> -<br>]]></description>
      <Point>
        <coordinates>-71.432222,41.832243,0</coordinates>
      </Point>
    </Placemark>
    <Placemark>
      <name>OSHEAN, Inc.</name>
      <description><![CDATA[<b>Name:</b> Main<br><b>Address:</b> , <br><b>SSID:</b> eduroam<br><b>Enc:</b> WPA2+WPA<br><b>AP:</b> -<br>]]></description>
      <Point>
        <coordinates>-71.455757,41.608711,0</coordinates>
      </Point>
    </Placemark>
    <Placemark>
      <name>Providence College</name>
      <description><![CDATA[<b>Name:</b> Providence<br><b>Address:</b> , <br><b>SSID:</b> eduroam<br><b>Enc:</b> WPA2+WPA<br><b>AP:</b> -<br>]]></description>
      <Point>
        <coordinates>-71.4363787,41.8435285,0</coordinates>
      </Point>
    </Placemark>
    <Placemark>
      <name>Rhode Island School of Design</name>
      <description><![CDATA[<b>Name:</b> Rhode Island School of Design<br><b>Address:</b> , <br><b>SSID:</b> eduroam<br><b>Enc:</b> WPA2<br><b>AP:</b> 1200<br>]]></description>
      <Point>
        <coordinates>-71.4077368,41.8258538,0</coordinates>
      </Point>
    </Placemark>
    <Placemark>
      <name>Roger Williams University</name>
      <description><![CDATA[<b>Name:</b> Main Campus<br><b>Address:</b> , <br><b>SSID:</b> eduroam<br><b>Enc:</b> WPA2+WPA<br><b>AP:</b> -<br>]]></description>
      <Point>
        <coordinates>-71.2594597,41.6510618,0</coordinates>
      </Point>
    </Placemark>
    <Placemark>
      <name>University of Rhode Island</name>
      <description><![CDATA[<b>Name:</b> University of Rhode Island<br><b>Address:</b> , <br><b>SSID:</b> eduroam<br><b>Enc:</b> WPA2<br><b>AP:</b> 3100<br>]]></description>
      <Point>
        <coordinates>-71.5309525,41.4860772,0</coordinates>
      </Point>
    </Placemark>
  </Document>
</kml>
