<?xml version="1.0" encoding="UTF-8"?>
<kml xmlns="http://www.opengis.net/kml/2.2">
  <Document>
    <name>eduroam — Texas</name>
    <description><![CDATA[142 eduroam service locations in Texas.<br><br>Published by <a href="https://scs.nevada.edu/eduroam">NSHE System Computing Services</a>. Learn more about eduroam Support Organizations from <a href="https://incommon.org/eduroam">Internet2</a>, the eduroam National Roaming Operator for the United States.<br>Service location data comes from the eduroam location database published by GÉANT (<a href="https://monitor.eduroam.org/kml/us.kml">monitor.eduroam.org</a>). These maps are derived from it and are not an official GÉANT or eduroam publication.<br>eduroam is a registered trademark of GÉANT Vereniging.<br>Region boundaries are derived from US Census Bureau cartographic boundary files, which as works of the US federal government are in the public domain.<br>Maps generated by eduroam-us-regional-maps, which is BSD 3-Clause licensed.]]></description>
    <open>1</open>
    <Placemark>
      <name>Angelo State University</name>
      <description><![CDATA[<b>Name:</b> Main Campus<br><b>Address:</b> , <br><b>SSID:</b> eduroam<br><b>Enc:</b> WPA2<br><b>AP:</b> 1341<br>]]></description>
      <Point>
        <coordinates>-100.4654037,31.4426509,0</coordinates>
      </Point>
    </Placemark>
    <Placemark>
      <name>Apogee Telecom</name>
      <description><![CDATA[<b>Name:</b> Apogee HQ Austin Texas<br><b>Address:</b> , <br><b>SSID:</b> eduroam<br><b>Enc:</b> WPA2+WPA<br><b>AP:</b> 20<br>]]></description>
      <Point>
        <coordinates>-97.7145258,30.3864154,0</coordinates>
      </Point>
    </Placemark>
    <Placemark>
      <name>Baylor College of Medicine</name>
      <description><![CDATA[<b>Name:</b> BCM: Main Baylor<br><b>Address:</b> , <br><b>SSID:</b> eduroam<br><b>Enc:</b> WPA2+WPA<br><b>AP:</b> 1200<br>]]></description>
      <Point>
        <coordinates>-95.3962414,29.7105286,0</coordinates>
      </Point>
    </Placemark>
    <Placemark>
      <name>Baylor University</name>
      <description><![CDATA[<b>Name:</b> Main Campus<br><b>Address:</b> , <br><b>SSID:</b> eduroam<br><b>Enc:</b> WPA2<br><b>AP:</b> -<br>]]></description>
      <Point>
        <coordinates>-97.1143146,31.549841,0</coordinates>
      </Point>
    </Placemark>
    <Placemark>
      <name>Blinn College</name>
      <description><![CDATA[<b>Name:</b> Brenham<br><b>Address:</b> , <br><b>SSID:</b> eduroam<br><b>Enc:</b> WPA2<br><b>AP:</b> 703<br>]]></description>
      <Point>
        <coordinates>-96.4066666,30.1598781,0</coordinates>
      </Point>
    </Placemark>
    <Placemark>
      <name>Blinn College</name>
      <description><![CDATA[<b>Name:</b> Bryan<br><b>Address:</b> , <br><b>SSID:</b> eduroam<br><b>Enc:</b> WPA2<br><b>AP:</b> 290<br>]]></description>
      <Point>
        <coordinates>-96.3520426,30.6629982,0</coordinates>
      </Point>
    </Placemark>
    <Placemark>
      <name>Blinn College</name>
      <description><![CDATA[<b>Name:</b> Rellis<br><b>Address:</b> , <br><b>SSID:</b> eduroam<br><b>Enc:</b> WPA2<br><b>AP:</b> 162<br>]]></description>
      <Point>
        <coordinates>-96.4689481,30.6416232,0</coordinates>
      </Point>
    </Placemark>
    <Placemark>
      <name>Blinn College</name>
      <description><![CDATA[<b>Name:</b> Schulenburg<br><b>Address:</b> , <br><b>SSID:</b> eduroam<br><b>Enc:</b> WPA2<br><b>AP:</b> 7<br>]]></description>
      <Point>
        <coordinates>-96.8981749,29.6754454,0</coordinates>
      </Point>
    </Placemark>
    <Placemark>
      <name>Blinn College</name>
      <description><![CDATA[<b>Name:</b> Sealy<br><b>Address:</b> , <br><b>SSID:</b> eduroam<br><b>Enc:</b> WPA2<br><b>AP:</b> 3<br>]]></description>
      <Point>
        <coordinates>-96.1260312,29.7726847,0</coordinates>
      </Point>
    </Placemark>
    <Placemark>
      <name>Blinn College</name>
      <description><![CDATA[<b>Name:</b> Waller<br><b>Address:</b> , <br><b>SSID:</b> eduroam<br><b>Enc:</b> WPA2<br><b>AP:</b> 4<br>]]></description>
      <Point>
        <coordinates>-95.9215613,30.0783511,0</coordinates>
      </Point>
    </Placemark>
    <Placemark>
      <name>Department of Veterans Affairs</name>
      <description><![CDATA[<b>Name:</b> Bonham VA Medical Center<br><b>Address:</b> , <br><b>SSID:</b> eduroam<br><b>Enc:</b> WPA2<br><b>AP:</b> -<br>]]></description>
      <Point>
        <coordinates>-96.16463,33.58352,0</coordinates>
      </Point>
    </Placemark>
    <Placemark>
      <name>Department of Veterans Affairs</name>
      <description><![CDATA[<b>Name:</b> Dallas VA Medical Center<br><b>Address:</b> , <br><b>SSID:</b> eduroam<br><b>Enc:</b> WPA2<br><b>AP:</b> -<br>]]></description>
      <Point>
        <coordinates>-96.78707,32.6955,0</coordinates>
      </Point>
    </Placemark>
    <Placemark>
      <name>Department of Veterans Affairs</name>
      <description><![CDATA[<b>Name:</b> Ft. Worth OPC<br><b>Address:</b> , <br><b>SSID:</b> eduroam<br><b>Enc:</b> WPA2<br><b>AP:</b> -<br>]]></description>
      <Point>
        <coordinates>-97.29895,32.6696,0</coordinates>
      </Point>
    </Placemark>
    <Placemark>
      <name>Department of Veterans Affairs</name>
      <description><![CDATA[<b>Name:</b> Garland OPC<br><b>Address:</b> , <br><b>SSID:</b> eduroam<br><b>Enc:</b> WPA2<br><b>AP:</b> -<br>]]></description>
      <Point>
        <coordinates>-96.66206,32.91868,0</coordinates>
      </Point>
    </Placemark>
    <Placemark>
      <name>Franklin Pierce University</name>
      <description><![CDATA[<b>Name:</b> Franklin Pierce at Round Rock, Texas<br><b>Address:</b> , <br><b>SSID:</b> eduroam<br><b>Enc:</b> WPA2<br><b>AP:</b> 8<br>]]></description>
      <Point>
        <coordinates>-97.649541,30.5657863,0</coordinates>
      </Point>
    </Placemark>
    <Placemark>
      <name>Lamar University</name>
      <description><![CDATA[<b>Name:</b> Lamar University<br><b>Address:</b> , <br><b>SSID:</b> eduroam<br><b>Enc:</b> WPA2 + WPA3<br><b>AP:</b> 3160<br>]]></description>
      <Point>
        <coordinates>-94.0756568,30.0459462,0</coordinates>
      </Point>
    </Placemark>
    <Placemark>
      <name>Laredo College</name>
      <description><![CDATA[<b>Name:</b> Laredo College<br><b>Address:</b> , <br><b>SSID:</b> eduroam<br><b>Enc:</b> WPA2+WPA<br><b>AP:</b> 334<br>]]></description>
      <Point>
        <coordinates>-99.5192691,27.5089076,0</coordinates>
      </Point>
    </Placemark>
    <Placemark>
      <name>Prairie View A&amp;M University</name>
      <description><![CDATA[<b>Name:</b> PVAMU<br><b>Address:</b> , <br><b>SSID:</b> eduroam<br><b>Enc:</b> WPA2+WPA<br><b>AP:</b> 850<br>]]></description>
      <Point>
        <coordinates>-95.9962758,30.103945,0</coordinates>
      </Point>
    </Placemark>
    <Placemark>
      <name>Rice University</name>
      <description><![CDATA[<b>Name:</b> Main Campus<br><b>Address:</b> , <br><b>SSID:</b> eduroam<br><b>Enc:</b> WPA2+WPA<br><b>AP:</b> -<br>]]></description>
      <Point>
        <coordinates>-95.4024051,29.7171222,0</coordinates>
      </Point>
    </Placemark>
    <Placemark>
      <name>Saint Edward's University</name>
      <description><![CDATA[<b>Name:</b> bcc<br><b>Address:</b> , <br><b>SSID:</b> eduroam<br><b>Enc:</b> WPA2<br><b>AP:</b> -<br>]]></description>
      <Point>
        <coordinates>-97.7566899,30.2315177,0</coordinates>
      </Point>
    </Placemark>
    <Placemark>
      <name>Saint Edward's University</name>
      <description><![CDATA[<b>Name:</b> St. Edward's University<br><b>Address:</b> , <br><b>SSID:</b> eduroam<br><b>Enc:</b> WPA2+WPA<br><b>AP:</b> 800<br>]]></description>
      <Point>
        <coordinates>-97.7566899,30.2315177,0</coordinates>
      </Point>
    </Placemark>
    <Placemark>
      <name>Sam Houston State University</name>
      <description><![CDATA[<b>Name:</b> Sam Houston State University Camp<br><b>Address:</b> , <br><b>SSID:</b> eduroam<br><b>Enc:</b> WPA2<br><b>AP:</b> 4<br>]]></description>
      <Point>
        <coordinates>-95.408459,30.8571841,0</coordinates>
      </Point>
    </Placemark>
    <Placemark>
      <name>Sam Houston State University</name>
      <description><![CDATA[<b>Name:</b> Sam Houston State University College of Osteopathic Medicine<br><b>Address:</b> , <br><b>SSID:</b> eduroam<br><b>Enc:</b> WPA2<br><b>AP:</b> 108<br>]]></description>
      <Point>
        <coordinates>-95.4603264,30.2672483,0</coordinates>
      </Point>
    </Placemark>
    <Placemark>
      <name>Sam Houston State University</name>
      <description><![CDATA[<b>Name:</b> Sam Houston State University Gibbs Ranch<br><b>Address:</b> , <br><b>SSID:</b> eduroam<br><b>Enc:</b> WPA2<br><b>AP:</b> 3<br>]]></description>
      <Point>
        <coordinates>-95.6198294,30.7448967,0</coordinates>
      </Point>
    </Placemark>
    <Placemark>
      <name>Sam Houston State University</name>
      <description><![CDATA[<b>Name:</b> Sam Houston State University Main Campus<br><b>Address:</b> , <br><b>SSID:</b> eduroam<br><b>Enc:</b> WPA2<br><b>AP:</b> 2657<br>]]></description>
      <Point>
        <coordinates>-95.5503803,30.7132435,0</coordinates>
      </Point>
    </Placemark>
    <Placemark>
      <name>Sam Houston State University</name>
      <description><![CDATA[<b>Name:</b> Sam Houston State University Woodlands Center<br><b>Address:</b> , <br><b>SSID:</b> eduroam<br><b>Enc:</b> WPA2<br><b>AP:</b> 140<br>]]></description>
      <Point>
        <coordinates>-95.4704465,30.2091834,0</coordinates>
      </Point>
    </Placemark>
    <Placemark>
      <name>South Plains College</name>
      <description><![CDATA[<b>Name:</b> Levelland Campus<br><b>Address:</b> , <br><b>SSID:</b> eduroam<br><b>Enc:</b> WPA2<br><b>AP:</b> 432<br>]]></description>
      <Point>
        <coordinates>-102.3649397,33.5766779,0</coordinates>
      </Point>
    </Placemark>
    <Placemark>
      <name>South Plains College</name>
      <description><![CDATA[<b>Name:</b> Lubbock Career and Technical Center<br><b>Address:</b> , <br><b>SSID:</b> eduroam<br><b>Enc:</b> WPA2<br><b>AP:</b> 25<br>]]></description>
      <Point>
        <coordinates>-101.8534319,33.5579396,0</coordinates>
      </Point>
    </Placemark>
    <Placemark>
      <name>South Plains College</name>
      <description><![CDATA[<b>Name:</b> Lubbock Downtown Center<br><b>Address:</b> , <br><b>SSID:</b> eduroam<br><b>Enc:</b> WPA2<br><b>AP:</b> 54<br>]]></description>
      <Point>
        <coordinates>-101.8539689,33.5834417,0</coordinates>
      </Point>
    </Placemark>
    <Placemark>
      <name>South Plains College</name>
      <description><![CDATA[<b>Name:</b> Plainview Extension Center<br><b>Address:</b> , <br><b>SSID:</b> eduroam<br><b>Enc:</b> WPA2<br><b>AP:</b> 23<br>]]></description>
      <Point>
        <coordinates>-101.7266641,34.20588,0</coordinates>
      </Point>
    </Placemark>
    <Placemark>
      <name>South Plains College</name>
      <description><![CDATA[<b>Name:</b> Reese Center<br><b>Address:</b> , <br><b>SSID:</b> eduroam<br><b>Enc:</b> WPA2<br><b>AP:</b> 67<br>]]></description>
      <Point>
        <coordinates>-102.0290062,33.5901598,0</coordinates>
      </Point>
    </Placemark>
    <Placemark>
      <name>South Texas College</name>
      <description><![CDATA[<b>Name:</b> Main Campus<br><b>Address:</b> , <br><b>SSID:</b> eduroam<br><b>Enc:</b> WPA2+WPA<br><b>AP:</b> -<br>]]></description>
      <Point>
        <coordinates>-98.255202,26.220894,0</coordinates>
      </Point>
    </Placemark>
    <Placemark>
      <name>Southern Methodist University</name>
      <description><![CDATA[<b>Name:</b> SMU Dallas Campus<br><b>Address:</b> , <br><b>SSID:</b> eduroam<br><b>Enc:</b> WPA2<br><b>AP:</b> 4000<br>]]></description>
      <Point>
        <coordinates>-96.7859351,32.844852,0</coordinates>
      </Point>
    </Placemark>
    <Placemark>
      <name>St. Mary's University</name>
      <description><![CDATA[<b>Name:</b> St. Mary's University of San Antonio, TX<br><b>Address:</b> , <br><b>SSID:</b> eduroam<br><b>Enc:</b> WPA2<br><b>AP:</b> 1250<br>]]></description>
      <Point>
        <coordinates>-98.5604005,29.4529583,0</coordinates>
      </Point>
    </Placemark>
    <Placemark>
      <name>Stephen F. Austin State University</name>
      <description><![CDATA[<b>Name:</b> Stephen F. Austin State University<br><b>Address:</b> , <br><b>SSID:</b> eduroam<br><b>Enc:</b> WPA2+WPA<br><b>AP:</b> 2200<br>]]></description>
      <Point>
        <coordinates>-94.6525142,31.6188766,0</coordinates>
      </Point>
    </Placemark>
    <Placemark>
      <name>Tarleton State University</name>
      <description><![CDATA[<b>Name:</b> Tarleton State University<br><b>Address:</b> , <br><b>SSID:</b> eduroam<br><b>Enc:</b> WPA3+WPA2+WPA<br><b>AP:</b> 900<br>]]></description>
      <Point>
        <coordinates>-98.2154452,32.2152543,0</coordinates>
      </Point>
    </Placemark>
    <Placemark>
      <name>Tarrant county college district</name>
      <description><![CDATA[<b>Name:</b> Tarrant County College NE Campus<br><b>Address:</b> , <br><b>SSID:</b> eduroam<br><b>Enc:</b> WPA3+WPA2+WPA<br><b>AP:</b> 300<br>]]></description>
      <Point>
        <coordinates>-97.191739,32.8464155,0</coordinates>
      </Point>
    </Placemark>
    <Placemark>
      <name>Tarrant county college district</name>
      <description><![CDATA[<b>Name:</b> Tarrant County College NW Campus<br><b>Address:</b> , <br><b>SSID:</b> eduroam<br><b>Enc:</b> WPA3+WPA2+WPA<br><b>AP:</b> 300<br>]]></description>
      <Point>
        <coordinates>-97.3924751,32.8308992,0</coordinates>
      </Point>
    </Placemark>
    <Placemark>
      <name>Tarrant county college district</name>
      <description><![CDATA[<b>Name:</b> Tarrant County College SE Campus<br><b>Address:</b> , <br><b>SSID:</b> eduroam<br><b>Enc:</b> WPA3+WPA2+WPA<br><b>AP:</b> 300<br>]]></description>
      <Point>
        <coordinates>-97.0721977,32.6391858,0</coordinates>
      </Point>
    </Placemark>
    <Placemark>
      <name>Tarrant county college district</name>
      <description><![CDATA[<b>Name:</b> Tarrant County College SO Campus<br><b>Address:</b> , <br><b>SSID:</b> eduroam<br><b>Enc:</b> WPA3+WPA2+WPA<br><b>AP:</b> 300<br>]]></description>
      <Point>
        <coordinates>-97.2875773,32.6684561,0</coordinates>
      </Point>
    </Placemark>
    <Placemark>
      <name>Tarrant county college district</name>
      <description><![CDATA[<b>Name:</b> Tarrant County College TR Campus<br><b>Address:</b> , <br><b>SSID:</b> eduroam<br><b>Enc:</b> WPA3+WPA2+WPA<br><b>AP:</b> 300<br>]]></description>
      <Point>
        <coordinates>-97.338936,32.757694,0</coordinates>
      </Point>
    </Placemark>
    <Placemark>
      <name>Texas A&amp;M Forest Service</name>
      <description><![CDATA[<b>Name:</b> Headquarters<br><b>Address:</b> , <br><b>SSID:</b> eduroam<br><b>Enc:</b> WPA2+WPA<br><b>AP:</b> -<br>]]></description>
      <Point>
        <coordinates>-96.2438474,30.5517695,0</coordinates>
      </Point>
    </Placemark>
    <Placemark>
      <name>Texas A&amp;M Forest Service</name>
      <description><![CDATA[<b>Name:</b> Texas A&amp;M Forest Service - Beeville<br><b>Address:</b> , <br><b>SSID:</b> eduroam<br><b>Enc:</b> WPA2+WPA<br><b>AP:</b> 2<br>]]></description>
      <Point>
        <coordinates>-97.6617874,28.3693993,0</coordinates>
      </Point>
    </Placemark>
    <Placemark>
      <name>Texas A&amp;M Forest Service</name>
      <description><![CDATA[<b>Name:</b> Texas A&amp;M Forest Service - Brownwood<br><b>Address:</b> , <br><b>SSID:</b> eduroam<br><b>Enc:</b> WPA2+WPA<br><b>AP:</b> 2<br>]]></description>
      <Point>
        <coordinates>-98.9460695,31.6482483,0</coordinates>
      </Point>
    </Placemark>
    <Placemark>
      <name>Texas A&amp;M Forest Service</name>
      <description><![CDATA[<b>Name:</b> Texas A&amp;M Forest Service - Burkburnett<br><b>Address:</b> , <br><b>SSID:</b> eduroam<br><b>Enc:</b> WPA2+WPA<br><b>AP:</b> 3<br>]]></description>
      <Point>
        <coordinates>-98.5942225,34.071458,0</coordinates>
      </Point>
    </Placemark>
    <Placemark>
      <name>Texas A&amp;M Forest Service</name>
      <description><![CDATA[<b>Name:</b> Texas A&amp;M Forest Service - Carthage<br><b>Address:</b> , <br><b>SSID:</b> eduroam<br><b>Enc:</b> WPA2+WPA<br><b>AP:</b> 2<br>]]></description>
      <Point>
        <coordinates>-94.3230038,32.1478799,0</coordinates>
      </Point>
    </Placemark>
    <Placemark>
      <name>Texas A&amp;M Forest Service</name>
      <description><![CDATA[<b>Name:</b> Texas A&amp;M Forest Service - Childress<br><b>Address:</b> , <br><b>SSID:</b> eduroam<br><b>Enc:</b> WPA2+WPA<br><b>AP:</b> 2<br>]]></description>
      <Point>
        <coordinates>-100.2230846,34.4342147,0</coordinates>
      </Point>
    </Placemark>
    <Placemark>
      <name>Texas A&amp;M Forest Service</name>
      <description><![CDATA[<b>Name:</b> Texas A&amp;M Forest Service - Crockett<br><b>Address:</b> , <br><b>SSID:</b> eduroam<br><b>Enc:</b> WPA2+WPA<br><b>AP:</b> 2<br>]]></description>
      <Point>
        <coordinates>-95.4722722,31.2999614,0</coordinates>
      </Point>
    </Placemark>
    <Placemark>
      <name>Texas A&amp;M Forest Service</name>
      <description><![CDATA[<b>Name:</b> Texas A&amp;M Forest Service - Fredericksburg<br><b>Address:</b> , <br><b>SSID:</b> eduroam<br><b>Enc:</b> WPA2+WPA<br><b>AP:</b> 2<br>]]></description>
      <Point>
        <coordinates>-98.9081507,30.2489535,0</coordinates>
      </Point>
    </Placemark>
    <Placemark>
      <name>Texas A&amp;M Forest Service</name>
      <description><![CDATA[<b>Name:</b> Texas A&amp;M Forest Service - Gilmer<br><b>Address:</b> , <br><b>SSID:</b> eduroam<br><b>Enc:</b> WPA2+WPA<br><b>AP:</b> 3<br>]]></description>
      <Point>
        <coordinates>-94.9448919,32.7013475,0</coordinates>
      </Point>
    </Placemark>
    <Placemark>
      <name>Texas A&amp;M Forest Service</name>
      <description><![CDATA[<b>Name:</b> Texas A&amp;M Forest Service - Henderson<br><b>Address:</b> , <br><b>SSID:</b> eduroam<br><b>Enc:</b> WPA2+WPA<br><b>AP:</b> 3<br>]]></description>
      <Point>
        <coordinates>-94.8108182,32.1664434,0</coordinates>
      </Point>
    </Placemark>
    <Placemark>
      <name>Texas A&amp;M Forest Service</name>
      <description><![CDATA[<b>Name:</b> Texas A&amp;M Forest Service - Hudson (Lufkin)<br><b>Address:</b> , <br><b>SSID:</b> eduroam<br><b>Enc:</b> WPA2+WPA<br><b>AP:</b> 12<br>]]></description>
      <Point>
        <coordinates>-94.8314287,31.3140147,0</coordinates>
      </Point>
    </Placemark>
    <Placemark>
      <name>Texas A&amp;M Forest Service</name>
      <description><![CDATA[<b>Name:</b> Texas A&amp;M Forest Service - Huntsville<br><b>Address:</b> , <br><b>SSID:</b> eduroam<br><b>Enc:</b> WPA2+WPA<br><b>AP:</b> 3<br>]]></description>
      <Point>
        <coordinates>-95.5853947,30.7369854,0</coordinates>
      </Point>
    </Placemark>
    <Placemark>
      <name>Texas A&amp;M Forest Service</name>
      <description><![CDATA[<b>Name:</b> Texas A&amp;M Forest Service - Idalou<br><b>Address:</b> , <br><b>SSID:</b> eduroam<br><b>Enc:</b> WPA2+WPA<br><b>AP:</b> 2<br>]]></description>
      <Point>
        <coordinates>-101.7027518,33.6581249,0</coordinates>
      </Point>
    </Placemark>
    <Placemark>
      <name>Texas A&amp;M Forest Service</name>
      <description><![CDATA[<b>Name:</b> Texas A&amp;M Forest Service - Jacksonville<br><b>Address:</b> , <br><b>SSID:</b> eduroam<br><b>Enc:</b> WPA2+WPA<br><b>AP:</b> 2<br>]]></description>
      <Point>
        <coordinates>-95.2402318,31.9380237,0</coordinates>
      </Point>
    </Placemark>
    <Placemark>
      <name>Texas A&amp;M Forest Service</name>
      <description><![CDATA[<b>Name:</b> Texas A&amp;M Forest Service - Jasper<br><b>Address:</b> , <br><b>SSID:</b> eduroam<br><b>Enc:</b> WPA2+WPA<br><b>AP:</b> 2<br>]]></description>
      <Point>
        <coordinates>-93.9929683,30.8992801,0</coordinates>
      </Point>
    </Placemark>
    <Placemark>
      <name>Texas A&amp;M Forest Service</name>
      <description><![CDATA[<b>Name:</b> Texas A&amp;M Forest Service - Kountze<br><b>Address:</b> , <br><b>SSID:</b> eduroam<br><b>Enc:</b> WPA2+WPA<br><b>AP:</b> 2<br>]]></description>
      <Point>
        <coordinates>-94.3471934,30.4105541,0</coordinates>
      </Point>
    </Placemark>
    <Placemark>
      <name>Texas A&amp;M Forest Service</name>
      <description><![CDATA[<b>Name:</b> Texas A&amp;M Forest Service - LaGrange<br><b>Address:</b> , <br><b>SSID:</b> eduroam<br><b>Enc:</b> WPA2+WPA<br><b>AP:</b> 3<br>]]></description>
      <Point>
        <coordinates>-96.8601251,29.9077572,0</coordinates>
      </Point>
    </Placemark>
    <Placemark>
      <name>Texas A&amp;M Forest Service</name>
      <description><![CDATA[<b>Name:</b> Texas A&amp;M Forest Service - Linden<br><b>Address:</b> , <br><b>SSID:</b> eduroam<br><b>Enc:</b> WPA2+WPA<br><b>AP:</b> 4<br>]]></description>
      <Point>
        <coordinates>-94.3582349,33.005206,0</coordinates>
      </Point>
    </Placemark>
    <Placemark>
      <name>Texas A&amp;M Forest Service</name>
      <description><![CDATA[<b>Name:</b> Texas A&amp;M Forest Service - Livingston<br><b>Address:</b> , <br><b>SSID:</b> eduroam<br><b>Enc:</b> WPA2+WPA<br><b>AP:</b> 2<br>]]></description>
      <Point>
        <coordinates>-94.7116889,30.7181979,0</coordinates>
      </Point>
    </Placemark>
    <Placemark>
      <name>Texas A&amp;M Forest Service</name>
      <description><![CDATA[<b>Name:</b> Texas A&amp;M Forest Service - Longview<br><b>Address:</b> , <br><b>SSID:</b> eduroam<br><b>Enc:</b> WPA2+WPA<br><b>AP:</b> 2<br>]]></description>
      <Point>
        <coordinates>-94.7910264,32.5370773,0</coordinates>
      </Point>
    </Placemark>
    <Placemark>
      <name>Texas A&amp;M Forest Service</name>
      <description><![CDATA[<b>Name:</b> Texas A&amp;M Forest Service - Marshall<br><b>Address:</b> , <br><b>SSID:</b> eduroam<br><b>Enc:</b> WPA2+WPA<br><b>AP:</b> 2<br>]]></description>
      <Point>
        <coordinates>-94.2982604,32.5622458,0</coordinates>
      </Point>
    </Placemark>
    <Placemark>
      <name>Texas A&amp;M Forest Service</name>
      <description><![CDATA[<b>Name:</b> Texas A&amp;M Forest Service - McGregor<br><b>Address:</b> , <br><b>SSID:</b> eduroam<br><b>Enc:</b> WPA2+WPA<br><b>AP:</b> 6<br>]]></description>
      <Point>
        <coordinates>-97.4305987,31.414289,0</coordinates>
      </Point>
    </Placemark>
    <Placemark>
      <name>Texas A&amp;M Forest Service</name>
      <description><![CDATA[<b>Name:</b> Texas A&amp;M Forest Service - Merkel<br><b>Address:</b> , <br><b>SSID:</b> eduroam<br><b>Enc:</b> WPA2+WPA<br><b>AP:</b> 8<br>]]></description>
      <Point>
        <coordinates>-100.0207061,32.4721067,0</coordinates>
      </Point>
    </Placemark>
    <Placemark>
      <name>Texas A&amp;M Forest Service</name>
      <description><![CDATA[<b>Name:</b> Texas A&amp;M Forest Service - Mineral Wells<br><b>Address:</b> , <br><b>SSID:</b> eduroam<br><b>Enc:</b> WPA2+WPA<br><b>AP:</b> 3<br>]]></description>
      <Point>
        <coordinates>-98.0838415,32.7871735,0</coordinates>
      </Point>
    </Placemark>
    <Placemark>
      <name>Texas A&amp;M Forest Service</name>
      <description><![CDATA[<b>Name:</b> Texas A&amp;M Forest Service - Nacogdoches<br><b>Address:</b> , <br><b>SSID:</b> eduroam<br><b>Enc:</b> WPA2+WPA<br><b>AP:</b> 2<br>]]></description>
      <Point>
        <coordinates>-94.6821694,31.6424021,0</coordinates>
      </Point>
    </Placemark>
    <Placemark>
      <name>Texas A&amp;M Forest Service</name>
      <description><![CDATA[<b>Name:</b> Texas A&amp;M Forest Service - New Boston<br><b>Address:</b> , <br><b>SSID:</b> eduroam<br><b>Enc:</b> WPA2+WPA<br><b>AP:</b> 3<br>]]></description>
      <Point>
        <coordinates>-94.4181902,33.4055717,0</coordinates>
      </Point>
    </Placemark>
    <Placemark>
      <name>Texas A&amp;M Forest Service</name>
      <description><![CDATA[<b>Name:</b> Texas A&amp;M Forest Service - Smithville<br><b>Address:</b> , <br><b>SSID:</b> eduroam<br><b>Enc:</b> WPA2+WPA<br><b>AP:</b> 1<br>]]></description>
      <Point>
        <coordinates>-97.1883416,30.0497236,0</coordinates>
      </Point>
    </Placemark>
    <Placemark>
      <name>Texas A&amp;M Forest Service</name>
      <description><![CDATA[<b>Name:</b> Texas A&amp;M Forest Service - Wolfforth<br><b>Address:</b> , <br><b>SSID:</b> eduroam<br><b>Enc:</b> WPA2+WPA<br><b>AP:</b> 3<br>]]></description>
      <Point>
        <coordinates>-102.0102986,33.50945,0</coordinates>
      </Point>
    </Placemark>
    <Placemark>
      <name>Texas A&amp;M Health Science Center</name>
      <description><![CDATA[<b>Name:</b> Alkek - IBT<br><b>Address:</b> , <br><b>SSID:</b> eduroam<br><b>Enc:</b> WPA2+WPA<br><b>AP:</b> -<br>]]></description>
      <Point>
        <coordinates>-95.407209,29.705726,0</coordinates>
      </Point>
    </Placemark>
    <Placemark>
      <name>Texas A&amp;M Health Science Center</name>
      <description><![CDATA[<b>Name:</b> Baylor College of Dentistry<br><b>Address:</b> , <br><b>SSID:</b> eduroam<br><b>Enc:</b> WPA2+WPA<br><b>AP:</b> -<br>]]></description>
      <Point>
        <coordinates>-96.7813161,32.7895547,0</coordinates>
      </Point>
    </Placemark>
    <Placemark>
      <name>Texas A&amp;M Health Science Center</name>
      <description><![CDATA[<b>Name:</b> Kingsville Campus<br><b>Address:</b> , <br><b>SSID:</b> eduroam<br><b>Enc:</b> WPA2+WPA<br><b>AP:</b> -<br>]]></description>
      <Point>
        <coordinates>-97.8817981,27.5268068,0</coordinates>
      </Point>
    </Placemark>
    <Placemark>
      <name>Texas A&amp;M Health Science Center</name>
      <description><![CDATA[<b>Name:</b> Main Campus<br><b>Address:</b> , <br><b>SSID:</b> eduroam<br><b>Enc:</b> WPA2+WPA<br><b>AP:</b> -<br>]]></description>
      <Point>
        <coordinates>-96.3950067,30.5983982,0</coordinates>
      </Point>
    </Placemark>
    <Placemark>
      <name>Texas A&amp;M Health Science Center</name>
      <description><![CDATA[<b>Name:</b> McAllen Campus<br><b>Address:</b> , <br><b>SSID:</b> eduroam<br><b>Enc:</b> WPA2+WPA<br><b>AP:</b> -<br>]]></description>
      <Point>
        <coordinates>-98.215432,26.1815779,0</coordinates>
      </Point>
    </Placemark>
    <Placemark>
      <name>Texas A&amp;M Health Science Center</name>
      <description><![CDATA[<b>Name:</b> Round Rock Campus<br><b>Address:</b> , <br><b>SSID:</b> eduroam<br><b>Enc:</b> WPA2+WPA<br><b>AP:</b> -<br>]]></description>
      <Point>
        <coordinates>-97.6475358,30.5577244,0</coordinates>
      </Point>
    </Placemark>
    <Placemark>
      <name>Texas A&amp;M Health Science Center</name>
      <description><![CDATA[<b>Name:</b> Temple Campus<br><b>Address:</b> , <br><b>SSID:</b> eduroam<br><b>Enc:</b> WPA2+WPA<br><b>AP:</b> -<br>]]></description>
      <Point>
        <coordinates>-97.3630248,31.0739062,0</coordinates>
      </Point>
    </Placemark>
    <Placemark>
      <name>Texas A&amp;M International University</name>
      <description><![CDATA[<b>Name:</b> Main Campus<br><b>Address:</b> , <br><b>SSID:</b> eduroam<br><b>Enc:</b> WPA2+WPA<br><b>AP:</b> -<br>]]></description>
      <Point>
        <coordinates>-99.4356409,27.5734346,0</coordinates>
      </Point>
    </Placemark>
    <Placemark>
      <name>Texas A&amp;M Transportation Institute</name>
      <description><![CDATA[<b>Name:</b> TTI Arlington<br><b>Address:</b> , <br><b>SSID:</b> eduroam<br><b>Enc:</b> WPA2<br><b>AP:</b> 2<br>]]></description>
      <Point>
        <coordinates>-97.1235853,32.7371689,0</coordinates>
      </Point>
    </Placemark>
    <Placemark>
      <name>Texas A&amp;M Transportation Institute</name>
      <description><![CDATA[<b>Name:</b> TTI Austin<br><b>Address:</b> , <br><b>SSID:</b> eduroam<br><b>Enc:</b> WPA2<br><b>AP:</b> 4<br>]]></description>
      <Point>
        <coordinates>-97.7088698,30.3302543,0</coordinates>
      </Point>
    </Placemark>
    <Placemark>
      <name>Texas A&amp;M Transportation Institute</name>
      <description><![CDATA[<b>Name:</b> TTI Castle Hills<br><b>Address:</b> , <br><b>SSID:</b> eduroam<br><b>Enc:</b> WPA2<br><b>AP:</b> 4<br>]]></description>
      <Point>
        <coordinates>-98.5091282,29.5193787,0</coordinates>
      </Point>
    </Placemark>
    <Placemark>
      <name>Texas A&amp;M Transportation Institute</name>
      <description><![CDATA[<b>Name:</b> TTI Dallas<br><b>Address:</b> , <br><b>SSID:</b> eduroam<br><b>Enc:</b> WPA2<br><b>AP:</b> 2<br>]]></description>
      <Point>
        <coordinates>-96.7336534,32.9123356,0</coordinates>
      </Point>
    </Placemark>
    <Placemark>
      <name>Texas A&amp;M Transportation Institute</name>
      <description><![CDATA[<b>Name:</b> TTI El Paso<br><b>Address:</b> , <br><b>SSID:</b> eduroam<br><b>Enc:</b> WPA2<br><b>AP:</b> 2<br>]]></description>
      <Point>
        <coordinates>-106.517321,31.793763,0</coordinates>
      </Point>
    </Placemark>
    <Placemark>
      <name>Texas A&amp;M Transportation Institute</name>
      <description><![CDATA[<b>Name:</b> TTI Headquarters<br><b>Address:</b> , <br><b>SSID:</b> eduroam<br><b>Enc:</b> WPA2<br><b>AP:</b> 110<br>]]></description>
      <Point>
        <coordinates>-96.4729669,30.6481323,0</coordinates>
      </Point>
    </Placemark>
    <Placemark>
      <name>Texas A&amp;M Transportation Institute</name>
      <description><![CDATA[<b>Name:</b> TTI Houston<br><b>Address:</b> , <br><b>SSID:</b> eduroam<br><b>Enc:</b> WPA2<br><b>AP:</b> 2<br>]]></description>
      <Point>
        <coordinates>-95.4576088,29.7799269,0</coordinates>
      </Point>
    </Placemark>
    <Placemark>
      <name>Texas A&amp;M Transportation Institute</name>
      <description><![CDATA[<b>Name:</b> TTI Mesquite<br><b>Address:</b> , <br><b>SSID:</b> eduroam<br><b>Enc:</b> WPA2<br><b>AP:</b> 2<br>]]></description>
      <Point>
        <coordinates>-96.6728785,32.7999404,0</coordinates>
      </Point>
    </Placemark>
    <Placemark>
      <name>Texas A&amp;M Transportation Institute</name>
      <description><![CDATA[<b>Name:</b> TTI Riverside<br><b>Address:</b> , <br><b>SSID:</b> eduroam<br><b>Enc:</b> WPA2<br><b>AP:</b> 4<br>]]></description>
      <Point>
        <coordinates>-96.4748111,30.643727,0</coordinates>
      </Point>
    </Placemark>
    <Placemark>
      <name>Texas A&amp;M Transportation Institute</name>
      <description><![CDATA[<b>Name:</b> TTI San Antonio<br><b>Address:</b> , <br><b>SSID:</b> eduroam<br><b>Enc:</b> WPA2<br><b>AP:</b> 2<br>]]></description>
      <Point>
        <coordinates>-98.549349,29.4981444,0</coordinates>
      </Point>
    </Placemark>
    <Placemark>
      <name>Texas A&amp;M Transportation Institute</name>
      <description><![CDATA[<b>Name:</b> TTI Waco<br><b>Address:</b> , <br><b>SSID:</b> eduroam<br><b>Enc:</b> WPA2<br><b>AP:</b> 1<br>]]></description>
      <Point>
        <coordinates>-97.1726158,31.5283717,0</coordinates>
      </Point>
    </Placemark>
    <Placemark>
      <name>Texas A&amp;M University</name>
      <description><![CDATA[<b>Name:</b> Main Campus<br><b>Address:</b> , <br><b>SSID:</b> eduroam<br><b>Enc:</b> WPA2<br><b>AP:</b> 7300<br>]]></description>
      <Point>
        <coordinates>-96.3364411,30.6187274,0</coordinates>
      </Point>
    </Placemark>
    <Placemark>
      <name>Texas A&amp;M University System RELLIS Campus</name>
      <description><![CDATA[<b>Name:</b> RELLIS Administration Building<br><b>Address:</b> , <br><b>SSID:</b> eduroam<br><b>Enc:</b> WPA2<br><b>AP:</b> 10<br>]]></description>
      <Point>
        <coordinates>-96.4756481,30.6392227,0</coordinates>
      </Point>
    </Placemark>
    <Placemark>
      <name>Texas A&amp;M University System RELLIS Campus</name>
      <description><![CDATA[<b>Name:</b> Texas A&amp;M System<br><b>Address:</b> , <br><b>SSID:</b> eduroam<br><b>Enc:</b> WPA3+WPA2+WPA<br><b>AP:</b> 56<br>]]></description>
      <Point>
        <coordinates>-96.4751873,30.6479908,0</coordinates>
      </Point>
    </Placemark>
    <Placemark>
      <name>Texas A&amp;M University-AgriLife</name>
      <description><![CDATA[<b>Name:</b> Main Campus<br><b>Address:</b> , <br><b>SSID:</b> eduroam<br><b>Enc:</b> WPA2+WPA<br><b>AP:</b> -<br>]]></description>
      <Point>
        <coordinates>-96.3509429,30.6056223,0</coordinates>
      </Point>
    </Placemark>
    <Placemark>
      <name>Texas A&amp;M University-Central Texas</name>
      <description><![CDATA[<b>Name:</b> Main Campus<br><b>Address:</b> , <br><b>SSID:</b> eduroam<br><b>Enc:</b> WPA2<br><b>AP:</b> 163<br>]]></description>
      <Point>
        <coordinates>-97.7738518,31.0527826,0</coordinates>
      </Point>
    </Placemark>
    <Placemark>
      <name>Texas A&amp;M University-Commerce</name>
      <description><![CDATA[<b>Name:</b> Commerce Campus<br><b>Address:</b> , <br><b>SSID:</b> eduroam<br><b>Enc:</b> WPA2+WPA<br><b>AP:</b> 643<br>]]></description>
      <Point>
        <coordinates>-95.9076723,33.243545,0</coordinates>
      </Point>
    </Placemark>
    <Placemark>
      <name>Texas A&amp;M University-Commerce</name>
      <description><![CDATA[<b>Name:</b> TAMUC Dallas Campus<br><b>Address:</b> , <br><b>SSID:</b> eduroam<br><b>Enc:</b> WPA2<br><b>AP:</b> 78<br>]]></description>
      <Point>
        <coordinates>-96.7690569,32.8670206,0</coordinates>
      </Point>
    </Placemark>
    <Placemark>
      <name>Texas A&amp;M University-Corpus Christi</name>
      <description><![CDATA[<b>Name:</b> Main Campus<br><b>Address:</b> , <br><b>SSID:</b> eduroam<br><b>Enc:</b> WPA2+WPA<br><b>AP:</b> -<br>]]></description>
      <Point>
        <coordinates>-97.3240682,27.7139796,0</coordinates>
      </Point>
    </Placemark>
    <Placemark>
      <name>Texas A&amp;M University-Engineering Extension Service</name>
      <description><![CDATA[<b>Name:</b> Main Campus<br><b>Address:</b> , <br><b>SSID:</b> eduroam<br><b>Enc:</b> WPA2+WPA<br><b>AP:</b> -<br>]]></description>
      <Point>
        <coordinates>-96.2437343,30.5516119,0</coordinates>
      </Point>
    </Placemark>
    <Placemark>
      <name>Texas A&amp;M University-Kingsville</name>
      <description><![CDATA[<b>Name:</b> Main Campus<br><b>Address:</b> , <br><b>SSID:</b> eduroam<br><b>Enc:</b> WPA2+WPA<br><b>AP:</b> -<br>]]></description>
      <Point>
        <coordinates>-97.8824631,27.5252379,0</coordinates>
      </Point>
    </Placemark>
    <Placemark>
      <name>Texas A&amp;M University-San Antonio</name>
      <description><![CDATA[<b>Name:</b> Main Campus<br><b>Address:</b> , <br><b>SSID:</b> eduroam<br><b>Enc:</b> WPA2+WPA<br><b>AP:</b> 258<br>]]></description>
      <Point>
        <coordinates>-98.5247274,29.3036284,0</coordinates>
      </Point>
    </Placemark>
    <Placemark>
      <name>Texas A&amp;M University-Texarkana</name>
      <description><![CDATA[<b>Name:</b> Texas A&amp;M University-Texarkana<br><b>Address:</b> , <br><b>SSID:</b> eduroam<br><b>Enc:</b> WPA2+WPA<br><b>AP:</b> 100<br>]]></description>
      <Point>
        <coordinates>-94.1036731,33.4898106,0</coordinates>
      </Point>
    </Placemark>
    <Placemark>
      <name>Texas Christian University</name>
      <description><![CDATA[<b>Name:</b> Main Campus<br><b>Address:</b> , <br><b>SSID:</b> eduroam<br><b>Enc:</b> WPA2+WPA<br><b>AP:</b> 3200<br>]]></description>
      <Point>
        <coordinates>-97.362795,32.70953,0</coordinates>
      </Point>
    </Placemark>
    <Placemark>
      <name>Texas Southmost College</name>
      <description><![CDATA[<b>Name:</b> Main Campus<br><b>Address:</b> , <br><b>SSID:</b> eduroam<br><b>Enc:</b> WPA2+WPA<br><b>AP:</b> -<br>]]></description>
      <Point>
        <coordinates>-97.4904896,25.8999281,0</coordinates>
      </Point>
    </Placemark>
    <Placemark>
      <name>Texas State University</name>
      <description><![CDATA[<b>Name:</b> Texas State University<br><b>Address:</b> , <br><b>SSID:</b> eduroam<br><b>Enc:</b> WPA2<br><b>AP:</b> 1144<br>]]></description>
      <Point>
        <coordinates>-97.9378813,29.8879826,0</coordinates>
      </Point>
    </Placemark>
    <Placemark>
      <name>Texas State University</name>
      <description><![CDATA[<b>Name:</b> Texas State University - Round Rock<br><b>Address:</b> , <br><b>SSID:</b> eduroam<br><b>Enc:</b> WPA2<br><b>AP:</b> 126<br>]]></description>
      <Point>
        <coordinates>-97.6548958,30.5686167,0</coordinates>
      </Point>
    </Placemark>
    <Placemark>
      <name>Texas State University</name>
      <description><![CDATA[<b>Name:</b> TSUS Terlingua<br><b>Address:</b> , <br><b>SSID:</b> eduroam<br><b>Enc:</b> WPA2<br><b>AP:</b> 5<br>]]></description>
      <Point>
        <coordinates>-103.4044695,29.4399681,0</coordinates>
      </Point>
    </Placemark>
    <Placemark>
      <name>Texas Tech University</name>
      <description><![CDATA[<b>Name:</b> Main Campus<br><b>Address:</b> , <br><b>SSID:</b> eduroam<br><b>Enc:</b> WPA2+WPA<br><b>AP:</b> 7500<br>]]></description>
      <Point>
        <coordinates>-101.8778028,33.5842972,0</coordinates>
      </Point>
    </Placemark>
    <Placemark>
      <name>Texas Tech University Health Sciences Center El Paso</name>
      <description><![CDATA[<b>Name:</b> TTUHSCEP<br><b>Address:</b> , <br><b>SSID:</b> eduroam<br><b>Enc:</b> WPA2<br><b>AP:</b> 400<br>]]></description>
      <Point>
        <coordinates>-106.430608,31.77112,0</coordinates>
      </Point>
    </Placemark>
    <Placemark>
      <name>The University of Texas at Arlington</name>
      <description><![CDATA[<b>Name:</b> Main Campus<br><b>Address:</b> , <br><b>SSID:</b> eduroam<br><b>Enc:</b> WPA2+WPA<br><b>AP:</b> -<br>]]></description>
      <Point>
        <coordinates>-97.1160097,32.7284208,0</coordinates>
      </Point>
    </Placemark>
    <Placemark>
      <name>The University of Texas at Austin</name>
      <description><![CDATA[<b>Name:</b> JJ Pickle Research Campus<br><b>Address:</b> , <br><b>SSID:</b> eduroam<br><b>Enc:</b> WPA2+WPA<br><b>AP:</b> -<br>]]></description>
      <Point>
        <coordinates>-97.726589,30.387302,0</coordinates>
      </Point>
    </Placemark>
    <Placemark>
      <name>The University of Texas at Austin</name>
      <description><![CDATA[<b>Name:</b> University of Texas, Austin<br><b>Address:</b> , <br><b>SSID:</b> eduroam<br><b>Enc:</b> WPA2+WPA<br><b>AP:</b> -<br>]]></description>
      <Point>
        <coordinates>-97.7393961,30.2862346,0</coordinates>
      </Point>
    </Placemark>
    <Placemark>
      <name>The University of Texas at Dallas</name>
      <description><![CDATA[<b>Name:</b> UT Dallas Campus<br><b>Address:</b> , <br><b>SSID:</b> eduroam<br><b>Enc:</b> WPA2+WPA<br><b>AP:</b> 3305<br>]]></description>
      <Point>
        <coordinates>-96.7501036,32.9857707,0</coordinates>
      </Point>
    </Placemark>
    <Placemark>
      <name>The University of Texas at El Paso</name>
      <description><![CDATA[<b>Name:</b> Main Campus<br><b>Address:</b> , <br><b>SSID:</b> eduroam<br><b>Enc:</b> WPA2+WPA<br><b>AP:</b> -<br>]]></description>
      <Point>
        <coordinates>-106.5057522,31.7717479,0</coordinates>
      </Point>
    </Placemark>
    <Placemark>
      <name>The University of Texas at San Antonio</name>
      <description><![CDATA[<b>Name:</b> Main Campus<br><b>Address:</b> , <br><b>SSID:</b> eduroam<br><b>Enc:</b> WPA2<br><b>AP:</b> 1850<br>]]></description>
      <Point>
        <coordinates>-98.6187133,29.5862049,0</coordinates>
      </Point>
    </Placemark>
    <Placemark>
      <name>The University of Texas of the Permian Basin</name>
      <description><![CDATA[<b>Name:</b> UTPB Midland Campus<br><b>Address:</b> , <br><b>SSID:</b> eduroam<br><b>Enc:</b> WPA2<br><b>AP:</b> -<br>]]></description>
      <Point>
        <coordinates>-102.2492301,31.9717869,0</coordinates>
      </Point>
    </Placemark>
    <Placemark>
      <name>The University of Texas of the Permian Basin</name>
      <description><![CDATA[<b>Name:</b> UTPB Odessa Campus<br><b>Address:</b> , <br><b>SSID:</b> eduroam<br><b>Enc:</b> WPA2<br><b>AP:</b> -<br>]]></description>
      <Point>
        <coordinates>-102.3263747,31.8918624,0</coordinates>
      </Point>
    </Placemark>
    <Placemark>
      <name>The University of Texas Rio Grande Valley</name>
      <description><![CDATA[<b>Name:</b> Brownsville Campus<br><b>Address:</b> , <br><b>SSID:</b> eduroam<br><b>Enc:</b> WPA2+WPA<br><b>AP:</b> -<br>]]></description>
      <Point>
        <coordinates>-97.4864491,25.89239,0</coordinates>
      </Point>
    </Placemark>
    <Placemark>
      <name>The University of Texas Rio Grande Valley</name>
      <description><![CDATA[<b>Name:</b> Center for Innovation and Commercialization<br><b>Address:</b> , <br><b>SSID:</b> eduroam<br><b>Enc:</b> WPA2+WPA<br><b>AP:</b> -<br>]]></description>
      <Point>
        <coordinates>-97.9877596,26.1595056,0</coordinates>
      </Point>
    </Placemark>
    <Placemark>
      <name>The University of Texas Rio Grande Valley</name>
      <description><![CDATA[<b>Name:</b> Coastal Studies Lab<br><b>Address:</b> , <br><b>SSID:</b> eduroam<br><b>Enc:</b> WPA2+WPA<br><b>AP:</b> -<br>]]></description>
      <Point>
        <coordinates>-97.1585711,26.0752042,0</coordinates>
      </Point>
    </Placemark>
    <Placemark>
      <name>The University of Texas Rio Grande Valley</name>
      <description><![CDATA[<b>Name:</b> Coastal, Ocean, and Environmental Research Center<br><b>Address:</b> , <br><b>SSID:</b> eduroam<br><b>Enc:</b> WPA2+WPA<br><b>AP:</b> -<br>]]></description>
      <Point>
        <coordinates>-97.2018201,26.0718104,0</coordinates>
      </Point>
    </Placemark>
    <Placemark>
      <name>The University of Texas Rio Grande Valley</name>
      <description><![CDATA[<b>Name:</b> Community Engagement and Student Success Building<br><b>Address:</b> , <br><b>SSID:</b> eduroam<br><b>Enc:</b> WPA2+WPA<br><b>AP:</b> -<br>]]></description>
      <Point>
        <coordinates>-98.150686,26.2871338,0</coordinates>
      </Point>
    </Placemark>
    <Placemark>
      <name>The University of Texas Rio Grande Valley</name>
      <description><![CDATA[<b>Name:</b> Edinburg Campus<br><b>Address:</b> , <br><b>SSID:</b> eduroam<br><b>Enc:</b> WPA2+WPA<br><b>AP:</b> -<br>]]></description>
      <Point>
        <coordinates>-98.1730805,26.3063464,0</coordinates>
      </Point>
    </Placemark>
    <Placemark>
      <name>The University of Texas Rio Grande Valley</name>
      <description><![CDATA[<b>Name:</b> Harlingen Campus<br><b>Address:</b> , <br><b>SSID:</b> eduroam<br><b>Enc:</b> WPA2+WPA<br><b>AP:</b> -<br>]]></description>
      <Point>
        <coordinates>-97.665571,26.1735606,0</coordinates>
      </Point>
    </Placemark>
    <Placemark>
      <name>The University of Texas Rio Grande Valley</name>
      <description><![CDATA[<b>Name:</b> Starr County Upper-Level Center<br><b>Address:</b> , <br><b>SSID:</b> eduroam<br><b>Enc:</b> WPA2+WPA<br><b>AP:</b> -<br>]]></description>
      <Point>
        <coordinates>-98.8573415,26.3833561,0</coordinates>
      </Point>
    </Placemark>
    <Placemark>
      <name>The University of Texas Rio Grande Valley</name>
      <description><![CDATA[<b>Name:</b> Visual Arts Building<br><b>Address:</b> , <br><b>SSID:</b> eduroam<br><b>Enc:</b> WPA2+WPA<br><b>AP:</b> -<br>]]></description>
      <Point>
        <coordinates>-98.1671977,26.2788849,0</coordinates>
      </Point>
    </Placemark>
    <Placemark>
      <name>The University of Texas System Office</name>
      <description><![CDATA[<b>Name:</b> Main Campus<br><b>Address:</b> , <br><b>SSID:</b> eduroam<br><b>Enc:</b> WPA2+WPA<br><b>AP:</b> -<br>]]></description>
      <Point>
        <coordinates>-97.7438391,30.2683243,0</coordinates>
      </Point>
    </Placemark>
    <Placemark>
      <name>Trinity University</name>
      <description><![CDATA[<b>Name:</b> TU Campus<br><b>Address:</b> , <br><b>SSID:</b> eduroam<br><b>Enc:</b> WPA2+WPA<br><b>AP:</b> 1200<br>]]></description>
      <Point>
        <coordinates>-98.4829812,29.4627294,0</coordinates>
      </Point>
    </Placemark>
    <Placemark>
      <name>University of Houston</name>
      <description><![CDATA[<b>Name:</b> Main Campus<br><b>Address:</b> , <br><b>SSID:</b> eduroam<br><b>Enc:</b> WPA2<br><b>AP:</b> 6500<br>]]></description>
      <Point>
        <coordinates>-95.3401214,29.7218589,0</coordinates>
      </Point>
    </Placemark>
    <Placemark>
      <name>University of Houston</name>
      <description><![CDATA[<b>Name:</b> University of Houston - Katy<br><b>Address:</b> , <br><b>SSID:</b> eduroam<br><b>Enc:</b> WPA2<br><b>AP:</b> 43<br>]]></description>
      <Point>
        <coordinates>-95.771023,29.7924531,0</coordinates>
      </Point>
    </Placemark>
    <Placemark>
      <name>University of Houston</name>
      <description><![CDATA[<b>Name:</b> University of Houston - Sugarland<br><b>Address:</b> , <br><b>SSID:</b> eduroam<br><b>Enc:</b> WPA2<br><b>AP:</b> 223<br>]]></description>
      <Point>
        <coordinates>-95.6504893,29.5752059,0</coordinates>
      </Point>
    </Placemark>
    <Placemark>
      <name>University of Houston - Clear Lake</name>
      <description><![CDATA[<b>Name:</b> University of Houston - Clear Lake<br><b>Address:</b> , <br><b>SSID:</b> eduroam<br><b>Enc:</b> WPA2<br><b>AP:</b> 800<br>]]></description>
      <Point>
        <coordinates>-95.0969753,29.5866039,0</coordinates>
      </Point>
    </Placemark>
    <Placemark>
      <name>University of Houston - Clear Lake</name>
      <description><![CDATA[<b>Name:</b> University of Houston - Clear Lake at the Medical Center<br><b>Address:</b> , <br><b>SSID:</b> eduroam<br><b>Enc:</b> WPA2<br><b>AP:</b> 9<br>]]></description>
      <Point>
        <coordinates>-95.4020132,29.709183,0</coordinates>
      </Point>
    </Placemark>
    <Placemark>
      <name>University of Houston - Clear Lake</name>
      <description><![CDATA[<b>Name:</b> University of Houston - Clear Lake in Pearland<br><b>Address:</b> , <br><b>SSID:</b> eduroam<br><b>Enc:</b> WPA2<br><b>AP:</b> 70<br>]]></description>
      <Point>
        <coordinates>-95.2691499,29.5872465,0</coordinates>
      </Point>
    </Placemark>
    <Placemark>
      <name>University of Houston-Downtown</name>
      <description><![CDATA[<b>Name:</b> University of Houston-Downtown<br><b>Address:</b> , <br><b>SSID:</b> eduroam<br><b>Enc:</b> WPA2+WPA<br><b>AP:</b> 600<br>]]></description>
      <Point>
        <coordinates>-95.3598537,29.7662407,0</coordinates>
      </Point>
    </Placemark>
    <Placemark>
      <name>University of Houston-Victoria</name>
      <description><![CDATA[<b>Name:</b> University of Houston - Victoria<br><b>Address:</b> , <br><b>SSID:</b> eduroam<br><b>Enc:</b> WPA2+WPA<br><b>AP:</b> 193<br>]]></description>
      <Point>
        <coordinates>-96.9763288,28.816247,0</coordinates>
      </Point>
    </Placemark>
    <Placemark>
      <name>University of North Texas System</name>
      <description><![CDATA[<b>Name:</b> University of North Texas<br><b>Address:</b> , <br><b>SSID:</b> eduroam<br><b>Enc:</b> WPA2+WPA<br><b>AP:</b> -<br>]]></description>
      <Point>
        <coordinates>-97.1472614,33.2106588,0</coordinates>
      </Point>
    </Placemark>
    <Placemark>
      <name>University of North Texas System</name>
      <description><![CDATA[<b>Name:</b> University of North Texas at Dallas<br><b>Address:</b> , <br><b>SSID:</b> eduroam<br><b>Enc:</b> WPA2+WPA<br><b>AP:</b> -<br>]]></description>
      <Point>
        <coordinates>-96.8036212,32.6595965,0</coordinates>
      </Point>
    </Placemark>
    <Placemark>
      <name>University of North Texas System</name>
      <description><![CDATA[<b>Name:</b> UNT Dallas College of Law<br><b>Address:</b> , <br><b>SSID:</b> eduroam<br><b>Enc:</b> WPA2+WPA<br><b>AP:</b> -<br>]]></description>
      <Point>
        <coordinates>-96.7952473,32.7816753,0</coordinates>
      </Point>
    </Placemark>
    <Placemark>
      <name>University of North Texas System</name>
      <description><![CDATA[<b>Name:</b> UNT Health Science Center<br><b>Address:</b> , <br><b>SSID:</b> eduroam<br><b>Enc:</b> WPA2+WPA<br><b>AP:</b> -<br>]]></description>
      <Point>
        <coordinates>-97.3688757,32.750097,0</coordinates>
      </Point>
    </Placemark>
    <Placemark>
      <name>University of North Texas System</name>
      <description><![CDATA[<b>Name:</b> UNT New College at Frisco<br><b>Address:</b> , <br><b>SSID:</b> eduroam<br><b>Enc:</b> WPA2+WPA<br><b>AP:</b> -<br>]]></description>
      <Point>
        <coordinates>-96.8302515,33.1023831,0</coordinates>
      </Point>
    </Placemark>
    <Placemark>
      <name>University of Texas Health Science Center At San Antonio</name>
      <description><![CDATA[<b>Name:</b> The University of Texas Health Science Center<br><b>Address:</b> , <br><b>SSID:</b> eduroam<br><b>Enc:</b> WPA2<br><b>AP:</b> 1500<br>]]></description>
      <Point>
        <coordinates>-98.5755382,29.5058407,0</coordinates>
      </Point>
    </Placemark>
    <Placemark>
      <name>University of the Incarnate Word</name>
      <description><![CDATA[<b>Name:</b> Main Campus<br><b>Address:</b> , <br><b>SSID:</b> eduroam<br><b>Enc:</b> WPA2<br><b>AP:</b> 800<br>]]></description>
      <Point>
        <coordinates>-98.469515,29.467138,0</coordinates>
      </Point>
    </Placemark>
    <Placemark>
      <name>West Texas A&amp;M University</name>
      <description><![CDATA[<b>Name:</b> WTAMU Canyon Campus<br><b>Address:</b> , <br><b>SSID:</b> eduroam<br><b>Enc:</b> WPA2+WPA<br><b>AP:</b> 1000<br>]]></description>
      <Point>
        <coordinates>-101.9158711,34.9819636,0</coordinates>
      </Point>
    </Placemark>
  </Document>
</kml>
