<?xml version="1.0" encoding="UTF-8"?>
<kml xmlns="http://www.opengis.net/kml/2.2">
  <Document>
    <name>eduroam — Delaware</name>
    <description><![CDATA[53 eduroam service locations in Delaware.<br><br>Published by <a href="https://scs.nevada.edu/eduroam">NSHE System Computing Services</a>. Learn more about eduroam Support Organizations from <a href="https://incommon.org/eduroam">Internet2</a>, the eduroam National Roaming Operator for the United States.<br>These maps are derived from data published by GÉANT (<a href="https://monitor.eduroam.org/kml/us.kml">monitor.eduroam.org</a>). This is not an official GÉANT or eduroam publication.<br>eduroam is a registered trademark of the GÉANT Association.<br>Region boundaries are derived from US Census Bureau cartographic boundary files, which as works of the US federal government are in the public domain.<br>Maps generated by eduroam-us-regional-maps, which is BSD 3-Clause licensed.]]></description>
    <open>1</open>
    <Placemark>
      <name>Department of Veterans Affairs</name>
      <description><![CDATA[<b>Name:</b> Wilmington VA Medical Center<br><b>Address:</b> , <br><b>SSID:</b> eduroam<br><b>Enc:</b> WPA2<br><b>AP:</b> -<br>]]></description>
      <Point>
        <coordinates>-75.60644,39.74038,0</coordinates>
      </Point>
    </Placemark>
    <Placemark>
      <name>University of Delaware</name>
      <description><![CDATA[<b>Name:</b> Main Campus<br><b>Address:</b> , <br><b>SSID:</b> eduroam<br><b>Enc:</b> WPA2+WPA<br><b>AP:</b> 4000<br>]]></description>
      <Point>
        <coordinates>-75.7506123,39.6779471,0</coordinates>
      </Point>
    </Placemark>
    <Placemark>
      <name>University of Delaware</name>
      <description><![CDATA[<b>Name:</b> University of Delaware, Georgetown Campus - Lasher<br><b>Address:</b> , <br><b>SSID:</b> eduroam<br><b>Enc:</b> WPA2+WPA<br><b>AP:</b> 6<br>]]></description>
      <Point>
        <coordinates>-75.4591731,38.6341997,0</coordinates>
      </Point>
    </Placemark>
    <Placemark>
      <name>University of Delaware</name>
      <description><![CDATA[<b>Name:</b> University of Delaware, Lewes Campus<br><b>Address:</b> , <br><b>SSID:</b> eduroam<br><b>Enc:</b> WPA2+WPA<br><b>AP:</b> 33<br>]]></description>
      <Point>
        <coordinates>-75.1607507,38.7855046,0</coordinates>
      </Point>
    </Placemark>
    <Placemark>
      <name>University of Delaware</name>
      <description><![CDATA[<b>Name:</b> University of Delaware, Wilmington Campus - Arsht/Goodstay<br><b>Address:</b> , <br><b>SSID:</b> eduroam<br><b>Enc:</b> WPA2+WPA<br><b>AP:</b> 41<br>]]></description>
      <Point>
        <coordinates>-75.5783105,39.7620941,0</coordinates>
      </Point>
    </Placemark>
    <Placemark>
      <name>University Of Delaware - Hotspots</name>
      <description><![CDATA[<b>Name:</b> American Legion Post 25<br><b>Address:</b> , <br><b>SSID:</b> eduroam<br><b>Enc:</b> WPA2+WPA<br><b>AP:</b> 2<br>]]></description>
      <Point>
        <coordinates>-75.7174777,39.4544243,0</coordinates>
      </Point>
    </Placemark>
    <Placemark>
      <name>University Of Delaware - Hotspots</name>
      <description><![CDATA[<b>Name:</b> Appoquinimink Public Library<br><b>Address:</b> , <br><b>SSID:</b> eduroam<br><b>Enc:</b> WPA2+WPA<br><b>AP:</b> 6<br>]]></description>
      <Point>
        <coordinates>-75.7174323,39.4558061,0</coordinates>
      </Point>
    </Placemark>
    <Placemark>
      <name>University Of Delaware - Hotspots</name>
      <description><![CDATA[<b>Name:</b> Banning Regional Park<br><b>Address:</b> , <br><b>SSID:</b> eduroam<br><b>Enc:</b> WPA2+WPA<br><b>AP:</b> 2<br>]]></description>
      <Point>
        <coordinates>-75.5924681,39.7189323,0</coordinates>
      </Point>
    </Placemark>
    <Placemark>
      <name>University Of Delaware - Hotspots</name>
      <description><![CDATA[<b>Name:</b> Bear Library - Rear Parking Lot<br><b>Address:</b> , <br><b>SSID:</b> eduroam<br><b>Enc:</b> WPA2+WPA<br><b>AP:</b> 2<br>]]></description>
      <Point>
        <coordinates>-75.6601749,39.6354558,0</coordinates>
      </Point>
    </Placemark>
    <Placemark>
      <name>University Of Delaware - Hotspots</name>
      <description><![CDATA[<b>Name:</b> Brandywine Hundred Librry<br><b>Address:</b> , <br><b>SSID:</b> eduroam<br><b>Enc:</b> WPA2+WPA<br><b>AP:</b> 6<br>]]></description>
      <Point>
        <coordinates>-75.5244855,39.7955835,0</coordinates>
      </Point>
    </Placemark>
    <Placemark>
      <name>University Of Delaware - Hotspots</name>
      <description><![CDATA[<b>Name:</b> Bridgeville Public Library<br><b>Address:</b> , <br><b>SSID:</b> eduroam<br><b>Enc:</b> WPA2+WPA<br><b>AP:</b> 4<br>]]></description>
      <Point>
        <coordinates>-75.6023494,38.7360606,0</coordinates>
      </Point>
    </Placemark>
    <Placemark>
      <name>University Of Delaware - Hotspots</name>
      <description><![CDATA[<b>Name:</b> Cape Henlopen High School<br><b>Address:</b> , <br><b>SSID:</b> eduroam<br><b>Enc:</b> WPA2+WPA<br><b>AP:</b> 3<br>]]></description>
      <Point>
        <coordinates>-75.1506286,38.7579159,0</coordinates>
      </Point>
    </Placemark>
    <Placemark>
      <name>University Of Delaware - Hotspots</name>
      <description><![CDATA[<b>Name:</b> Cape HO Brittingham Elementary<br><b>Address:</b> , <br><b>SSID:</b> eduroam<br><b>Enc:</b> WPA2+WPA<br><b>AP:</b> 3<br>]]></description>
      <Point>
        <coordinates>-75.3164337,38.7810228,0</coordinates>
      </Point>
    </Placemark>
    <Placemark>
      <name>University Of Delaware - Hotspots</name>
      <description><![CDATA[<b>Name:</b> Cape Milton Elementary School<br><b>Address:</b> , <br><b>SSID:</b> eduroam<br><b>Enc:</b> WPA2+WPA<br><b>AP:</b> 3<br>]]></description>
      <Point>
        <coordinates>-75.3148885,38.7719073,0</coordinates>
      </Point>
    </Placemark>
    <Placemark>
      <name>University Of Delaware - Hotspots</name>
      <description><![CDATA[<b>Name:</b> Cape Rehoboth Elementary<br><b>Address:</b> , <br><b>SSID:</b> eduroam<br><b>Enc:</b> WPA2+WPA<br><b>AP:</b> 3<br>]]></description>
      <Point>
        <coordinates>-75.0883823,38.7092923,0</coordinates>
      </Point>
    </Placemark>
    <Placemark>
      <name>University Of Delaware - Hotspots</name>
      <description><![CDATA[<b>Name:</b> Claymont Public Library<br><b>Address:</b> , <br><b>SSID:</b> eduroam<br><b>Enc:</b> WPA2+WPA<br><b>AP:</b> 6<br>]]></description>
      <Point>
        <coordinates>-75.4576409,39.8073648,0</coordinates>
      </Point>
    </Placemark>
    <Placemark>
      <name>University Of Delaware - Hotspots</name>
      <description><![CDATA[<b>Name:</b> Corbit-Calloway Memorial Library<br><b>Address:</b> , <br><b>SSID:</b> eduroam<br><b>Enc:</b> WPA2+WPA<br><b>AP:</b> 4<br>]]></description>
      <Point>
        <coordinates>-75.6575006,39.4558185,0</coordinates>
      </Point>
    </Placemark>
    <Placemark>
      <name>University Of Delaware - Hotspots</name>
      <description><![CDATA[<b>Name:</b> Delaware City Library<br><b>Address:</b> , <br><b>SSID:</b> eduroam<br><b>Enc:</b> WPA2+WPA<br><b>AP:</b> 4<br>]]></description>
      <Point>
        <coordinates>-75.5921184,39.5720522,0</coordinates>
      </Point>
    </Placemark>
    <Placemark>
      <name>University Of Delaware - Hotspots</name>
      <description><![CDATA[<b>Name:</b> Delmar Public Library<br><b>Address:</b> , <br><b>SSID:</b> eduroam<br><b>Enc:</b> WPA2+WPA<br><b>AP:</b> 2<br>]]></description>
      <Point>
        <coordinates>-75.5743831,38.4573498,0</coordinates>
      </Point>
    </Placemark>
    <Placemark>
      <name>University Of Delaware - Hotspots</name>
      <description><![CDATA[<b>Name:</b> Dover Public Library<br><b>Address:</b> , <br><b>SSID:</b> eduroam<br><b>Enc:</b> WPA2+WPA<br><b>AP:</b> 6<br>]]></description>
      <Point>
        <coordinates>-75.5225292,39.15901,0</coordinates>
      </Point>
    </Placemark>
    <Placemark>
      <name>University Of Delaware - Hotspots</name>
      <description><![CDATA[<b>Name:</b> Elsmere Public Library<br><b>Address:</b> , <br><b>SSID:</b> eduroam<br><b>Enc:</b> WPA2+WPA<br><b>AP:</b> 6<br>]]></description>
      <Point>
        <coordinates>-75.602844,39.7410352,0</coordinates>
      </Point>
    </Placemark>
    <Placemark>
      <name>University Of Delaware - Hotspots</name>
      <description><![CDATA[<b>Name:</b> Frankford Public Library<br><b>Address:</b> , <br><b>SSID:</b> eduroam<br><b>Enc:</b> WPA2+WPA<br><b>AP:</b> 4<br>]]></description>
      <Point>
        <coordinates>-75.2348251,38.517118,0</coordinates>
      </Point>
    </Placemark>
    <Placemark>
      <name>University Of Delaware - Hotspots</name>
      <description><![CDATA[<b>Name:</b> Garfield Park PAL<br><b>Address:</b> , <br><b>SSID:</b> eduroam<br><b>Enc:</b> WPA2+WPA<br><b>AP:</b> 2<br>]]></description>
      <Point>
        <coordinates>-75.5617852,39.701882,0</coordinates>
      </Point>
    </Placemark>
    <Placemark>
      <name>University Of Delaware - Hotspots</name>
      <description><![CDATA[<b>Name:</b> Georgetown Public Library<br><b>Address:</b> , <br><b>SSID:</b> eduroam<br><b>Enc:</b> WPA2+WPA<br><b>AP:</b> 4<br>]]></description>
      <Point>
        <coordinates>-75.3874427,38.6866849,0</coordinates>
      </Point>
    </Placemark>
    <Placemark>
      <name>University Of Delaware - Hotspots</name>
      <description><![CDATA[<b>Name:</b> Glasgow Regional Park<br><b>Address:</b> , <br><b>SSID:</b> eduroam<br><b>Enc:</b> WPA2+WPA<br><b>AP:</b> 2<br>]]></description>
      <Point>
        <coordinates>-75.7387614,39.6090422,0</coordinates>
      </Point>
    </Placemark>
    <Placemark>
      <name>University Of Delaware - Hotspots</name>
      <description><![CDATA[<b>Name:</b> Greenwood Public Library<br><b>Address:</b> , <br><b>SSID:</b> eduroam<br><b>Enc:</b> WPA2+WPA<br><b>AP:</b> 4<br>]]></description>
      <Point>
        <coordinates>-75.5924877,38.8065802,0</coordinates>
      </Point>
    </Placemark>
    <Placemark>
      <name>University Of Delaware - Hotspots</name>
      <description><![CDATA[<b>Name:</b> Harrington Public Library<br><b>Address:</b> , <br><b>SSID:</b> eduroam<br><b>Enc:</b> WPA2+WPA<br><b>AP:</b> -<br>]]></description>
      <Point>
        <coordinates>-75.5754746,38.9286402,0</coordinates>
      </Point>
    </Placemark>
    <Placemark>
      <name>University Of Delaware - Hotspots</name>
      <description><![CDATA[<b>Name:</b> Hockessin Public Library<br><b>Address:</b> , <br><b>SSID:</b> eduroam<br><b>Enc:</b> WPA2+WPA<br><b>AP:</b> 6<br>]]></description>
      <Point>
        <coordinates>-75.7013025,39.7882874,0</coordinates>
      </Point>
    </Placemark>
    <Placemark>
      <name>University Of Delaware - Hotspots</name>
      <description><![CDATA[<b>Name:</b> Kent County Public Library<br><b>Address:</b> , <br><b>SSID:</b> eduroam<br><b>Enc:</b> WPA2+WPA<br><b>AP:</b> 4<br>]]></description>
      <Point>
        <coordinates>-75.5497831,39.0797073,0</coordinates>
      </Point>
    </Placemark>
    <Placemark>
      <name>University Of Delaware - Hotspots</name>
      <description><![CDATA[<b>Name:</b> Kirkwood Public Library<br><b>Address:</b> , <br><b>SSID:</b> eduroam<br><b>Enc:</b> WPA2+WPA<br><b>AP:</b> 2<br>]]></description>
      <Point>
        <coordinates>-75.6787633,39.7108989,0</coordinates>
      </Point>
    </Placemark>
    <Placemark>
      <name>University Of Delaware - Hotspots</name>
      <description><![CDATA[<b>Name:</b> Laurel Public Library<br><b>Address:</b> , <br><b>SSID:</b> eduroam<br><b>Enc:</b> WPA2+WPA<br><b>AP:</b> 4<br>]]></description>
      <Point>
        <coordinates>-75.5706539,38.5562849,0</coordinates>
      </Point>
    </Placemark>
    <Placemark>
      <name>University Of Delaware - Hotspots</name>
      <description><![CDATA[<b>Name:</b> Lewes Public Library<br><b>Address:</b> , <br><b>SSID:</b> eduroam<br><b>Enc:</b> WPA2+WPA<br><b>AP:</b> 6<br>]]></description>
      <Point>
        <coordinates>-75.1419054,38.7676833,0</coordinates>
      </Point>
    </Placemark>
    <Placemark>
      <name>University Of Delaware - Hotspots</name>
      <description><![CDATA[<b>Name:</b> Milford Public Library<br><b>Address:</b> , <br><b>SSID:</b> eduroam<br><b>Enc:</b> WPA2+WPA<br><b>AP:</b> 4<br>]]></description>
      <Point>
        <coordinates>-75.4275079,38.9127345,0</coordinates>
      </Point>
    </Placemark>
    <Placemark>
      <name>University Of Delaware - Hotspots</name>
      <description><![CDATA[<b>Name:</b> Millsboro Public Library<br><b>Address:</b> , <br><b>SSID:</b> eduroam<br><b>Enc:</b> WPA2+WPA<br><b>AP:</b> 4<br>]]></description>
      <Point>
        <coordinates>-75.2960726,38.5941801,0</coordinates>
      </Point>
    </Placemark>
    <Placemark>
      <name>University Of Delaware - Hotspots</name>
      <description><![CDATA[<b>Name:</b> Milton Public Library<br><b>Address:</b> , <br><b>SSID:</b> eduroam<br><b>Enc:</b> WPA2+WPA<br><b>AP:</b> 4<br>]]></description>
      <Point>
        <coordinates>-75.3107021,38.778717,0</coordinates>
      </Point>
    </Placemark>
    <Placemark>
      <name>University Of Delaware - Hotspots</name>
      <description><![CDATA[<b>Name:</b> NCC Head Start/Belevedere State Service Center<br><b>Address:</b> , <br><b>SSID:</b> eduroam<br><b>Enc:</b> WPA2+WPA<br><b>AP:</b> 2<br>]]></description>
      <Point>
        <coordinates>-75.6199856,39.7219423,0</coordinates>
      </Point>
    </Placemark>
    <Placemark>
      <name>University Of Delaware - Hotspots</name>
      <description><![CDATA[<b>Name:</b> NCC Police Academy<br><b>Address:</b> , <br><b>SSID:</b> eduroam<br><b>Enc:</b> WPA2+WPA<br><b>AP:</b> 2<br>]]></description>
      <Point>
        <coordinates>-75.7262915,39.6757048,0</coordinates>
      </Point>
    </Placemark>
    <Placemark>
      <name>University Of Delaware - Hotspots</name>
      <description><![CDATA[<b>Name:</b> NCC-Gilliam Building<br><b>Address:</b> , <br><b>SSID:</b> eduroam<br><b>Enc:</b> WPA2+WPA<br><b>AP:</b> 2<br>]]></description>
      <Point>
        <coordinates>-75.6130797,39.6876759,0</coordinates>
      </Point>
    </Placemark>
    <Placemark>
      <name>University Of Delaware - Hotspots</name>
      <description><![CDATA[<b>Name:</b> New Castle County Government Center<br><b>Address:</b> , <br><b>SSID:</b> eduroam<br><b>Enc:</b> WPA2+WPA<br><b>AP:</b> 2<br>]]></description>
      <Point>
        <coordinates>-75.6128979,39.6859157,0</coordinates>
      </Point>
    </Placemark>
    <Placemark>
      <name>University Of Delaware - Hotspots</name>
      <description><![CDATA[<b>Name:</b> New Castle Public Library<br><b>Address:</b> , <br><b>SSID:</b> eduroam<br><b>Enc:</b> WPA2+WPA<br><b>AP:</b> 6<br>]]></description>
      <Point>
        <coordinates>-75.5657876,39.6608551,0</coordinates>
      </Point>
    </Placemark>
    <Placemark>
      <name>University Of Delaware - Hotspots</name>
      <description><![CDATA[<b>Name:</b> Newark Free Library<br><b>Address:</b> , <br><b>SSID:</b> eduroam<br><b>Enc:</b> WPA2+WPA<br><b>AP:</b> 6<br>]]></description>
      <Point>
        <coordinates>-75.7368767,39.6829129,0</coordinates>
      </Point>
    </Placemark>
    <Placemark>
      <name>University Of Delaware - Hotspots</name>
      <description><![CDATA[<b>Name:</b> REhoboth BEach Public Library<br><b>Address:</b> , <br><b>SSID:</b> eduroam<br><b>Enc:</b> WPA2+WPA<br><b>AP:</b> 6<br>]]></description>
      <Point>
        <coordinates>-75.1010114,38.713386,0</coordinates>
      </Point>
    </Placemark>
    <Placemark>
      <name>University Of Delaware - Hotspots</name>
      <description><![CDATA[<b>Name:</b> Route 9 Library &amp; Innovation Center<br><b>Address:</b> , <br><b>SSID:</b> eduroam<br><b>Enc:</b> WPA2+WPA<br><b>AP:</b> 2<br>]]></description>
      <Point>
        <coordinates>-75.549764,39.701144,0</coordinates>
      </Point>
    </Placemark>
    <Placemark>
      <name>University Of Delaware - Hotspots</name>
      <description><![CDATA[<b>Name:</b> Seaford District Library<br><b>Address:</b> , <br><b>SSID:</b> eduroam<br><b>Enc:</b> WPA2+WPA<br><b>AP:</b> 4<br>]]></description>
      <Point>
        <coordinates>-75.6199449,38.6561768,0</coordinates>
      </Point>
    </Placemark>
    <Placemark>
      <name>University Of Delaware - Hotspots</name>
      <description><![CDATA[<b>Name:</b> Selbyville Public Library<br><b>Address:</b> , <br><b>SSID:</b> eduroam<br><b>Enc:</b> WPA2+WPA<br><b>AP:</b> 4<br>]]></description>
      <Point>
        <coordinates>-75.2208513,38.4591715,0</coordinates>
      </Point>
    </Placemark>
    <Placemark>
      <name>University Of Delaware - Hotspots</name>
      <description><![CDATA[<b>Name:</b> Smyrna Public Library<br><b>Address:</b> , <br><b>SSID:</b> eduroam<br><b>Enc:</b> WPA2+WPA<br><b>AP:</b> 4<br>]]></description>
      <Point>
        <coordinates>-75.6079193,39.3016598,0</coordinates>
      </Point>
    </Placemark>
    <Placemark>
      <name>University Of Delaware - Hotspots</name>
      <description><![CDATA[<b>Name:</b> South Coastal Public Library<br><b>Address:</b> , <br><b>SSID:</b> eduroam<br><b>Enc:</b> WPA2+WPA<br><b>AP:</b> 6<br>]]></description>
      <Point>
        <coordinates>-75.06283,38.53542,0</coordinates>
      </Point>
    </Placemark>
    <Placemark>
      <name>University Of Delaware - Hotspots</name>
      <description><![CDATA[<b>Name:</b> Wilmington Public Library<br><b>Address:</b> , <br><b>SSID:</b> eduroam<br><b>Enc:</b> WPA2+WPA<br><b>AP:</b> 6<br>]]></description>
      <Point>
        <coordinates>-75.5432088,39.7436571,0</coordinates>
      </Point>
    </Placemark>
    <Placemark>
      <name>University Of Delaware - Hotspots</name>
      <description><![CDATA[<b>Name:</b> Wilmington Public Library North Branch<br><b>Address:</b> , <br><b>SSID:</b> eduroam<br><b>Enc:</b> WPA2+WPA<br><b>AP:</b> 4<br>]]></description>
      <Point>
        <coordinates>-75.5271923,39.7580691,0</coordinates>
      </Point>
    </Placemark>
    <Placemark>
      <name>University Of Delaware - Hotspots</name>
      <description><![CDATA[<b>Name:</b> Woodbridge District Office<br><b>Address:</b> , <br><b>SSID:</b> eduroam<br><b>Enc:</b> WPA2+WPA<br><b>AP:</b> 2<br>]]></description>
      <Point>
        <coordinates>-75.5933549,38.7589952,0</coordinates>
      </Point>
    </Placemark>
    <Placemark>
      <name>University Of Delaware - Hotspots</name>
      <description><![CDATA[<b>Name:</b> Woodbridge Middle School<br><b>Address:</b> , <br><b>SSID:</b> eduroam<br><b>Enc:</b> WPA2+WPA<br><b>AP:</b> 2<br>]]></description>
      <Point>
        <coordinates>-75.6007125,38.7395424,0</coordinates>
      </Point>
    </Placemark>
    <Placemark>
      <name>University Of Delaware - Hotspots</name>
      <description><![CDATA[<b>Name:</b> Woodlawn Public Library<br><b>Address:</b> , <br><b>SSID:</b> eduroam<br><b>Enc:</b> WPA2+WPA<br><b>AP:</b> 4<br>]]></description>
      <Point>
        <coordinates>-75.5717688,39.7537972,0</coordinates>
      </Point>
    </Placemark>
    <Placemark>
      <name>Widener University</name>
      <description><![CDATA[<b>Name:</b> Delaware Law School<br><b>Address:</b> , <br><b>SSID:</b> eduroam<br><b>Enc:</b> WPA2+WPA<br><b>AP:</b> -<br>]]></description>
      <Point>
        <coordinates>-75.5460366,39.8173406,0</coordinates>
      </Point>
    </Placemark>
  </Document>
</kml>
