<?xml version="1.0" encoding="UTF-8"?>
<kml xmlns="http://www.opengis.net/kml/2.2">
  <Document>
    <name>eduroam — Maine</name>
    <description><![CDATA[19 eduroam service locations in Maine.<br><br>Published by <a href="https://scs.nevada.edu/eduroam">NSHE System Computing Services</a>. Learn more about eduroam Support Organizations from <a href="https://incommon.org/eduroam">Internet2</a>, the eduroam National Roaming Operator for the United States.<br>These maps are derived from data published by GÉANT (<a href="https://monitor.eduroam.org/kml/us.kml">monitor.eduroam.org</a>). This is not an official GÉANT or eduroam publication.<br>eduroam is a registered trademark of the GÉANT Association.<br>Region boundaries are derived from US Census Bureau cartographic boundary files, which as works of the US federal government are in the public domain.<br>Maps generated by eduroam-us-regional-maps, which is BSD 3-Clause licensed.]]></description>
    <open>1</open>
    <Placemark>
      <name>Bates College</name>
      <description><![CDATA[<b>Name:</b> Lewiston Campus<br><b>Address:</b> , <br><b>SSID:</b> eduroam<br><b>Enc:</b> WPA2+WPA<br><b>AP:</b> 1260<br>]]></description>
      <Point>
        <coordinates>-70.2024271,44.1055287,0</coordinates>
      </Point>
    </Placemark>
    <Placemark>
      <name>Bowdoin College</name>
      <description><![CDATA[<b>Name:</b> Main Campus<br><b>Address:</b> , <br><b>SSID:</b> eduroam<br><b>Enc:</b> WPA2+WPA<br><b>AP:</b> 569<br>]]></description>
      <Point>
        <coordinates>-69.9652367,43.907011,0</coordinates>
      </Point>
    </Placemark>
    <Placemark>
      <name>Colby College</name>
      <description><![CDATA[<b>Name:</b> Colby College<br><b>Address:</b> , <br><b>SSID:</b> eduroam<br><b>Enc:</b> WPA2+WPA<br><b>AP:</b> -<br>]]></description>
      <Point>
        <coordinates>-69.6620974,44.563971,0</coordinates>
      </Point>
    </Placemark>
    <Placemark>
      <name>Department of Veterans Affairs</name>
      <description><![CDATA[<b>Name:</b> Togus VA Medical Center<br><b>Address:</b> , <br><b>SSID:</b> eduroam<br><b>Enc:</b> WPA2<br><b>AP:</b> -<br>]]></description>
      <Point>
        <coordinates>-69.70379,44.27895,0</coordinates>
      </Point>
    </Placemark>
    <Placemark>
      <name>Maine Community College System</name>
      <description><![CDATA[<b>Name:</b> MCCS Office<br><b>Address:</b> , <br><b>SSID:</b> eduroam<br><b>Enc:</b> WPA2+WPA<br><b>AP:</b> 6<br>]]></description>
      <Point>
        <coordinates>-70.4506446,43.6821455,0</coordinates>
      </Point>
    </Placemark>
    <Placemark>
      <name>MDI Biological Laboratory</name>
      <description><![CDATA[<b>Name:</b> MDI Biological Laboratory<br><b>Address:</b> , <br><b>SSID:</b> eduroam<br><b>Enc:</b> WPA2<br><b>AP:</b> 48<br>]]></description>
      <Point>
        <coordinates>-68.290329,44.4320944,0</coordinates>
      </Point>
    </Placemark>
    <Placemark>
      <name>Southern Maine Community College</name>
      <description><![CDATA[<b>Name:</b> Brunswick Campus<br><b>Address:</b> , <br><b>SSID:</b> eduroam<br><b>Enc:</b> WPA2+WPA<br><b>AP:</b> 100<br>]]></description>
      <Point>
        <coordinates>-69.9247285,43.8982633,0</coordinates>
      </Point>
    </Placemark>
    <Placemark>
      <name>The Jackson Laboratory</name>
      <description><![CDATA[<b>Name:</b> Augutsa<br><b>Address:</b> , <br><b>SSID:</b> eduroam<br><b>Enc:</b> WPA2<br><b>AP:</b> 5<br>]]></description>
      <Point>
        <coordinates>-69.7850136,44.3634748,0</coordinates>
      </Point>
    </Placemark>
    <Placemark>
      <name>The Jackson Laboratory</name>
      <description><![CDATA[<b>Name:</b> Bar Harbor<br><b>Address:</b> , <br><b>SSID:</b> eduroam<br><b>Enc:</b> WPA2<br><b>AP:</b> 300<br>]]></description>
      <Point>
        <coordinates>-68.1951534,44.3656776,0</coordinates>
      </Point>
    </Placemark>
    <Placemark>
      <name>The Jackson Laboratory</name>
      <description><![CDATA[<b>Name:</b> Ellsworth<br><b>Address:</b> , <br><b>SSID:</b> eduroam<br><b>Enc:</b> WPA2<br><b>AP:</b> 130<br>]]></description>
      <Point>
        <coordinates>-68.399582,44.5207385,0</coordinates>
      </Point>
    </Placemark>
    <Placemark>
      <name>University of Maine System</name>
      <description><![CDATA[<b>Name:</b> University of Maine<br><b>Address:</b> , <br><b>SSID:</b> eduroam<br><b>Enc:</b> WPA2<br><b>AP:</b> 1694<br>]]></description>
      <Point>
        <coordinates>-68.6704213,44.899935,0</coordinates>
      </Point>
    </Placemark>
    <Placemark>
      <name>University of Maine System</name>
      <description><![CDATA[<b>Name:</b> University of Maine at Augusta<br><b>Address:</b> , <br><b>SSID:</b> eduroam<br><b>Enc:</b> WPA2<br><b>AP:</b> 101<br>]]></description>
      <Point>
        <coordinates>-69.7961137,44.337733,0</coordinates>
      </Point>
    </Placemark>
    <Placemark>
      <name>University of Maine System</name>
      <description><![CDATA[<b>Name:</b> University of Maine at Augusta Bangor Campus<br><b>Address:</b> , <br><b>SSID:</b> eduroam<br><b>Enc:</b> WPA2<br><b>AP:</b> 80<br>]]></description>
      <Point>
        <coordinates>-68.8019059,44.8083022,0</coordinates>
      </Point>
    </Placemark>
    <Placemark>
      <name>University of Maine System</name>
      <description><![CDATA[<b>Name:</b> University of Maine at Farmington<br><b>Address:</b> , <br><b>SSID:</b> eduroam<br><b>Enc:</b> WPA2<br><b>AP:</b> 403<br>]]></description>
      <Point>
        <coordinates>-70.1468503,44.6687484,0</coordinates>
      </Point>
    </Placemark>
    <Placemark>
      <name>University of Maine System</name>
      <description><![CDATA[<b>Name:</b> University of Maine at Fort Kent<br><b>Address:</b> , <br><b>SSID:</b> eduroam<br><b>Enc:</b> WPA2<br><b>AP:</b> 107<br>]]></description>
      <Point>
        <coordinates>-68.5893628,47.2503875,0</coordinates>
      </Point>
    </Placemark>
    <Placemark>
      <name>University of Maine System</name>
      <description><![CDATA[<b>Name:</b> University of Maine at Machias<br><b>Address:</b> , <br><b>SSID:</b> eduroam<br><b>Enc:</b> WPA2<br><b>AP:</b> 171<br>]]></description>
      <Point>
        <coordinates>-67.4578909,44.7108572,0</coordinates>
      </Point>
    </Placemark>
    <Placemark>
      <name>University of Maine System</name>
      <description><![CDATA[<b>Name:</b> University of Maine at Presque Isle<br><b>Address:</b> , <br><b>SSID:</b> eduroam<br><b>Enc:</b> WPA2<br><b>AP:</b> 160<br>]]></description>
      <Point>
        <coordinates>-68.016321,46.6722324,0</coordinates>
      </Point>
    </Placemark>
    <Placemark>
      <name>University of Maine System</name>
      <description><![CDATA[<b>Name:</b> University of Southern Maine Gorham Campus<br><b>Address:</b> , <br><b>SSID:</b> eduroam<br><b>Enc:</b> WPA2<br><b>AP:</b> 451<br>]]></description>
      <Point>
        <coordinates>-70.4486634,43.6824411,0</coordinates>
      </Point>
    </Placemark>
    <Placemark>
      <name>University of Maine System</name>
      <description><![CDATA[<b>Name:</b> University of Southern Maine Portland Campus<br><b>Address:</b> , <br><b>SSID:</b> eduroam<br><b>Enc:</b> WPA2<br><b>AP:</b> 292<br>]]></description>
      <Point>
        <coordinates>-70.2752672,43.6618444,0</coordinates>
      </Point>
    </Placemark>
  </Document>
</kml>
