<?xml version="1.0" encoding="UTF-8"?>
<kml xmlns="http://www.opengis.net/kml/2.2">
  <Document>
    <name>eduroam — Kansas</name>
    <description><![CDATA[12 eduroam service locations in Kansas.<br><br>Published by <a href="https://scs.nevada.edu/eduroam">NSHE System Computing Services</a>. Learn more about eduroam Support Organizations from <a href="https://incommon.org/eduroam">Internet2</a>, the eduroam National Roaming Operator for the United States.<br>Service location data comes from the eduroam location database published by GÉANT (<a href="https://monitor.eduroam.org/kml/us.kml">monitor.eduroam.org</a>). These maps are derived from it and are not an official GÉANT or eduroam publication.<br>eduroam is a registered trademark of GÉANT Vereniging.<br>Region boundaries are derived from US Census Bureau cartographic boundary files, which as works of the US federal government are in the public domain.<br>Maps generated by eduroam-us-regional-maps, which is BSD 3-Clause licensed.]]></description>
    <open>1</open>
    <Placemark>
      <name>Department of Veterans Affairs</name>
      <description><![CDATA[<b>Name:</b> Johnson County/Lenexa CBOC<br><b>Address:</b> , <br><b>SSID:</b> eduroam<br><b>Enc:</b> WPA2<br><b>AP:</b> -<br>]]></description>
      <Point>
        <coordinates>-94.76521,38.92318,0</coordinates>
      </Point>
    </Placemark>
    <Placemark>
      <name>Department of Veterans Affairs</name>
      <description><![CDATA[<b>Name:</b> Overland CBOC<br><b>Address:</b> , <br><b>SSID:</b> eduroam<br><b>Enc:</b> WPA2<br><b>AP:</b> -<br>]]></description>
      <Point>
        <coordinates>-94.70284,38.93833,0</coordinates>
      </Point>
    </Placemark>
    <Placemark>
      <name>Department of Veterans Affairs</name>
      <description><![CDATA[<b>Name:</b> Paola CBOC<br><b>Address:</b> , <br><b>SSID:</b> eduroam<br><b>Enc:</b> WPA2<br><b>AP:</b> -<br>]]></description>
      <Point>
        <coordinates>-94.85743,38.57381,0</coordinates>
      </Point>
    </Placemark>
    <Placemark>
      <name>Department of Veterans Affairs</name>
      <description><![CDATA[<b>Name:</b> Shawnee CBOC<br><b>Address:</b> , <br><b>SSID:</b> eduroam<br><b>Enc:</b> WPA2<br><b>AP:</b> -<br>]]></description>
      <Point>
        <coordinates>-94.84905,39.00542,0</coordinates>
      </Point>
    </Placemark>
    <Placemark>
      <name>Kansas Research and Education Network</name>
      <description><![CDATA[<b>Name:</b> BTBC Building<br><b>Address:</b> , <br><b>SSID:</b> eduroam<br><b>Enc:</b> WPA2<br><b>AP:</b> 42<br>]]></description>
      <Point>
        <coordinates>-95.2670512,38.9484419,0</coordinates>
      </Point>
    </Placemark>
    <Placemark>
      <name>Kansas State University</name>
      <description><![CDATA[<b>Name:</b> Main Campus<br><b>Address:</b> , <br><b>SSID:</b> eduroam<br><b>Enc:</b> WPA2+WPA<br><b>AP:</b> -<br>]]></description>
      <Point>
        <coordinates>-96.5854965,39.196142,0</coordinates>
      </Point>
    </Placemark>
    <Placemark>
      <name>Manhattan Area Technical College</name>
      <description><![CDATA[<b>Name:</b> Manhattan Area Technical College Main Campus<br><b>Address:</b> , <br><b>SSID:</b> eduroam<br><b>Enc:</b> WPA3<br><b>AP:</b> 40<br>]]></description>
      <Point>
        <coordinates>-96.6150515,39.1972284,0</coordinates>
      </Point>
    </Placemark>
    <Placemark>
      <name>Manhattan Area Technical College</name>
      <description><![CDATA[<b>Name:</b> Manhattan Area Technical College Wamego Center<br><b>Address:</b> , <br><b>SSID:</b> eduroam<br><b>Enc:</b> WPA3<br><b>AP:</b> 4<br>]]></description>
      <Point>
        <coordinates>-96.3035803,39.2110218,0</coordinates>
      </Point>
    </Placemark>
    <Placemark>
      <name>The University of Kansas</name>
      <description><![CDATA[<b>Name:</b> KU Lawrence Campus<br><b>Address:</b> , <br><b>SSID:</b> eduroam<br><b>Enc:</b> WPA2+WPA<br><b>AP:</b> -<br>]]></description>
      <Point>
        <coordinates>-95.2466918,38.9548498,0</coordinates>
      </Point>
    </Placemark>
    <Placemark>
      <name>The University of Kansas</name>
      <description><![CDATA[<b>Name:</b> KUMC Kansas City Campus<br><b>Address:</b> , <br><b>SSID:</b> eduroam<br><b>Enc:</b> WPA2+WPA<br><b>AP:</b> -<br>]]></description>
      <Point>
        <coordinates>-94.6105637,39.0584341,0</coordinates>
      </Point>
    </Placemark>
    <Placemark>
      <name>Washburn University</name>
      <description><![CDATA[<b>Name:</b> Washburn University Main Campus<br><b>Address:</b> , <br><b>SSID:</b> eduroam<br><b>Enc:</b> WPA2<br><b>AP:</b> -<br>]]></description>
      <Point>
        <coordinates>-95.6996314,39.0357822,0</coordinates>
      </Point>
    </Placemark>
    <Placemark>
      <name>Wichita State University</name>
      <description><![CDATA[<b>Name:</b> Wichita State University<br><b>Address:</b> , <br><b>SSID:</b> eduroam<br><b>Enc:</b> WPA2<br><b>AP:</b> 50<br>]]></description>
      <Point>
        <coordinates>-97.2935987,37.7193626,0</coordinates>
      </Point>
    </Placemark>
  </Document>
</kml>
