<?xml version="1.0" encoding="UTF-8"?>
<kml xmlns="http://www.opengis.net/kml/2.2">
  <Document>
    <name>eduroam — Florida</name>
    <description><![CDATA[135 eduroam service locations in Florida.<br><br>Published by <a href="https://scs.nevada.edu/eduroam">NSHE System Computing Services</a>. Learn more about eduroam Support Organizations from <a href="https://incommon.org/eduroam">Internet2</a>, the eduroam National Roaming Operator for the United States.<br>These maps are derived from data published by GÉANT (<a href="https://monitor.eduroam.org/kml/us.kml">monitor.eduroam.org</a>). This is not an official GÉANT or eduroam publication.<br>eduroam is a registered trademark of the GÉANT Association.<br>Region boundaries are derived from US Census Bureau cartographic boundary files, which as works of the US federal government are in the public domain.<br>Maps generated by eduroam-us-regional-maps, which is BSD 3-Clause licensed.]]></description>
    <open>1</open>
    <Placemark>
      <name>Babson College</name>
      <description><![CDATA[<b>Name:</b> Miami Campus - Miami<br><b>Address:</b> , <br><b>SSID:</b> eduroam<br><b>Enc:</b> WPA2<br><b>AP:</b> -<br>]]></description>
      <Point>
        <coordinates>-80.1923449,25.7619992,0</coordinates>
      </Point>
    </Placemark>
    <Placemark>
      <name>City of Gainesville</name>
      <description><![CDATA[<b>Name:</b> Bus01 - 2022<br><b>Address:</b> , <br><b>SSID:</b> eduroam<br><b>Enc:</b> WPA3+WPA2+WPA<br><b>AP:</b> 1<br>]]></description>
      <Point>
        <coordinates>-82.3327054,29.651538,0</coordinates>
      </Point>
    </Placemark>
    <Placemark>
      <name>Department of Veterans Affairs</name>
      <description><![CDATA[<b>Name:</b> Jacksonville Domiciliary<br><b>Address:</b> , <br><b>SSID:</b> eduroam<br><b>Enc:</b> WPA2<br><b>AP:</b> -<br>]]></description>
      <Point>
        <coordinates>-81.6287247,30.4932086,0</coordinates>
      </Point>
    </Placemark>
    <Placemark>
      <name>Eckerd College</name>
      <description><![CDATA[<b>Name:</b> Eckerd College Main Campus<br><b>Address:</b> , <br><b>SSID:</b> eduroam<br><b>Enc:</b> WPA2<br><b>AP:</b> 243<br>]]></description>
      <Point>
        <coordinates>-82.6875364,27.7100919,0</coordinates>
      </Point>
    </Placemark>
    <Placemark>
      <name>Embry-Riddle Aeronautical University</name>
      <description><![CDATA[<b>Name:</b> Embry Riddle Aeronautical University<br><b>Address:</b> , <br><b>SSID:</b> eduroam<br><b>Enc:</b> WPA2+WPA<br><b>AP:</b> -<br>]]></description>
      <Point>
        <coordinates>-81.0499906,29.1872636,0</coordinates>
      </Point>
    </Placemark>
    <Placemark>
      <name>Flagler College</name>
      <description><![CDATA[<b>Name:</b> Flagler College<br><b>Address:</b> , <br><b>SSID:</b> eduroam<br><b>Enc:</b> WPA2 + WPA3<br><b>AP:</b> 915<br>]]></description>
      <Point>
        <coordinates>-81.3149756,29.8930524,0</coordinates>
      </Point>
    </Placemark>
    <Placemark>
      <name>Florida Agricultural and Mechanical University</name>
      <description><![CDATA[<b>Name:</b> Main Campus<br><b>Address:</b> , <br><b>SSID:</b> eduroam<br><b>Enc:</b> WPA2<br><b>AP:</b> -<br>]]></description>
      <Point>
        <coordinates>-84.2871844,30.4217524,0</coordinates>
      </Point>
    </Placemark>
    <Placemark>
      <name>Florida Atlantic University</name>
      <description><![CDATA[<b>Name:</b> Florida Atlantic University<br><b>Address:</b> , <br><b>SSID:</b> eduroam<br><b>Enc:</b> WPA2+WPA<br><b>AP:</b> 1200<br>]]></description>
      <Point>
        <coordinates>-80.1037721,26.3767589,0</coordinates>
      </Point>
    </Placemark>
    <Placemark>
      <name>Florida Gulf Coast University</name>
      <description><![CDATA[<b>Name:</b> Florida Gulf Coast University<br><b>Address:</b> , <br><b>SSID:</b> eduroam<br><b>Enc:</b> WPA2+WPA<br><b>AP:</b> 800<br>]]></description>
      <Point>
        <coordinates>-81.7733903,26.4643209,0</coordinates>
      </Point>
    </Placemark>
    <Placemark>
      <name>Florida Institute of Technology</name>
      <description><![CDATA[<b>Name:</b> Main Campus<br><b>Address:</b> , <br><b>SSID:</b> eduroam<br><b>Enc:</b> WPA2+WPA<br><b>AP:</b> 3250<br>]]></description>
      <Point>
        <coordinates>-80.623022,28.0646888,0</coordinates>
      </Point>
    </Placemark>
    <Placemark>
      <name>Florida International University</name>
      <description><![CDATA[<b>Name:</b> Main Campus<br><b>Address:</b> , <br><b>SSID:</b> eduroam<br><b>Enc:</b> WPA2+WPA<br><b>AP:</b> -<br>]]></description>
      <Point>
        <coordinates>-80.3760737,25.7574076,0</coordinates>
      </Point>
    </Placemark>
    <Placemark>
      <name>Florida International University</name>
      <description><![CDATA[<b>Name:</b> Panama City Campus<br><b>Address:</b> , <br><b>SSID:</b> eduroam<br><b>Enc:</b> WPA2<br><b>AP:</b> -<br>]]></description>
      <Point>
        <coordinates>-85.7232847,30.1893375,0</coordinates>
      </Point>
    </Placemark>
    <Placemark>
      <name>Florida Polytechnic University</name>
      <description><![CDATA[<b>Name:</b> Florida Polytechnic University<br><b>Address:</b> , <br><b>SSID:</b> eduroam<br><b>Enc:</b> WPA2<br><b>AP:</b> 180<br>]]></description>
      <Point>
        <coordinates>-81.8483545,28.1480016,0</coordinates>
      </Point>
    </Placemark>
    <Placemark>
      <name>Florida State University</name>
      <description><![CDATA[<b>Name:</b> Main Campus<br><b>Address:</b> , <br><b>SSID:</b> eduroam<br><b>Enc:</b> WPA2<br><b>AP:</b> 7000<br>]]></description>
      <Point>
        <coordinates>-84.2949798,30.4430585,0</coordinates>
      </Point>
    </Placemark>
    <Placemark>
      <name>Florida State University</name>
      <description><![CDATA[<b>Name:</b> Panama City Campus<br><b>Address:</b> , <br><b>SSID:</b> eduroam<br><b>Enc:</b> WPA2<br><b>AP:</b> 75<br>]]></description>
      <Point>
        <coordinates>-85.7226726,30.1891872,0</coordinates>
      </Point>
    </Placemark>
    <Placemark>
      <name>Florida State University</name>
      <description><![CDATA[<b>Name:</b> Torchlight Studios<br><b>Address:</b> , <br><b>SSID:</b> eduroam<br><b>Enc:</b> WPA2<br><b>AP:</b> 5<br>]]></description>
      <Point>
        <coordinates>-84.4228879,30.4915894,0</coordinates>
      </Point>
    </Placemark>
    <Placemark>
      <name>Hillsborough Community College</name>
      <description><![CDATA[<b>Name:</b> Autobody Campus<br><b>Address:</b> , <br><b>SSID:</b> eduroam<br><b>Enc:</b> WPA2<br><b>AP:</b> -<br>]]></description>
      <Point>
        <coordinates>-82.3919158,27.9676452,0</coordinates>
      </Point>
    </Placemark>
    <Placemark>
      <name>Hillsborough Community College</name>
      <description><![CDATA[<b>Name:</b> Brandon Campus<br><b>Address:</b> , <br><b>SSID:</b> eduroam<br><b>Enc:</b> WPA2<br><b>AP:</b> -<br>]]></description>
      <Point>
        <coordinates>-82.3288687,27.9691854,0</coordinates>
      </Point>
    </Placemark>
    <Placemark>
      <name>Hillsborough Community College</name>
      <description><![CDATA[<b>Name:</b> Dale Mabry Campus<br><b>Address:</b> , <br><b>SSID:</b> eduroam<br><b>Enc:</b> WPA2<br><b>AP:</b> -<br>]]></description>
      <Point>
        <coordinates>-82.5092816,27.9761759,0</coordinates>
      </Point>
    </Placemark>
    <Placemark>
      <name>Hillsborough Community College</name>
      <description><![CDATA[<b>Name:</b> MacDill Campus<br><b>Address:</b> , <br><b>SSID:</b> eduroam<br><b>Enc:</b> WPA2<br><b>AP:</b> -<br>]]></description>
      <Point>
        <coordinates>-82.4894468,27.8504727,0</coordinates>
      </Point>
    </Placemark>
    <Placemark>
      <name>Hillsborough Community College</name>
      <description><![CDATA[<b>Name:</b> Plant City Campus<br><b>Address:</b> , <br><b>SSID:</b> eduroam<br><b>Enc:</b> WPA2<br><b>AP:</b> -<br>]]></description>
      <Point>
        <coordinates>-82.1030339,28.0260852,0</coordinates>
      </Point>
    </Placemark>
    <Placemark>
      <name>Hillsborough Community College</name>
      <description><![CDATA[<b>Name:</b> Regent Campus<br><b>Address:</b> , <br><b>SSID:</b> eduroam<br><b>Enc:</b> WPA2<br><b>AP:</b> -<br>]]></description>
      <Point>
        <coordinates>-82.31123,27.8869692,0</coordinates>
      </Point>
    </Placemark>
    <Placemark>
      <name>Hillsborough Community College</name>
      <description><![CDATA[<b>Name:</b> Southshore Campus<br><b>Address:</b> , <br><b>SSID:</b> eduroam<br><b>Enc:</b> WPA2<br><b>AP:</b> -<br>]]></description>
      <Point>
        <coordinates>-82.3997602,27.7224165,0</coordinates>
      </Point>
    </Placemark>
    <Placemark>
      <name>Hillsborough Community College</name>
      <description><![CDATA[<b>Name:</b> Ybor City Campus<br><b>Address:</b> , <br><b>SSID:</b> eduroam<br><b>Enc:</b> WPA2<br><b>AP:</b> -<br>]]></description>
      <Point>
        <coordinates>-82.4432839,27.9630091,0</coordinates>
      </Point>
    </Placemark>
    <Placemark>
      <name>Max Planck Florida Institute for Neuroscience</name>
      <description><![CDATA[<b>Name:</b> Max Planck Florida Institute<br><b>Address:</b> , <br><b>SSID:</b> eduroam<br><b>Enc:</b> WPA2+WPA<br><b>AP:</b> 1<br>]]></description>
      <Point>
        <coordinates>-80.1148608,26.8838272,0</coordinates>
      </Point>
    </Placemark>
    <Placemark>
      <name>Moss Creek</name>
      <description><![CDATA[<b>Name:</b> Sarasota<br><b>Address:</b> , <br><b>SSID:</b> eduroam<br><b>Enc:</b> WPA2+WPA<br><b>AP:</b> 1<br>]]></description>
      <Point>
        <coordinates>-82.513362,27.4458113,0</coordinates>
      </Point>
    </Placemark>
    <Placemark>
      <name>New College of Florida</name>
      <description><![CDATA[<b>Name:</b> New College of Florida - Caples Fine Arts Sainer Auditorium<br><b>Address:</b> , <br><b>SSID:</b> eduroam<br><b>Enc:</b> WPA2<br><b>AP:</b> -<br>]]></description>
      <Point>
        <coordinates>-82.560135,27.3803824,0</coordinates>
      </Point>
    </Placemark>
    <Placemark>
      <name>New College of Florida</name>
      <description><![CDATA[<b>Name:</b> New College of Florida - Library<br><b>Address:</b> , <br><b>SSID:</b> eduroam<br><b>Enc:</b> WPA2<br><b>AP:</b> 376<br>]]></description>
      <Point>
        <coordinates>-82.5586785,27.3856836,0</coordinates>
      </Point>
    </Placemark>
    <Placemark>
      <name>New College of Florida</name>
      <description><![CDATA[<b>Name:</b> New College of Florida - Sudakoff Conference Center<br><b>Address:</b> , <br><b>SSID:</b> eduroam<br><b>Enc:</b> WPA2<br><b>AP:</b> -<br>]]></description>
      <Point>
        <coordinates>-82.5566737,27.3841683,0</coordinates>
      </Point>
    </Placemark>
    <Placemark>
      <name>Palm Beach State College</name>
      <description><![CDATA[<b>Name:</b> PBSC Belle Glade<br><b>Address:</b> , <br><b>SSID:</b> eduroam<br><b>Enc:</b> WPA2+WPA<br><b>AP:</b> -<br>]]></description>
      <Point>
        <coordinates>-80.688931,26.676403,0</coordinates>
      </Point>
    </Placemark>
    <Placemark>
      <name>Palm Beach State College</name>
      <description><![CDATA[<b>Name:</b> PBSC Boca Raton<br><b>Address:</b> , <br><b>SSID:</b> eduroam<br><b>Enc:</b> WPA2+WPA<br><b>AP:</b> -<br>]]></description>
      <Point>
        <coordinates>-80.0989044,26.376297,0</coordinates>
      </Point>
    </Placemark>
    <Placemark>
      <name>Palm Beach State College</name>
      <description><![CDATA[<b>Name:</b> PBSC Lake Worth<br><b>Address:</b> , <br><b>SSID:</b> eduroam<br><b>Enc:</b> WPA2+WPA<br><b>AP:</b> -<br>]]></description>
      <Point>
        <coordinates>-80.0871804,26.6118325,0</coordinates>
      </Point>
    </Placemark>
    <Placemark>
      <name>Palm Beach State College</name>
      <description><![CDATA[<b>Name:</b> PBSC Loxahatchee Groves<br><b>Address:</b> , <br><b>SSID:</b> eduroam<br><b>Enc:</b> WPA2+WPA<br><b>AP:</b> -<br>]]></description>
      <Point>
        <coordinates>-80.2984592,26.6833743,0</coordinates>
      </Point>
    </Placemark>
    <Placemark>
      <name>Palm Beach State College</name>
      <description><![CDATA[<b>Name:</b> PBSC Palm Beach Gardens<br><b>Address:</b> , <br><b>SSID:</b> eduroam<br><b>Enc:</b> WPA2+WPA<br><b>AP:</b> -<br>]]></description>
      <Point>
        <coordinates>-80.0797185,26.8413114,0</coordinates>
      </Point>
    </Placemark>
    <Placemark>
      <name>Ringling College of Art and Design</name>
      <description><![CDATA[<b>Name:</b> Main Campus<br><b>Address:</b> , <br><b>SSID:</b> eduroam<br><b>Enc:</b> WPA2<br><b>AP:</b> -<br>]]></description>
      <Point>
        <coordinates>-82.5487542,27.360496,0</coordinates>
      </Point>
    </Placemark>
    <Placemark>
      <name>Ringling College of Art and Design</name>
      <description><![CDATA[<b>Name:</b> Museum Campus<br><b>Address:</b> , <br><b>SSID:</b> eduroam<br><b>Enc:</b> WPA2<br><b>AP:</b> -<br>]]></description>
      <Point>
        <coordinates>-82.5291935,27.3256514,0</coordinates>
      </Point>
    </Placemark>
    <Placemark>
      <name>Seminole State College of Florida</name>
      <description><![CDATA[<b>Name:</b> Seminole State College Altamonte Campus<br><b>Address:</b> , <br><b>SSID:</b> eduroam<br><b>Enc:</b> WPA2<br><b>AP:</b> 52<br>]]></description>
      <Point>
        <coordinates>-81.415879,28.6480809,0</coordinates>
      </Point>
    </Placemark>
    <Placemark>
      <name>Seminole State College of Florida</name>
      <description><![CDATA[<b>Name:</b> Seminole State College Heathrow Campus<br><b>Address:</b> , <br><b>SSID:</b> eduroam<br><b>Enc:</b> WPA2<br><b>AP:</b> 27<br>]]></description>
      <Point>
        <coordinates>-81.3618625,28.7738336,0</coordinates>
      </Point>
    </Placemark>
    <Placemark>
      <name>Seminole State College of Florida</name>
      <description><![CDATA[<b>Name:</b> Seminole State College Robert and Jane Lee Campus at Oviedo<br><b>Address:</b> , <br><b>SSID:</b> eduroam<br><b>Enc:</b> WPA2<br><b>AP:</b> 37<br>]]></description>
      <Point>
        <coordinates>-81.1706155,28.6311958,0</coordinates>
      </Point>
    </Placemark>
    <Placemark>
      <name>Seminole State College of Florida</name>
      <description><![CDATA[<b>Name:</b> Seminole State College Sanford Lake Mary Campus<br><b>Address:</b> , <br><b>SSID:</b> eduroam<br><b>Enc:</b> WPA2<br><b>AP:</b> 273<br>]]></description>
      <Point>
        <coordinates>-81.3105152,28.7473664,0</coordinates>
      </Point>
    </Placemark>
    <Placemark>
      <name>Stetson University</name>
      <description><![CDATA[<b>Name:</b> Stetson University College of Law - Gulfport<br><b>Address:</b> , <br><b>SSID:</b> eduroam<br><b>Enc:</b> WPA2<br><b>AP:</b> 100<br>]]></description>
      <Point>
        <coordinates>-82.4614278,27.9587839,0</coordinates>
      </Point>
    </Placemark>
    <Placemark>
      <name>The Jackson Laboratory</name>
      <description><![CDATA[<b>Name:</b> Gainesville<br><b>Address:</b> , <br><b>SSID:</b> eduroam<br><b>Enc:</b> WPA2<br><b>AP:</b> 10<br>]]></description>
      <Point>
        <coordinates>-82.4779776,29.7724603,0</coordinates>
      </Point>
    </Placemark>
    <Placemark>
      <name>The University of West Florida</name>
      <description><![CDATA[<b>Name:</b> Pensacola Campus<br><b>Address:</b> , <br><b>SSID:</b> eduroam<br><b>Enc:</b> WPA2+WPA<br><b>AP:</b> 500<br>]]></description>
      <Point>
        <coordinates>-87.2184598,30.5491903,0</coordinates>
      </Point>
    </Placemark>
    <Placemark>
      <name>The University of West Florida</name>
      <description><![CDATA[<b>Name:</b> UWF Emerald Coast<br><b>Address:</b> , <br><b>SSID:</b> eduroam<br><b>Enc:</b> WPA2+WPA<br><b>AP:</b> 20<br>]]></description>
      <Point>
        <coordinates>-86.6530906,30.4533919,0</coordinates>
      </Point>
    </Placemark>
    <Placemark>
      <name>Thomas M. Cooley Law School</name>
      <description><![CDATA[<b>Name:</b> Tampa Campus<br><b>Address:</b> , <br><b>SSID:</b> eduroam<br><b>Enc:</b> WPA2<br><b>AP:</b> 58<br>]]></description>
      <Point>
        <coordinates>-82.3508143,27.9092524,0</coordinates>
      </Point>
    </Placemark>
    <Placemark>
      <name>University of Central Florida</name>
      <description><![CDATA[<b>Name:</b> University of Central Florida<br><b>Address:</b> , <br><b>SSID:</b> eduroam<br><b>Enc:</b> WPA2<br><b>AP:</b> 4100<br>]]></description>
      <Point>
        <coordinates>-81.2007381,28.6018894,0</coordinates>
      </Point>
    </Placemark>
    <Placemark>
      <name>University of Central Florida</name>
      <description><![CDATA[<b>Name:</b> University of Central Florida UCF<br><b>Address:</b> , <br><b>SSID:</b> eduroam<br><b>Enc:</b> WPA2+WPA<br><b>AP:</b> -<br>]]></description>
      <Point>
        <coordinates>-81.1972747,28.6068897,0</coordinates>
      </Point>
    </Placemark>
    <Placemark>
      <name>University of Florida</name>
      <description><![CDATA[<b>Name:</b> AUSTIN CARY FOREST LEARNING CENTER<br><b>Address:</b> , <br><b>SSID:</b> eduroam<br><b>Enc:</b> WPA2+WPA<br><b>AP:</b> 5<br>]]></description>
      <Point>
        <coordinates>-82.2183504,29.7524293,0</coordinates>
      </Point>
    </Placemark>
    <Placemark>
      <name>University of Florida</name>
      <description><![CDATA[<b>Name:</b> Biorefinery Pilot Plant<br><b>Address:</b> , <br><b>SSID:</b> eduroam<br><b>Enc:</b> WPA2+WPA<br><b>AP:</b> 2<br>]]></description>
      <Point>
        <coordinates>-83.5259556,30.0695881,0</coordinates>
      </Point>
    </Placemark>
    <Placemark>
      <name>University of Florida</name>
      <description><![CDATA[<b>Name:</b> Brevard County Extension Office<br><b>Address:</b> , <br><b>SSID:</b> eduroam<br><b>Enc:</b> WPA2+WPA<br><b>AP:</b> 3<br>]]></description>
      <Point>
        <coordinates>-80.7812759,28.3595092,0</coordinates>
      </Point>
    </Placemark>
    <Placemark>
      <name>University of Florida</name>
      <description><![CDATA[<b>Name:</b> Citrus Research and Education Center - CREC<br><b>Address:</b> , <br><b>SSID:</b> eduroam<br><b>Enc:</b> WPA2+WPA<br><b>AP:</b> 58<br>]]></description>
      <Point>
        <coordinates>-81.712078,28.102051,0</coordinates>
      </Point>
    </Placemark>
    <Placemark>
      <name>University of Florida</name>
      <description><![CDATA[<b>Name:</b> Collier Extension Office<br><b>Address:</b> , <br><b>SSID:</b> eduroam<br><b>Enc:</b> WPA2+WPA<br><b>AP:</b> 5<br>]]></description>
      <Point>
        <coordinates>-81.5934312,26.305736,0</coordinates>
      </Point>
    </Placemark>
    <Placemark>
      <name>University of Florida</name>
      <description><![CDATA[<b>Name:</b> Dade County Extension Office<br><b>Address:</b> , <br><b>SSID:</b> eduroam<br><b>Enc:</b> WPA2+WPA<br><b>AP:</b> 1<br>]]></description>
      <Point>
        <coordinates>-80.2797211,25.8248094,0</coordinates>
      </Point>
    </Placemark>
    <Placemark>
      <name>University of Florida</name>
      <description><![CDATA[<b>Name:</b> Dairy Research Unit<br><b>Address:</b> , <br><b>SSID:</b> eduroam<br><b>Enc:</b> WPA2+WPA<br><b>AP:</b> 5<br>]]></description>
      <Point>
        <coordinates>-82.414975,29.7851913,0</coordinates>
      </Point>
    </Placemark>
    <Placemark>
      <name>University of Florida</name>
      <description><![CDATA[<b>Name:</b> Duval County Extension Office<br><b>Address:</b> , <br><b>SSID:</b> eduroam<br><b>Enc:</b> WPA2+WPA<br><b>AP:</b> 2<br>]]></description>
      <Point>
        <coordinates>-81.7059511,30.3373301,0</coordinates>
      </Point>
    </Placemark>
    <Placemark>
      <name>University of Florida</name>
      <description><![CDATA[<b>Name:</b> East Campus<br><b>Address:</b> , <br><b>SSID:</b> eduroam<br><b>Enc:</b> WPA2+WPA<br><b>AP:</b> 21<br>]]></description>
      <Point>
        <coordinates>-82.2998882,29.6722152,0</coordinates>
      </Point>
    </Placemark>
    <Placemark>
      <name>University of Florida</name>
      <description><![CDATA[<b>Name:</b> Equine Sciences Center<br><b>Address:</b> , <br><b>SSID:</b> eduroam<br><b>Enc:</b> WPA2+WPA<br><b>AP:</b> 4<br>]]></description>
      <Point>
        <coordinates>-82.1674057,29.295982,0</coordinates>
      </Point>
    </Placemark>
    <Placemark>
      <name>University of Florida</name>
      <description><![CDATA[<b>Name:</b> Escambia County Extension Office<br><b>Address:</b> , <br><b>SSID:</b> eduroam<br><b>Enc:</b> WPA2+WPA<br><b>AP:</b> 4<br>]]></description>
      <Point>
        <coordinates>-87.29967,30.5427724,0</coordinates>
      </Point>
    </Placemark>
    <Placemark>
      <name>University of Florida</name>
      <description><![CDATA[<b>Name:</b> Everglades Research and Education Center - EREC<br><b>Address:</b> , <br><b>SSID:</b> eduroam<br><b>Enc:</b> WPA2+WPA<br><b>AP:</b> 11<br>]]></description>
      <Point>
        <coordinates>-80.6316907,26.6671342,0</coordinates>
      </Point>
    </Placemark>
    <Placemark>
      <name>University of Florida</name>
      <description><![CDATA[<b>Name:</b> Fisheries / Aquatic Weeds Research Center<br><b>Address:</b> , <br><b>SSID:</b> eduroam<br><b>Enc:</b> WPA2+WPA<br><b>AP:</b> 14<br>]]></description>
      <Point>
        <coordinates>-82.414267,29.724009,0</coordinates>
      </Point>
    </Placemark>
    <Placemark>
      <name>University of Florida</name>
      <description><![CDATA[<b>Name:</b> Florida Medical Entomology Lab - FMEL<br><b>Address:</b> , <br><b>SSID:</b> eduroam<br><b>Enc:</b> WPA2+WPA<br><b>AP:</b> 5<br>]]></description>
      <Point>
        <coordinates>-80.3734034,27.5873321,0</coordinates>
      </Point>
    </Placemark>
    <Placemark>
      <name>University of Florida</name>
      <description><![CDATA[<b>Name:</b> Florida Museum of Natural History Randell Research Center<br><b>Address:</b> , <br><b>SSID:</b> eduroam<br><b>Enc:</b> WPA2+WPA<br><b>AP:</b> 1<br>]]></description>
      <Point>
        <coordinates>-82.1470915,26.6570543,0</coordinates>
      </Point>
    </Placemark>
    <Placemark>
      <name>University of Florida</name>
      <description><![CDATA[<b>Name:</b> Fort Lauderdale Research and Education Center - FLREC<br><b>Address:</b> , <br><b>SSID:</b> eduroam<br><b>Enc:</b> WPA2+WPA<br><b>AP:</b> 20<br>]]></description>
      <Point>
        <coordinates>-80.2265545,26.0695412,0</coordinates>
      </Point>
    </Placemark>
    <Placemark>
      <name>University of Florida</name>
      <description><![CDATA[<b>Name:</b> Fort Pierce Research and Education Center - FPREC<br><b>Address:</b> , <br><b>SSID:</b> eduroam<br><b>Enc:</b> WPA2+WPA<br><b>AP:</b> 3<br>]]></description>
      <Point>
        <coordinates>-80.41145,27.4330659,0</coordinates>
      </Point>
    </Placemark>
    <Placemark>
      <name>University of Florida</name>
      <description><![CDATA[<b>Name:</b> Franklin County Extension Office<br><b>Address:</b> , <br><b>SSID:</b> eduroam<br><b>Enc:</b> WPA2+WPA<br><b>AP:</b> 1<br>]]></description>
      <Point>
        <coordinates>-84.9838842,29.7270859,0</coordinates>
      </Point>
    </Placemark>
    <Placemark>
      <name>University of Florida</name>
      <description><![CDATA[<b>Name:</b> Gadsden County Extension Office<br><b>Address:</b> , <br><b>SSID:</b> eduroam<br><b>Enc:</b> WPA2+WPA<br><b>AP:</b> 1<br>]]></description>
      <Point>
        <coordinates>-84.608216,30.586098,0</coordinates>
      </Point>
    </Placemark>
    <Placemark>
      <name>University of Florida</name>
      <description><![CDATA[<b>Name:</b> Gainesville Regional Airport<br><b>Address:</b> , <br><b>SSID:</b> eduroam<br><b>Enc:</b> WPA2+WPA<br><b>AP:</b> 3<br>]]></description>
      <Point>
        <coordinates>-82.2767723,29.6865475,0</coordinates>
      </Point>
    </Placemark>
    <Placemark>
      <name>University of Florida</name>
      <description><![CDATA[<b>Name:</b> Gainesville Regional Transit System<br><b>Address:</b> , <br><b>SSID:</b> eduroam<br><b>Enc:</b> WPA2+WPA<br><b>AP:</b> 1<br>]]></description>
      <Point>
        <coordinates>-82.3327904,29.6503349,0</coordinates>
      </Point>
    </Placemark>
    <Placemark>
      <name>University of Florida</name>
      <description><![CDATA[<b>Name:</b> Gilchrist County Extension Office<br><b>Address:</b> , <br><b>SSID:</b> eduroam<br><b>Enc:</b> WPA2+WPA<br><b>AP:</b> 1<br>]]></description>
      <Point>
        <coordinates>-82.817369,29.613656,0</coordinates>
      </Point>
    </Placemark>
    <Placemark>
      <name>University of Florida</name>
      <description><![CDATA[<b>Name:</b> Government House<br><b>Address:</b> , <br><b>SSID:</b> eduroam<br><b>Enc:</b> WPA2+WPA<br><b>AP:</b> 6<br>]]></description>
      <Point>
        <coordinates>-81.3130422,29.892329,0</coordinates>
      </Point>
    </Placemark>
    <Placemark>
      <name>University of Florida</name>
      <description><![CDATA[<b>Name:</b> Gulf Coast Research and Education Center - GCREC<br><b>Address:</b> , <br><b>SSID:</b> eduroam<br><b>Enc:</b> WPA2+WPA<br><b>AP:</b> 11<br>]]></description>
      <Point>
        <coordinates>-82.2276657,27.7611194,0</coordinates>
      </Point>
    </Placemark>
    <Placemark>
      <name>University of Florida</name>
      <description><![CDATA[<b>Name:</b> Gulf County Extension Office<br><b>Address:</b> , <br><b>SSID:</b> eduroam<br><b>Enc:</b> WPA2+WPA<br><b>AP:</b> 1<br>]]></description>
      <Point>
        <coordinates>-85.1983749,30.1147135,0</coordinates>
      </Point>
    </Placemark>
    <Placemark>
      <name>University of Florida</name>
      <description><![CDATA[<b>Name:</b> Hamilton County Extension Office<br><b>Address:</b> , <br><b>SSID:</b> eduroam<br><b>Enc:</b> WPA2+WPA<br><b>AP:</b> 2<br>]]></description>
      <Point>
        <coordinates>-82.9462149,30.5128841,0</coordinates>
      </Point>
    </Placemark>
    <Placemark>
      <name>University of Florida</name>
      <description><![CDATA[<b>Name:</b> Hardee County Extension Office<br><b>Address:</b> , <br><b>SSID:</b> eduroam<br><b>Enc:</b> WPA2+WPA<br><b>AP:</b> 2<br>]]></description>
      <Point>
        <coordinates>-81.834375,27.5327592,0</coordinates>
      </Point>
    </Placemark>
    <Placemark>
      <name>University of Florida</name>
      <description><![CDATA[<b>Name:</b> Hastings Teaching Barn<br><b>Address:</b> , <br><b>SSID:</b> eduroam<br><b>Enc:</b> WPA2+WPA<br><b>AP:</b> 2<br>]]></description>
      <Point>
        <coordinates>-81.4537246,29.70181,0</coordinates>
      </Point>
    </Placemark>
    <Placemark>
      <name>University of Florida</name>
      <description><![CDATA[<b>Name:</b> Hendry County Extension Office<br><b>Address:</b> , <br><b>SSID:</b> eduroam<br><b>Enc:</b> WPA2+WPA<br><b>AP:</b> 1<br>]]></description>
      <Point>
        <coordinates>-81.616044,26.452695,0</coordinates>
      </Point>
    </Placemark>
    <Placemark>
      <name>University of Florida</name>
      <description><![CDATA[<b>Name:</b> Hillsborough County Extension Office<br><b>Address:</b> , <br><b>SSID:</b> eduroam<br><b>Enc:</b> WPA2+WPA<br><b>AP:</b> 4<br>]]></description>
      <Point>
        <coordinates>-82.3014027,27.9956892,0</coordinates>
      </Point>
    </Placemark>
    <Placemark>
      <name>University of Florida</name>
      <description><![CDATA[<b>Name:</b> Holmes County Extension Office<br><b>Address:</b> , <br><b>SSID:</b> eduroam<br><b>Enc:</b> WPA2+WPA<br><b>AP:</b> 1<br>]]></description>
      <Point>
        <coordinates>-85.6631024,30.7871368,0</coordinates>
      </Point>
    </Placemark>
    <Placemark>
      <name>University of Florida</name>
      <description><![CDATA[<b>Name:</b> Horse Teaching Unit<br><b>Address:</b> , <br><b>SSID:</b> eduroam<br><b>Enc:</b> WPA2+WPA<br><b>AP:</b> 7<br>]]></description>
      <Point>
        <coordinates>-82.346442,29.596478,0</coordinates>
      </Point>
    </Placemark>
    <Placemark>
      <name>University of Florida</name>
      <description><![CDATA[<b>Name:</b> Indian River County Extension Office<br><b>Address:</b> , <br><b>SSID:</b> eduroam<br><b>Enc:</b> WPA2+WPA<br><b>AP:</b> 1<br>]]></description>
      <Point>
        <coordinates>-80.4029898,27.6471965,0</coordinates>
      </Point>
    </Placemark>
    <Placemark>
      <name>University of Florida</name>
      <description><![CDATA[<b>Name:</b> Indian River Research and Education Center - IRREC<br><b>Address:</b> , <br><b>SSID:</b> eduroam<br><b>Enc:</b> WPA2+WPA<br><b>AP:</b> 25<br>]]></description>
      <Point>
        <coordinates>-80.4082346,27.4262232,0</coordinates>
      </Point>
    </Placemark>
    <Placemark>
      <name>University of Florida</name>
      <description><![CDATA[<b>Name:</b> Jackson County Extension Office<br><b>Address:</b> , <br><b>SSID:</b> eduroam<br><b>Enc:</b> WPA2+WPA<br><b>AP:</b> 2<br>]]></description>
      <Point>
        <coordinates>-85.25543,30.764403,0</coordinates>
      </Point>
    </Placemark>
    <Placemark>
      <name>University of Florida</name>
      <description><![CDATA[<b>Name:</b> Jefferson County Extension Office<br><b>Address:</b> , <br><b>SSID:</b> eduroam<br><b>Enc:</b> WPA2+WPA<br><b>AP:</b> 1<br>]]></description>
      <Point>
        <coordinates>-83.9160441,30.5401021,0</coordinates>
      </Point>
    </Placemark>
    <Placemark>
      <name>University of Florida</name>
      <description><![CDATA[<b>Name:</b> Lafayette County Extension Office<br><b>Address:</b> , <br><b>SSID:</b> eduroam<br><b>Enc:</b> WPA2+WPA<br><b>AP:</b> 1<br>]]></description>
      <Point>
        <coordinates>-83.1837412,30.0559189,0</coordinates>
      </Point>
    </Placemark>
    <Placemark>
      <name>University of Florida</name>
      <description><![CDATA[<b>Name:</b> Lake County Extension Office<br><b>Address:</b> , <br><b>SSID:</b> eduroam<br><b>Enc:</b> WPA2+WPA<br><b>AP:</b> 5<br>]]></description>
      <Point>
        <coordinates>-81.748187,28.788813,0</coordinates>
      </Point>
    </Placemark>
    <Placemark>
      <name>University of Florida</name>
      <description><![CDATA[<b>Name:</b> Leon County Extension Office<br><b>Address:</b> , <br><b>SSID:</b> eduroam<br><b>Enc:</b> WPA2+WPA<br><b>AP:</b> 3<br>]]></description>
      <Point>
        <coordinates>-84.2696236,30.4047941,0</coordinates>
      </Point>
    </Placemark>
    <Placemark>
      <name>University of Florida</name>
      <description><![CDATA[<b>Name:</b> Levy County Extension Office<br><b>Address:</b> , <br><b>SSID:</b> eduroam<br><b>Enc:</b> WPA2+WPA<br><b>AP:</b> 1<br>]]></description>
      <Point>
        <coordinates>-82.6484778,29.4515556,0</coordinates>
      </Point>
    </Placemark>
    <Placemark>
      <name>University of Florida</name>
      <description><![CDATA[<b>Name:</b> Lightning Research Facility<br><b>Address:</b> , <br><b>SSID:</b> eduroam<br><b>Enc:</b> WPA2+WPA<br><b>AP:</b> 1<br>]]></description>
      <Point>
        <coordinates>-82.0358742,29.9444991,0</coordinates>
      </Point>
    </Placemark>
    <Placemark>
      <name>University of Florida</name>
      <description><![CDATA[<b>Name:</b> Main Campus<br><b>Address:</b> , <br><b>SSID:</b> eduroam<br><b>Enc:</b> WPA2+WPA<br><b>AP:</b> 12700<br>]]></description>
      <Point>
        <coordinates>-82.3398744,29.6494226,0</coordinates>
      </Point>
    </Placemark>
    <Placemark>
      <name>University of Florida</name>
      <description><![CDATA[<b>Name:</b> Manatee County Extension Office<br><b>Address:</b> , <br><b>SSID:</b> eduroam<br><b>Enc:</b> WPA2+WPA<br><b>AP:</b> 6<br>]]></description>
      <Point>
        <coordinates>-82.5798364,27.5259844,0</coordinates>
      </Point>
    </Placemark>
    <Placemark>
      <name>University of Florida</name>
      <description><![CDATA[<b>Name:</b> Miami Food and Nutrition Program<br><b>Address:</b> , <br><b>SSID:</b> eduroam<br><b>Enc:</b> WPA2+WPA<br><b>AP:</b> 1<br>]]></description>
      <Point>
        <coordinates>-80.3384545,25.6333721,0</coordinates>
      </Point>
    </Placemark>
    <Placemark>
      <name>University of Florida</name>
      <description><![CDATA[<b>Name:</b> Mid Florida Research and Education Center - MFREC<br><b>Address:</b> , <br><b>SSID:</b> eduroam<br><b>Enc:</b> WPA2+WPA<br><b>AP:</b> 10<br>]]></description>
      <Point>
        <coordinates>-81.5485142,28.6382978,0</coordinates>
      </Point>
    </Placemark>
    <Placemark>
      <name>University of Florida</name>
      <description><![CDATA[<b>Name:</b> Nature Coast Biological Station - NCBS<br><b>Address:</b> , <br><b>SSID:</b> eduroam<br><b>Enc:</b> WPA2+WPA<br><b>AP:</b> 2<br>]]></description>
      <Point>
        <coordinates>-83.032734,29.135213,0</coordinates>
      </Point>
    </Placemark>
    <Placemark>
      <name>University of Florida</name>
      <description><![CDATA[<b>Name:</b> NFREC Quincy Distanace Education Site<br><b>Address:</b> , <br><b>SSID:</b> eduroam<br><b>Enc:</b> WPA2+WPA<br><b>AP:</b> 5<br>]]></description>
      <Point>
        <coordinates>-84.5941337,30.5450865,0</coordinates>
      </Point>
    </Placemark>
    <Placemark>
      <name>University of Florida</name>
      <description><![CDATA[<b>Name:</b> North Florida Research and Education Center - NFREC<br><b>Address:</b> , <br><b>SSID:</b> eduroam<br><b>Enc:</b> WPA2+WPA<br><b>AP:</b> 1<br>]]></description>
      <Point>
        <coordinates>-85.166008,30.8406061,0</coordinates>
      </Point>
    </Placemark>
    <Placemark>
      <name>University of Florida</name>
      <description><![CDATA[<b>Name:</b> Okeechobee County Extension Office<br><b>Address:</b> , <br><b>SSID:</b> eduroam<br><b>Enc:</b> WPA2+WPA<br><b>AP:</b> 1<br>]]></description>
      <Point>
        <coordinates>-85.3031772,29.8112875,0</coordinates>
      </Point>
    </Placemark>
    <Placemark>
      <name>University of Florida</name>
      <description><![CDATA[<b>Name:</b> Ordway-Swisher Biological Station - OSBS<br><b>Address:</b> , <br><b>SSID:</b> eduroam<br><b>Enc:</b> WPA2+WPA<br><b>AP:</b> 4<br>]]></description>
      <Point>
        <coordinates>-81.9984382,29.7077297,0</coordinates>
      </Point>
    </Placemark>
    <Placemark>
      <name>University of Florida</name>
      <description><![CDATA[<b>Name:</b> Osceola County Extension Office<br><b>Address:</b> , <br><b>SSID:</b> eduroam<br><b>Enc:</b> WPA2+WPA<br><b>AP:</b> 2<br>]]></description>
      <Point>
        <coordinates>-81.389958,28.3137159,0</coordinates>
      </Point>
    </Placemark>
    <Placemark>
      <name>University of Florida</name>
      <description><![CDATA[<b>Name:</b> Plant Science Research and Education Unit (PSREU)<br><b>Address:</b> , <br><b>SSID:</b> eduroam<br><b>Enc:</b> WPA2+WPA<br><b>AP:</b> 6<br>]]></description>
      <Point>
        <coordinates>-82.171133,29.4086096,0</coordinates>
      </Point>
    </Placemark>
    <Placemark>
      <name>University of Florida</name>
      <description><![CDATA[<b>Name:</b> Polk County Extension Office<br><b>Address:</b> , <br><b>SSID:</b> eduroam<br><b>Enc:</b> WPA2+WPA<br><b>AP:</b> 3<br>]]></description>
      <Point>
        <coordinates>-81.8279499,27.8778065,0</coordinates>
      </Point>
    </Placemark>
    <Placemark>
      <name>University of Florida</name>
      <description><![CDATA[<b>Name:</b> Progress Park<br><b>Address:</b> , <br><b>SSID:</b> eduroam<br><b>Enc:</b> WPA2+WPA<br><b>AP:</b> 28<br>]]></description>
      <Point>
        <coordinates>-82.4718065,29.7813519,0</coordinates>
      </Point>
    </Placemark>
    <Placemark>
      <name>University of Florida</name>
      <description><![CDATA[<b>Name:</b> Putnam County Extension Office<br><b>Address:</b> , <br><b>SSID:</b> eduroam<br><b>Enc:</b> WPA2+WPA<br><b>AP:</b> 2<br>]]></description>
      <Point>
        <coordinates>-81.588515,29.642937,0</coordinates>
      </Point>
    </Placemark>
    <Placemark>
      <name>University of Florida</name>
      <description><![CDATA[<b>Name:</b> Range Cattle Research and Education Center - RCREC<br><b>Address:</b> , <br><b>SSID:</b> eduroam<br><b>Enc:</b> WPA2+WPA<br><b>AP:</b> 4<br>]]></description>
      <Point>
        <coordinates>-81.9344492,27.3934605,0</coordinates>
      </Point>
    </Placemark>
    <Placemark>
      <name>University of Florida</name>
      <description><![CDATA[<b>Name:</b> Research Engineering Education Facility - REEF<br><b>Address:</b> , <br><b>SSID:</b> eduroam<br><b>Enc:</b> WPA2+WPA<br><b>AP:</b> 11<br>]]></description>
      <Point>
        <coordinates>-86.5733368,30.4753209,0</coordinates>
      </Point>
    </Placemark>
    <Placemark>
      <name>University of Florida</name>
      <description><![CDATA[<b>Name:</b> Santarosa County Extension Office<br><b>Address:</b> , <br><b>SSID:</b> eduroam<br><b>Enc:</b> WPA2+WPA<br><b>AP:</b> 1<br>]]></description>
      <Point>
        <coordinates>-87.1603853,30.9519367,0</coordinates>
      </Point>
    </Placemark>
    <Placemark>
      <name>University of Florida</name>
      <description><![CDATA[<b>Name:</b> South Florida MBA Program<br><b>Address:</b> , <br><b>SSID:</b> eduroam<br><b>Enc:</b> WPA2+WPA<br><b>AP:</b> 3<br>]]></description>
      <Point>
        <coordinates>-80.3316812,26.1332184,0</coordinates>
      </Point>
    </Placemark>
    <Placemark>
      <name>University of Florida</name>
      <description><![CDATA[<b>Name:</b> Southwest Research and Education Facility - SWREC<br><b>Address:</b> , <br><b>SSID:</b> eduroam<br><b>Enc:</b> WPA2+WPA<br><b>AP:</b> 10<br>]]></description>
      <Point>
        <coordinates>-81.4342697,26.4607856,0</coordinates>
      </Point>
    </Placemark>
    <Placemark>
      <name>University of Florida</name>
      <description><![CDATA[<b>Name:</b> St Johns County Extension Office<br><b>Address:</b> , <br><b>SSID:</b> eduroam<br><b>Enc:</b> WPA2+WPA<br><b>AP:</b> 3<br>]]></description>
      <Point>
        <coordinates>-81.4101262,29.9048778,0</coordinates>
      </Point>
    </Placemark>
    <Placemark>
      <name>University of Florida</name>
      <description><![CDATA[<b>Name:</b> St Lucie County Extension Office<br><b>Address:</b> , <br><b>SSID:</b> eduroam<br><b>Enc:</b> WPA2+WPA<br><b>AP:</b> 3<br>]]></description>
      <Point>
        <coordinates>-80.4080479,27.426089,0</coordinates>
      </Point>
    </Placemark>
    <Placemark>
      <name>University of Florida</name>
      <description><![CDATA[<b>Name:</b> Sumter County Extension Office<br><b>Address:</b> , <br><b>SSID:</b> eduroam<br><b>Enc:</b> WPA2+WPA<br><b>AP:</b> 1<br>]]></description>
      <Point>
        <coordinates>-81.9702037,28.9195851,0</coordinates>
      </Point>
    </Placemark>
    <Placemark>
      <name>University of Florida</name>
      <description><![CDATA[<b>Name:</b> Suwannee County Extension Office<br><b>Address:</b> , <br><b>SSID:</b> eduroam<br><b>Enc:</b> WPA2+WPA<br><b>AP:</b> 2<br>]]></description>
      <Point>
        <coordinates>-83.0058548,30.2911031,0</coordinates>
      </Point>
    </Placemark>
    <Placemark>
      <name>University of Florida</name>
      <description><![CDATA[<b>Name:</b> Taylor County Extension Office<br><b>Address:</b> , <br><b>SSID:</b> eduroam<br><b>Enc:</b> WPA2+WPA<br><b>AP:</b> 2<br>]]></description>
      <Point>
        <coordinates>-83.5676256,30.0797595,0</coordinates>
      </Point>
    </Placemark>
    <Placemark>
      <name>University of Florida</name>
      <description><![CDATA[<b>Name:</b> Tropical Aquculture Lab<br><b>Address:</b> , <br><b>SSID:</b> eduroam<br><b>Enc:</b> WPA2+WPA<br><b>AP:</b> 2<br>]]></description>
      <Point>
        <coordinates>-82.401216,27.705231,0</coordinates>
      </Point>
    </Placemark>
    <Placemark>
      <name>University of Florida</name>
      <description><![CDATA[<b>Name:</b> Tropical Research and Education Center - TREC<br><b>Address:</b> , <br><b>SSID:</b> eduroam<br><b>Enc:</b> WPA2+WPA<br><b>AP:</b> 20<br>]]></description>
      <Point>
        <coordinates>-80.4990357,25.5063796,0</coordinates>
      </Point>
    </Placemark>
    <Placemark>
      <name>University of Florida</name>
      <description><![CDATA[<b>Name:</b> University of Florida Legislative Office<br><b>Address:</b> , <br><b>SSID:</b> eduroam<br><b>Enc:</b> WPA2+WPA<br><b>AP:</b> 1<br>]]></description>
      <Point>
        <coordinates>-84.2800501,30.4402227,0</coordinates>
      </Point>
    </Placemark>
    <Placemark>
      <name>University of Florida</name>
      <description><![CDATA[<b>Name:</b> Wakulla County Extension Office<br><b>Address:</b> , <br><b>SSID:</b> eduroam<br><b>Enc:</b> WPA2+WPA<br><b>AP:</b> 1<br>]]></description>
      <Point>
        <coordinates>-84.3787229,30.186232,0</coordinates>
      </Point>
    </Placemark>
    <Placemark>
      <name>University of Florida</name>
      <description><![CDATA[<b>Name:</b> Walton County Extension Office<br><b>Address:</b> , <br><b>SSID:</b> eduroam<br><b>Enc:</b> WPA2+WPA<br><b>AP:</b> 2<br>]]></description>
      <Point>
        <coordinates>-86.1140008,30.7319865,0</coordinates>
      </Point>
    </Placemark>
    <Placemark>
      <name>University of Florida</name>
      <description><![CDATA[<b>Name:</b> Washington County Extension Office<br><b>Address:</b> , <br><b>SSID:</b> eduroam<br><b>Enc:</b> WPA2+WPA<br><b>AP:</b> 2<br>]]></description>
      <Point>
        <coordinates>-85.551693,30.778309,0</coordinates>
      </Point>
    </Placemark>
    <Placemark>
      <name>University of Florida</name>
      <description><![CDATA[<b>Name:</b> WAUBURG NORTH CYPRESS LODGE<br><b>Address:</b> , <br><b>SSID:</b> eduroam<br><b>Enc:</b> WPA2+WPA<br><b>AP:</b> 4<br>]]></description>
      <Point>
        <coordinates>-82.3056377,29.5337814,0</coordinates>
      </Point>
    </Placemark>
    <Placemark>
      <name>University of Florida</name>
      <description><![CDATA[<b>Name:</b> West Florida Research and Education Center - WFRDS<br><b>Address:</b> , <br><b>SSID:</b> eduroam<br><b>Enc:</b> WPA2+WPA<br><b>AP:</b> 5<br>]]></description>
      <Point>
        <coordinates>-87.151359,30.9529611,0</coordinates>
      </Point>
    </Placemark>
    <Placemark>
      <name>University of Florida</name>
      <description><![CDATA[<b>Name:</b> West Florida Research and Education Center - WFREC<br><b>Address:</b> , <br><b>SSID:</b> eduroam<br><b>Enc:</b> WPA2+WPA<br><b>AP:</b> 5<br>]]></description>
      <Point>
        <coordinates>-87.0756289,30.6059817,0</coordinates>
      </Point>
    </Placemark>
    <Placemark>
      <name>University of Florida</name>
      <description><![CDATA[<b>Name:</b> Whitney Marine Laboratory<br><b>Address:</b> , <br><b>SSID:</b> eduroam<br><b>Enc:</b> WPA2+WPA<br><b>AP:</b> 31<br>]]></description>
      <Point>
        <coordinates>-81.2144592,29.6702514,0</coordinates>
      </Point>
    </Placemark>
    <Placemark>
      <name>University of Florida</name>
      <description><![CDATA[<b>Name:</b> WUFT Transmitter Building<br><b>Address:</b> , <br><b>SSID:</b> eduroam<br><b>Enc:</b> WPA2+WPA<br><b>AP:</b> 1<br>]]></description>
      <Point>
        <coordinates>-82.395186,29.7038417,0</coordinates>
      </Point>
    </Placemark>
    <Placemark>
      <name>University of Miami</name>
      <description><![CDATA[<b>Name:</b> Main Campus<br><b>Address:</b> , <br><b>SSID:</b> eduroam<br><b>Enc:</b> WPA2 + WPA3<br><b>AP:</b> 9000<br>]]></description>
      <Point>
        <coordinates>-80.2773968,25.7134835,0</coordinates>
      </Point>
    </Placemark>
    <Placemark>
      <name>University of Miami</name>
      <description><![CDATA[<b>Name:</b> Rosenstiel School of Marine, Atmospheric, and Earth Science<br><b>Address:</b> , <br><b>SSID:</b> eduroam<br><b>Enc:</b> WPA2 + WPA3<br><b>AP:</b> 350<br>]]></description>
      <Point>
        <coordinates>-80.1627436,25.7326805,0</coordinates>
      </Point>
    </Placemark>
    <Placemark>
      <name>University of North Florida</name>
      <description><![CDATA[<b>Name:</b> UNF Barnett<br><b>Address:</b> , <br><b>SSID:</b> eduroam<br><b>Enc:</b> WPA2<br><b>AP:</b> 12<br>]]></description>
      <Point>
        <coordinates>-81.659367,30.327902,0</coordinates>
      </Point>
    </Placemark>
    <Placemark>
      <name>University of North Florida</name>
      <description><![CDATA[<b>Name:</b> UNF Deerwood<br><b>Address:</b> , <br><b>SSID:</b> eduroam<br><b>Enc:</b> WPA2<br><b>AP:</b> 45<br>]]></description>
      <Point>
        <coordinates>-81.5537294,30.2218663,0</coordinates>
      </Point>
    </Placemark>
    <Placemark>
      <name>University of North Florida</name>
      <description><![CDATA[<b>Name:</b> UNF MOCA<br><b>Address:</b> , <br><b>SSID:</b> eduroam<br><b>Enc:</b> WPA2<br><b>AP:</b> 44<br>]]></description>
      <Point>
        <coordinates>-81.6584083,30.3292778,0</coordinates>
      </Point>
    </Placemark>
    <Placemark>
      <name>University of North Florida</name>
      <description><![CDATA[<b>Name:</b> University of North Florida<br><b>Address:</b> , <br><b>SSID:</b> eduroam<br><b>Enc:</b> WPA2<br><b>AP:</b> 3500<br>]]></description>
      <Point>
        <coordinates>-81.4955107,30.2618662,0</coordinates>
      </Point>
    </Placemark>
    <Placemark>
      <name>University of South Florida</name>
      <description><![CDATA[<b>Name:</b> USF Center for Advanced Learning and Simulation (CAMLS)<br><b>Address:</b> , <br><b>SSID:</b> eduroam<br><b>Enc:</b> WPA2+WPA<br><b>AP:</b> 50<br>]]></description>
      <Point>
        <coordinates>-82.4558967,27.9444201,0</coordinates>
      </Point>
    </Placemark>
    <Placemark>
      <name>University of South Florida</name>
      <description><![CDATA[<b>Name:</b> USF Morsani College of Medicine<br><b>Address:</b> , <br><b>SSID:</b> eduroam<br><b>Enc:</b> WPA2+WPA<br><b>AP:</b> 300<br>]]></description>
      <Point>
        <coordinates>-82.4493875,27.9437422,0</coordinates>
      </Point>
    </Placemark>
    <Placemark>
      <name>University of South Florida</name>
      <description><![CDATA[<b>Name:</b> USF Saint Petersburg Campus<br><b>Address:</b> , <br><b>SSID:</b> eduroam<br><b>Enc:</b> WPA2+WPA<br><b>AP:</b> 600<br>]]></description>
      <Point>
        <coordinates>-82.6350207,27.7633053,0</coordinates>
      </Point>
    </Placemark>
    <Placemark>
      <name>University of South Florida</name>
      <description><![CDATA[<b>Name:</b> USF Sarasota-Manatee Campus<br><b>Address:</b> , <br><b>SSID:</b> eduroam<br><b>Enc:</b> WPA2+WPA<br><b>AP:</b> 200<br>]]></description>
      <Point>
        <coordinates>-82.5630583,27.3916217,0</coordinates>
      </Point>
    </Placemark>
    <Placemark>
      <name>University of South Florida</name>
      <description><![CDATA[<b>Name:</b> USF Tampa Campus<br><b>Address:</b> , <br><b>SSID:</b> eduroam<br><b>Enc:</b> WPA2+WPA<br><b>AP:</b> 6000<br>]]></description>
      <Point>
        <coordinates>-82.4136184,28.0545788,0</coordinates>
      </Point>
    </Placemark>
    <Placemark>
      <name>Valencia College</name>
      <description><![CDATA[<b>Name:</b> West Campus<br><b>Address:</b> , <br><b>SSID:</b> eduroam<br><b>Enc:</b> WPA2<br><b>AP:</b> 1<br>]]></description>
      <Point>
        <coordinates>-81.4627424,28.5235897,0</coordinates>
      </Point>
    </Placemark>
  </Document>
</kml>
