<?xml version="1.0" encoding="UTF-8"?>
<kml xmlns="http://www.opengis.net/kml/2.2">
  <Document>
    <name>eduroam — Connecticut</name>
    <description><![CDATA[171 eduroam service locations in Connecticut.<br><br>Published by <a href="https://scs.nevada.edu/eduroam">NSHE System Computing Services</a>. Learn more about eduroam Support Organizations from <a href="https://incommon.org/eduroam">Internet2</a>, the eduroam National Roaming Operator for the United States.<br>These maps are derived from data published by GÉANT (<a href="https://monitor.eduroam.org/kml/us.kml">monitor.eduroam.org</a>). This is not an official GÉANT or eduroam publication.<br>eduroam is a registered trademark of the GÉANT Association.<br>Region boundaries are derived from US Census Bureau cartographic boundary files, which as works of the US federal government are in the public domain.<br>Maps generated by eduroam-us-regional-maps, which is BSD 3-Clause licensed.]]></description>
    <open>1</open>
    <Placemark>
      <name>ACES</name>
      <description><![CDATA[<b>Name:</b> ACES Main Office<br><b>Address:</b> , <br><b>SSID:</b> eduroam<br><b>Enc:</b> WPA2<br><b>AP:</b> -<br>]]></description>
      <Point>
        <coordinates>-72.9048982,41.3133015,0</coordinates>
      </Point>
    </Placemark>
    <Placemark>
      <name>Achievement First Inc.</name>
      <description><![CDATA[<b>Name:</b> Achievement First Amistad High School<br><b>Address:</b> , <br><b>SSID:</b> eduroam<br><b>Enc:</b> WPA3+WPA2+WPA<br><b>AP:</b> 50<br>]]></description>
      <Point>
        <coordinates>-72.9372326,41.3284999,0</coordinates>
      </Point>
    </Placemark>
    <Placemark>
      <name>Achievement First Inc.</name>
      <description><![CDATA[<b>Name:</b> Achievement First Bridgeport Academy Elementary School<br><b>Address:</b> , <br><b>SSID:</b> eduroam<br><b>Enc:</b> WPA3+WPA2+WPA<br><b>AP:</b> 26<br>]]></description>
      <Point>
        <coordinates>-73.1760325,41.1926125,0</coordinates>
      </Point>
    </Placemark>
    <Placemark>
      <name>Achievement First Inc.</name>
      <description><![CDATA[<b>Name:</b> Achievement First Bridgeport Academy Middle School<br><b>Address:</b> , <br><b>SSID:</b> eduroam<br><b>Enc:</b> WPA3+WPA2+WPA<br><b>AP:</b> 22<br>]]></description>
      <Point>
        <coordinates>-73.1848563,41.1889084,0</coordinates>
      </Point>
    </Placemark>
    <Placemark>
      <name>Achievement First Inc.</name>
      <description><![CDATA[<b>Name:</b> Achievement First Hartford K12<br><b>Address:</b> , <br><b>SSID:</b> eduroam<br><b>Enc:</b> WPA3+WPA2+WPA<br><b>AP:</b> 94<br>]]></description>
      <Point>
        <coordinates>-72.6972812,41.7839161,0</coordinates>
      </Point>
    </Placemark>
    <Placemark>
      <name>Achievement First Inc.</name>
      <description><![CDATA[<b>Name:</b> Amistad K8<br><b>Address:</b> , <br><b>SSID:</b> eduroam<br><b>Enc:</b> WPA3+WPA2+WPA<br><b>AP:</b> 60<br>]]></description>
      <Point>
        <coordinates>-72.9383471,41.3110062,0</coordinates>
      </Point>
    </Placemark>
    <Placemark>
      <name>Achievement First Inc.</name>
      <description><![CDATA[<b>Name:</b> Elm City College Preparatory K8<br><b>Address:</b> , <br><b>SSID:</b> eduroam<br><b>Enc:</b> WPA3+WPA2+WPA<br><b>AP:</b> 30<br>]]></description>
      <Point>
        <coordinates>-72.903434,41.313678,0</coordinates>
      </Point>
    </Placemark>
    <Placemark>
      <name>Ansonia High School</name>
      <description><![CDATA[<b>Name:</b> Ansonia High School<br><b>Address:</b> , <br><b>SSID:</b> eduroam<br><b>Enc:</b> WPA2<br><b>AP:</b> 1<br>]]></description>
      <Point>
        <coordinates>-73.0654308,41.3266921,0</coordinates>
      </Point>
    </Placemark>
    <Placemark>
      <name>Ansonia Library</name>
      <description><![CDATA[<b>Name:</b> Ansonia Library<br><b>Address:</b> , <br><b>SSID:</b> eduroam<br><b>Enc:</b> WPA2<br><b>AP:</b> 1<br>]]></description>
      <Point>
        <coordinates>-73.0767009,41.3451624,0</coordinates>
      </Point>
    </Placemark>
    <Placemark>
      <name>Avon Free Public Libraray</name>
      <description><![CDATA[<b>Name:</b> Avon Free Public Library<br><b>Address:</b> , <br><b>SSID:</b> eduroam<br><b>Enc:</b> WPA2<br><b>AP:</b> -<br>]]></description>
      <Point>
        <coordinates>-72.8604757,41.7897837,0</coordinates>
      </Point>
    </Placemark>
    <Placemark>
      <name>Booth &amp; Dimock Memorial Library</name>
      <description><![CDATA[<b>Name:</b> Booth &amp; Dimock Memorial Library<br><b>Address:</b> , <br><b>SSID:</b> eduroam<br><b>Enc:</b> WPA2<br><b>AP:</b> 4<br>]]></description>
      <Point>
        <coordinates>-72.2976242,41.7677798,0</coordinates>
      </Point>
    </Placemark>
    <Placemark>
      <name>Brookfield Public Schools</name>
      <description><![CDATA[<b>Name:</b> BPS Town School Office<br><b>Address:</b> , <br><b>SSID:</b> eduroam<br><b>Enc:</b> WPA2<br><b>AP:</b> -<br>]]></description>
      <Point>
        <coordinates>-73.3996038,41.4657182,0</coordinates>
      </Point>
    </Placemark>
    <Placemark>
      <name>Brookfield Public Schools</name>
      <description><![CDATA[<b>Name:</b> Brookfield High School<br><b>Address:</b> , <br><b>SSID:</b> eduroam<br><b>Enc:</b> WPA2<br><b>AP:</b> -<br>]]></description>
      <Point>
        <coordinates>-73.3903966,41.4803726,0</coordinates>
      </Point>
    </Placemark>
    <Placemark>
      <name>Brookfield Public Schools</name>
      <description><![CDATA[<b>Name:</b> Candlewood Lake Elementary School<br><b>Address:</b> , <br><b>SSID:</b> eduroam<br><b>Enc:</b> WPA2<br><b>AP:</b> -<br>]]></description>
      <Point>
        <coordinates>-73.4187577,41.4478506,0</coordinates>
      </Point>
    </Placemark>
    <Placemark>
      <name>Brookfield Public Schools</name>
      <description><![CDATA[<b>Name:</b> Whisconier Middle School<br><b>Address:</b> , <br><b>SSID:</b> eduroam<br><b>Enc:</b> WPA2<br><b>AP:</b> -<br>]]></description>
      <Point>
        <coordinates>-73.3760273,41.4403115,0</coordinates>
      </Point>
    </Placemark>
    <Placemark>
      <name>Central CT State University</name>
      <description><![CDATA[<b>Name:</b> Main Campus<br><b>Address:</b> , <br><b>SSID:</b> eduroam<br><b>Enc:</b> WPA2+WPA<br><b>AP:</b> -<br>]]></description>
      <Point>
        <coordinates>-72.764167,41.693255,0</coordinates>
      </Point>
    </Placemark>
    <Placemark>
      <name>Choate Rosemary Hall</name>
      <description><![CDATA[<b>Name:</b> Choate Rosemary Hall<br><b>Address:</b> , <br><b>SSID:</b> eduroam<br><b>Enc:</b> WPA2<br><b>AP:</b> 699<br>]]></description>
      <Point>
        <coordinates>-72.8095424,41.4547069,0</coordinates>
      </Point>
    </Placemark>
    <Placemark>
      <name>City of Middletown</name>
      <description><![CDATA[<b>Name:</b> Middletown - Charles B Bacon Water Treatment Plant<br><b>Address:</b> , <br><b>SSID:</b> eduroam<br><b>Enc:</b> WPA2<br><b>AP:</b> 1<br>]]></description>
      <Point>
        <coordinates>-72.7209077,41.5505005,0</coordinates>
      </Point>
    </Placemark>
    <Placemark>
      <name>City of Middletown</name>
      <description><![CDATA[<b>Name:</b> Middletown - City Hall<br><b>Address:</b> , <br><b>SSID:</b> eduroam<br><b>Enc:</b> WPA2<br><b>AP:</b> 12<br>]]></description>
      <Point>
        <coordinates>-72.6480409,41.5616381,0</coordinates>
      </Point>
    </Placemark>
    <Placemark>
      <name>City of Middletown</name>
      <description><![CDATA[<b>Name:</b> Middletown - City Yard<br><b>Address:</b> , <br><b>SSID:</b> eduroam<br><b>Enc:</b> WPA2<br><b>AP:</b> 6<br>]]></description>
      <Point>
        <coordinates>-72.6674963,41.5565472,0</coordinates>
      </Point>
    </Placemark>
    <Placemark>
      <name>City of Middletown</name>
      <description><![CDATA[<b>Name:</b> Middletown - Cross Street Fire Dept<br><b>Address:</b> , <br><b>SSID:</b> eduroam<br><b>Enc:</b> WPA2<br><b>AP:</b> 3<br>]]></description>
      <Point>
        <coordinates>-72.6623254,41.5513703,0</coordinates>
      </Point>
    </Placemark>
    <Placemark>
      <name>City of Middletown</name>
      <description><![CDATA[<b>Name:</b> Middletown - Crystal Lake<br><b>Address:</b> , <br><b>SSID:</b> eduroam<br><b>Enc:</b> WPA2<br><b>AP:</b> 1<br>]]></description>
      <Point>
        <coordinates>-72.6395091,41.5145974,0</coordinates>
      </Point>
    </Placemark>
    <Placemark>
      <name>City of Middletown</name>
      <description><![CDATA[<b>Name:</b> Middletown - Emergency Management Garage<br><b>Address:</b> , <br><b>SSID:</b> eduroam<br><b>Enc:</b> WPA2<br><b>AP:</b> 2<br>]]></description>
      <Point>
        <coordinates>-72.6380207,41.5326516,0</coordinates>
      </Point>
    </Placemark>
    <Placemark>
      <name>City of Middletown</name>
      <description><![CDATA[<b>Name:</b> Middletown - FTP Pump Station<br><b>Address:</b> , <br><b>SSID:</b> eduroam<br><b>Enc:</b> WPA2<br><b>AP:</b> 1<br>]]></description>
      <Point>
        <coordinates>-72.6427252,41.5553851,0</coordinates>
      </Point>
    </Placemark>
    <Placemark>
      <name>City of Middletown</name>
      <description><![CDATA[<b>Name:</b> Middletown - Harbor Park<br><b>Address:</b> , <br><b>SSID:</b> eduroam<br><b>Enc:</b> WPA2<br><b>AP:</b> 9<br>]]></description>
      <Point>
        <coordinates>-72.6458006,41.5612373,0</coordinates>
      </Point>
    </Placemark>
    <Placemark>
      <name>City of Middletown</name>
      <description><![CDATA[<b>Name:</b> Middletown - Hubbard Park<br><b>Address:</b> , <br><b>SSID:</b> eduroam<br><b>Enc:</b> WPA2<br><b>AP:</b> 1<br>]]></description>
      <Point>
        <coordinates>-72.6440705,41.5567466,0</coordinates>
      </Point>
    </Placemark>
    <Placemark>
      <name>City of Middletown</name>
      <description><![CDATA[<b>Name:</b> Middletown - JSR Water Treatment Plant<br><b>Address:</b> , <br><b>SSID:</b> eduroam<br><b>Enc:</b> WPA2<br><b>AP:</b> 1<br>]]></description>
      <Point>
        <coordinates>-72.6412756,41.5580216,0</coordinates>
      </Point>
    </Placemark>
    <Placemark>
      <name>City of Middletown</name>
      <description><![CDATA[<b>Name:</b> Middletown - Keating Building<br><b>Address:</b> , <br><b>SSID:</b> eduroam<br><b>Enc:</b> WPA2<br><b>AP:</b> 1<br>]]></description>
      <Point>
        <coordinates>-72.6600189,41.5737084,0</coordinates>
      </Point>
    </Placemark>
    <Placemark>
      <name>City of Middletown</name>
      <description><![CDATA[<b>Name:</b> Middletown - Main Street Fire Dept<br><b>Address:</b> , <br><b>SSID:</b> eduroam<br><b>Enc:</b> WPA2<br><b>AP:</b> 3<br>]]></description>
      <Point>
        <coordinates>-72.6519388,41.5632703,0</coordinates>
      </Point>
    </Placemark>
    <Placemark>
      <name>City of Middletown</name>
      <description><![CDATA[<b>Name:</b> Middletown - Mile Lane<br><b>Address:</b> , <br><b>SSID:</b> eduroam<br><b>Enc:</b> WPA2<br><b>AP:</b> 4<br>]]></description>
      <Point>
        <coordinates>-72.6859423,41.5805889,0</coordinates>
      </Point>
    </Placemark>
    <Placemark>
      <name>City of Middletown</name>
      <description><![CDATA[<b>Name:</b> Middletown - Palmer Field<br><b>Address:</b> , <br><b>SSID:</b> eduroam<br><b>Enc:</b> WPA2<br><b>AP:</b> 1<br>]]></description>
      <Point>
        <coordinates>-72.6688226,41.5561916,0</coordinates>
      </Point>
    </Placemark>
    <Placemark>
      <name>City of Middletown</name>
      <description><![CDATA[<b>Name:</b> Middletown - Parks Maintenance<br><b>Address:</b> , <br><b>SSID:</b> eduroam<br><b>Enc:</b> WPA2<br><b>AP:</b> 1<br>]]></description>
      <Point>
        <coordinates>-72.6704971,41.5528407,0</coordinates>
      </Point>
    </Placemark>
    <Placemark>
      <name>City of Middletown</name>
      <description><![CDATA[<b>Name:</b> Middletown - Recreation Center<br><b>Address:</b> , <br><b>SSID:</b> eduroam<br><b>Enc:</b> WPA2<br><b>AP:</b> 8<br>]]></description>
      <Point>
        <coordinates>-72.6454113,41.5401791,0</coordinates>
      </Point>
    </Placemark>
    <Placemark>
      <name>City of Middletown</name>
      <description><![CDATA[<b>Name:</b> Middletown - Senior Center<br><b>Address:</b> , <br><b>SSID:</b> eduroam<br><b>Enc:</b> WPA2<br><b>AP:</b> 4<br>]]></description>
      <Point>
        <coordinates>-72.6497119,41.5445322,0</coordinates>
      </Point>
    </Placemark>
    <Placemark>
      <name>City of Middletown</name>
      <description><![CDATA[<b>Name:</b> Middletown - Veterans Park<br><b>Address:</b> , <br><b>SSID:</b> eduroam<br><b>Enc:</b> WPA2<br><b>AP:</b> 3<br>]]></description>
      <Point>
        <coordinates>-72.6710742,41.5587113,0</coordinates>
      </Point>
    </Placemark>
    <Placemark>
      <name>City of Middletown</name>
      <description><![CDATA[<b>Name:</b> Middletown - Water Sewer Department<br><b>Address:</b> , <br><b>SSID:</b> eduroam<br><b>Enc:</b> WPA2<br><b>AP:</b> 7<br>]]></description>
      <Point>
        <coordinates>-72.6617839,41.5614562,0</coordinates>
      </Point>
    </Placemark>
    <Placemark>
      <name>City of Middletown</name>
      <description><![CDATA[<b>Name:</b> Middletown - Youth Services<br><b>Address:</b> , <br><b>SSID:</b> eduroam<br><b>Enc:</b> WPA2<br><b>AP:</b> 3<br>]]></description>
      <Point>
        <coordinates>-72.6509191,41.5646085,0</coordinates>
      </Point>
    </Placemark>
    <Placemark>
      <name>Connecticut College</name>
      <description><![CDATA[<b>Name:</b> Connecticut College<br><b>Address:</b> , <br><b>SSID:</b> eduroam<br><b>Enc:</b> WPA2<br><b>AP:</b> 660<br>]]></description>
      <Point>
        <coordinates>-72.1050691,41.3783875,0</coordinates>
      </Point>
    </Placemark>
    <Placemark>
      <name>Connecticut Convention Center</name>
      <description><![CDATA[<b>Name:</b> Connecticut Convention Center<br><b>Address:</b> , <br><b>SSID:</b> eduroam<br><b>Enc:</b> WPA2<br><b>AP:</b> -<br>]]></description>
      <Point>
        <coordinates>-72.6679638,41.7626297,0</coordinates>
      </Point>
    </Placemark>
    <Placemark>
      <name>Connecticut Education Network (CEN)</name>
      <description><![CDATA[<b>Name:</b> Connecticut Education Network - Main Office<br><b>Address:</b> , <br><b>SSID:</b> eduroam<br><b>Enc:</b> WPA2+WPA<br><b>AP:</b> 4<br>]]></description>
      <Point>
        <coordinates>-72.6877359,41.7677506,0</coordinates>
      </Point>
    </Placemark>
    <Placemark>
      <name>Connecticut State Colleges and Universities</name>
      <description><![CDATA[<b>Name:</b> CSCU System Office<br><b>Address:</b> , <br><b>SSID:</b> eduroam<br><b>Enc:</b> WPA2+WPA<br><b>AP:</b> 25<br>]]></description>
      <Point>
        <coordinates>-72.7016802,41.7718529,0</coordinates>
      </Point>
    </Placemark>
    <Placemark>
      <name>Connecticut State Colleges and Universities</name>
      <description><![CDATA[<b>Name:</b> CT State Community College - Asnuntuck<br><b>Address:</b> , <br><b>SSID:</b> eduroam<br><b>Enc:</b> WPA2+WPA<br><b>AP:</b> 67<br>]]></description>
      <Point>
        <coordinates>-72.5707054,41.9982681,0</coordinates>
      </Point>
    </Placemark>
    <Placemark>
      <name>Connecticut State Colleges and Universities</name>
      <description><![CDATA[<b>Name:</b> CT State Community College - Capital<br><b>Address:</b> , <br><b>SSID:</b> eduroam<br><b>Enc:</b> WPA2+WPA<br><b>AP:</b> 114<br>]]></description>
      <Point>
        <coordinates>-72.6720862,41.7683971,0</coordinates>
      </Point>
    </Placemark>
    <Placemark>
      <name>Connecticut State Colleges and Universities</name>
      <description><![CDATA[<b>Name:</b> CT State Community College - Gateway<br><b>Address:</b> , <br><b>SSID:</b> eduroam<br><b>Enc:</b> WPA2+WPA<br><b>AP:</b> 204<br>]]></description>
      <Point>
        <coordinates>-72.9272621,41.3045457,0</coordinates>
      </Point>
    </Placemark>
    <Placemark>
      <name>Connecticut State Colleges and Universities</name>
      <description><![CDATA[<b>Name:</b> CT State Community College - Housatonic<br><b>Address:</b> , <br><b>SSID:</b> eduroam<br><b>Enc:</b> WPA2+WPA<br><b>AP:</b> 134<br>]]></description>
      <Point>
        <coordinates>-73.1914115,41.1753915,0</coordinates>
      </Point>
    </Placemark>
    <Placemark>
      <name>Connecticut State Colleges and Universities</name>
      <description><![CDATA[<b>Name:</b> CT State Community College - Manchester<br><b>Address:</b> , <br><b>SSID:</b> eduroam<br><b>Enc:</b> WPA2+WPA<br><b>AP:</b> 263<br>]]></description>
      <Point>
        <coordinates>-72.5670043,41.7622906,0</coordinates>
      </Point>
    </Placemark>
    <Placemark>
      <name>Connecticut State Colleges and Universities</name>
      <description><![CDATA[<b>Name:</b> CT State Community College - Middlesex<br><b>Address:</b> , <br><b>SSID:</b> eduroam<br><b>Enc:</b> WPA2+WPA<br><b>AP:</b> 80<br>]]></description>
      <Point>
        <coordinates>-72.6107669,41.5391649,0</coordinates>
      </Point>
    </Placemark>
    <Placemark>
      <name>Connecticut State Colleges and Universities</name>
      <description><![CDATA[<b>Name:</b> CT State Community College - Naugatuck Valley<br><b>Address:</b> , <br><b>SSID:</b> eduroam<br><b>Enc:</b> WPA2+WPA<br><b>AP:</b> 376<br>]]></description>
      <Point>
        <coordinates>-73.0729008,41.5498286,0</coordinates>
      </Point>
    </Placemark>
    <Placemark>
      <name>Connecticut State Colleges and Universities</name>
      <description><![CDATA[<b>Name:</b> CT State Community College - Northwestern<br><b>Address:</b> , <br><b>SSID:</b> eduroam<br><b>Enc:</b> WPA2+WPA<br><b>AP:</b> 76<br>]]></description>
      <Point>
        <coordinates>-73.0596605,41.9219147,0</coordinates>
      </Point>
    </Placemark>
    <Placemark>
      <name>Connecticut State Colleges and Universities</name>
      <description><![CDATA[<b>Name:</b> CT State Community College - Norwalk<br><b>Address:</b> , <br><b>SSID:</b> eduroam<br><b>Enc:</b> WPA2+WPA<br><b>AP:</b> 218<br>]]></description>
      <Point>
        <coordinates>-73.4521866,41.1025579,0</coordinates>
      </Point>
    </Placemark>
    <Placemark>
      <name>Connecticut State Colleges and Universities</name>
      <description><![CDATA[<b>Name:</b> CT State Community College - Quinebaug Valley<br><b>Address:</b> , <br><b>SSID:</b> eduroam<br><b>Enc:</b> WPA2+WPA<br><b>AP:</b> 75<br>]]></description>
      <Point>
        <coordinates>-71.8902612,41.8262116,0</coordinates>
      </Point>
    </Placemark>
    <Placemark>
      <name>Connecticut State Colleges and Universities</name>
      <description><![CDATA[<b>Name:</b> CT State Community College - Three Rivers<br><b>Address:</b> , <br><b>SSID:</b> eduroam<br><b>Enc:</b> WPA2+WPA<br><b>AP:</b> 41<br>]]></description>
      <Point>
        <coordinates>-72.1029925,41.5097182,0</coordinates>
      </Point>
    </Placemark>
    <Placemark>
      <name>Connecticut State Colleges and Universities</name>
      <description><![CDATA[<b>Name:</b> CT State Community College - Tunxis<br><b>Address:</b> , <br><b>SSID:</b> eduroam<br><b>Enc:</b> WPA2+WPA<br><b>AP:</b> 78<br>]]></description>
      <Point>
        <coordinates>-72.8788707,41.705351,0</coordinates>
      </Point>
    </Placemark>
    <Placemark>
      <name>Connecticut Technical Education And Career System</name>
      <description><![CDATA[<b>Name:</b> 39 Woodland Street<br><b>Address:</b> , <br><b>SSID:</b> eduroam<br><b>Enc:</b> WPA2<br><b>AP:</b> -<br>]]></description>
      <Point>
        <coordinates>-72.7022025,41.7700873,0</coordinates>
      </Point>
    </Placemark>
    <Placemark>
      <name>Connecticut Technical Education And Career System</name>
      <description><![CDATA[<b>Name:</b> A. I. Prince Technical High School<br><b>Address:</b> , <br><b>SSID:</b> eduroam<br><b>Enc:</b> WPA2<br><b>AP:</b> 100<br>]]></description>
      <Point>
        <coordinates>-72.7060215,41.7416412,0</coordinates>
      </Point>
    </Placemark>
    <Placemark>
      <name>Connecticut Technical Education And Career System</name>
      <description><![CDATA[<b>Name:</b> Bristol TEC<br><b>Address:</b> , <br><b>SSID:</b> eduroam<br><b>Enc:</b> WPA2<br><b>AP:</b> 20<br>]]></description>
      <Point>
        <coordinates>-72.9898992,41.6897349,0</coordinates>
      </Point>
    </Placemark>
    <Placemark>
      <name>Connecticut Technical Education And Career System</name>
      <description><![CDATA[<b>Name:</b> Bullard-Havens Technical High School<br><b>Address:</b> , <br><b>SSID:</b> eduroam<br><b>Enc:</b> WPA2<br><b>AP:</b> 115<br>]]></description>
      <Point>
        <coordinates>-73.1631529,41.2012271,0</coordinates>
      </Point>
    </Placemark>
    <Placemark>
      <name>Connecticut Technical Education And Career System</name>
      <description><![CDATA[<b>Name:</b> CTAero Tech<br><b>Address:</b> , <br><b>SSID:</b> eduroam<br><b>Enc:</b> WPA2<br><b>AP:</b> 10<br>]]></description>
      <Point>
        <coordinates>-72.6526336,41.7350107,0</coordinates>
      </Point>
    </Placemark>
    <Placemark>
      <name>Connecticut Technical Education And Career System</name>
      <description><![CDATA[<b>Name:</b> E.C. Goodwin Technical High School<br><b>Address:</b> , <br><b>SSID:</b> eduroam<br><b>Enc:</b> WPA2<br><b>AP:</b> 70<br>]]></description>
      <Point>
        <coordinates>-72.8050184,41.6867655,0</coordinates>
      </Point>
    </Placemark>
    <Placemark>
      <name>Connecticut Technical Education And Career System</name>
      <description><![CDATA[<b>Name:</b> Eli Whitney Technical High School<br><b>Address:</b> , <br><b>SSID:</b> eduroam<br><b>Enc:</b> WPA2<br><b>AP:</b> 70<br>]]></description>
      <Point>
        <coordinates>-72.9426884,41.3422873,0</coordinates>
      </Point>
    </Placemark>
    <Placemark>
      <name>Connecticut Technical Education And Career System</name>
      <description><![CDATA[<b>Name:</b> Ella T. Grasso Technical High School<br><b>Address:</b> , <br><b>SSID:</b> eduroam<br><b>Enc:</b> WPA2<br><b>AP:</b> 60<br>]]></description>
      <Point>
        <coordinates>-72.017927,41.3423131,0</coordinates>
      </Point>
    </Placemark>
    <Placemark>
      <name>Connecticut Technical Education And Career System</name>
      <description><![CDATA[<b>Name:</b> Emmett O'Brien Technical High School<br><b>Address:</b> , <br><b>SSID:</b> eduroam<br><b>Enc:</b> WPA2<br><b>AP:</b> 70<br>]]></description>
      <Point>
        <coordinates>-73.0659304,41.3349022,0</coordinates>
      </Point>
    </Placemark>
    <Placemark>
      <name>Connecticut Technical Education And Career System</name>
      <description><![CDATA[<b>Name:</b> Norwich Technical High School<br><b>Address:</b> , <br><b>SSID:</b> eduroam<br><b>Enc:</b> WPA2<br><b>AP:</b> 70<br>]]></description>
      <Point>
        <coordinates>-72.0783269,41.5497668,0</coordinates>
      </Point>
    </Placemark>
    <Placemark>
      <name>Darien Public Schools</name>
      <description><![CDATA[<b>Name:</b> Darien Board of Education<br><b>Address:</b> , <br><b>SSID:</b> eduroam<br><b>Enc:</b> WPA2<br><b>AP:</b> -<br>]]></description>
      <Point>
        <coordinates>-73.4739986,41.0739037,0</coordinates>
      </Point>
    </Placemark>
    <Placemark>
      <name>Darien Public Schools</name>
      <description><![CDATA[<b>Name:</b> Darien High School<br><b>Address:</b> , <br><b>SSID:</b> eduroam<br><b>Enc:</b> WPA2<br><b>AP:</b> -<br>]]></description>
      <Point>
        <coordinates>-73.489727,41.0835789,0</coordinates>
      </Point>
    </Placemark>
    <Placemark>
      <name>Darien Public Schools</name>
      <description><![CDATA[<b>Name:</b> Hindley Elementary School<br><b>Address:</b> , <br><b>SSID:</b> eduroam<br><b>Enc:</b> WPA2<br><b>AP:</b> -<br>]]></description>
      <Point>
        <coordinates>-73.4882435,41.0588192,0</coordinates>
      </Point>
    </Placemark>
    <Placemark>
      <name>Darien Public Schools</name>
      <description><![CDATA[<b>Name:</b> Holmes Elementary School<br><b>Address:</b> , <br><b>SSID:</b> eduroam<br><b>Enc:</b> WPA2<br><b>AP:</b> -<br>]]></description>
      <Point>
        <coordinates>-73.5125689,41.079243,0</coordinates>
      </Point>
    </Placemark>
    <Placemark>
      <name>Darien Public Schools</name>
      <description><![CDATA[<b>Name:</b> Middlesex Middle School<br><b>Address:</b> , <br><b>SSID:</b> eduroam<br><b>Enc:</b> WPA2<br><b>AP:</b> -<br>]]></description>
      <Point>
        <coordinates>-73.4971053,41.0734495,0</coordinates>
      </Point>
    </Placemark>
    <Placemark>
      <name>Darien Public Schools</name>
      <description><![CDATA[<b>Name:</b> Ox Ridge Elementary School<br><b>Address:</b> , <br><b>SSID:</b> eduroam<br><b>Enc:</b> WPA2<br><b>AP:</b> -<br>]]></description>
      <Point>
        <coordinates>-73.485645,41.1031426,0</coordinates>
      </Point>
    </Placemark>
    <Placemark>
      <name>Darien Public Schools</name>
      <description><![CDATA[<b>Name:</b> Royle Elementary School<br><b>Address:</b> , <br><b>SSID:</b> eduroam<br><b>Enc:</b> WPA2<br><b>AP:</b> -<br>]]></description>
      <Point>
        <coordinates>-73.4745293,41.0870499,0</coordinates>
      </Point>
    </Placemark>
    <Placemark>
      <name>Darien Public Schools</name>
      <description><![CDATA[<b>Name:</b> Tokeneke Elementary School<br><b>Address:</b> , <br><b>SSID:</b> eduroam<br><b>Enc:</b> WPA2<br><b>AP:</b> -<br>]]></description>
      <Point>
        <coordinates>-73.4580272,41.0738769,0</coordinates>
      </Point>
    </Placemark>
    <Placemark>
      <name>Department of Veterans Affairs</name>
      <description><![CDATA[<b>Name:</b> Newington HCS<br><b>Address:</b> , <br><b>SSID:</b> eduroam<br><b>Enc:</b> WPA2<br><b>AP:</b> -<br>]]></description>
      <Point>
        <coordinates>-72.74164,41.70111,0</coordinates>
      </Point>
    </Placemark>
    <Placemark>
      <name>Department of Veterans Affairs</name>
      <description><![CDATA[<b>Name:</b> West Haven VA Medical Center<br><b>Address:</b> , <br><b>SSID:</b> eduroam<br><b>Enc:</b> WPA2<br><b>AP:</b> -<br>]]></description>
      <Point>
        <coordinates>-72.95983,41.28366,0</coordinates>
      </Point>
    </Placemark>
    <Placemark>
      <name>Douglas Library of Hebron</name>
      <description><![CDATA[<b>Name:</b> Douglas Library of Hebron<br><b>Address:</b> , <br><b>SSID:</b> eduroam<br><b>Enc:</b> WPA2<br><b>AP:</b> 6<br>]]></description>
      <Point>
        <coordinates>-72.3639016,41.657998,0</coordinates>
      </Point>
    </Placemark>
    <Placemark>
      <name>Eastern Connecticut State University</name>
      <description><![CDATA[<b>Name:</b> Eastern Connecticut State University<br><b>Address:</b> , <br><b>SSID:</b> eduroam<br><b>Enc:</b> WPA2+WPA<br><b>AP:</b> 1100<br>]]></description>
      <Point>
        <coordinates>-72.2177696,41.72149,0</coordinates>
      </Point>
    </Placemark>
    <Placemark>
      <name>Fairfield University</name>
      <description><![CDATA[<b>Name:</b> Fairfield University<br><b>Address:</b> , <br><b>SSID:</b> eduroam<br><b>Enc:</b> WPA2+WPA<br><b>AP:</b> 2300<br>]]></description>
      <Point>
        <coordinates>-73.2541187,41.1612052,0</coordinates>
      </Point>
    </Placemark>
    <Placemark>
      <name>Goodwin University</name>
      <description><![CDATA[<b>Name:</b> Goodwin University<br><b>Address:</b> , <br><b>SSID:</b> eduroam<br><b>Enc:</b> WPA2<br><b>AP:</b> 150<br>]]></description>
      <Point>
        <coordinates>-72.6402993,41.7428742,0</coordinates>
      </Point>
    </Placemark>
    <Placemark>
      <name>Hartford Public Library</name>
      <description><![CDATA[<b>Name:</b> HPL - Barbour Library<br><b>Address:</b> , <br><b>SSID:</b> eduroam<br><b>Enc:</b> WPA2<br><b>AP:</b> 1<br>]]></description>
      <Point>
        <coordinates>-72.6783563,41.7928069,0</coordinates>
      </Point>
    </Placemark>
    <Placemark>
      <name>Hartford Public Library</name>
      <description><![CDATA[<b>Name:</b> HPL - Camp Field<br><b>Address:</b> , <br><b>SSID:</b> eduroam<br><b>Enc:</b> WPA2<br><b>AP:</b> 1<br>]]></description>
      <Point>
        <coordinates>-72.682225,41.742302,0</coordinates>
      </Point>
    </Placemark>
    <Placemark>
      <name>Hartford Public Library</name>
      <description><![CDATA[<b>Name:</b> HPL - Dwight Library<br><b>Address:</b> , <br><b>SSID:</b> eduroam<br><b>Enc:</b> WPA2<br><b>AP:</b> 1<br>]]></description>
      <Point>
        <coordinates>-72.707429,41.7565937,0</coordinates>
      </Point>
    </Placemark>
    <Placemark>
      <name>Hartford Public Library</name>
      <description><![CDATA[<b>Name:</b> HPL - Park Street Library<br><b>Address:</b> , <br><b>SSID:</b> eduroam<br><b>Enc:</b> WPA2<br><b>AP:</b> 1<br>]]></description>
      <Point>
        <coordinates>-72.686888,41.757893,0</coordinates>
      </Point>
    </Placemark>
    <Placemark>
      <name>Hartford Public Library</name>
      <description><![CDATA[<b>Name:</b> HPL - Ropkins Library<br><b>Address:</b> , <br><b>SSID:</b> eduroam<br><b>Enc:</b> WPA2<br><b>AP:</b> 1<br>]]></description>
      <Point>
        <coordinates>-72.6758313,41.7788869,0</coordinates>
      </Point>
    </Placemark>
    <Placemark>
      <name>Laurel Hill Automotive &amp; Tire</name>
      <description><![CDATA[<b>Name:</b> Laurel Hill Automotive &amp; Tire<br><b>Address:</b> , <br><b>SSID:</b> eduroam<br><b>Enc:</b> WPA2<br><b>AP:</b> 4<br>]]></description>
      <Point>
        <coordinates>-72.0749237,41.5128567,0</coordinates>
      </Point>
    </Placemark>
    <Placemark>
      <name>Mark Twain Library</name>
      <description><![CDATA[<b>Name:</b> Mark Twain Library<br><b>Address:</b> , <br><b>SSID:</b> eduroam<br><b>Enc:</b> WPA2<br><b>AP:</b> -<br>]]></description>
      <Point>
        <coordinates>-73.4008262,41.299685,0</coordinates>
      </Point>
    </Placemark>
    <Placemark>
      <name>Michigan State University</name>
      <description><![CDATA[<b>Name:</b> Stamford Chief Investment Offices<br><b>Address:</b> , <br><b>SSID:</b> eduroam<br><b>Enc:</b> WPA2 + WPA3<br><b>AP:</b> -<br>]]></description>
      <Point>
        <coordinates>-73.5496319,41.0434989,0</coordinates>
      </Point>
    </Placemark>
    <Placemark>
      <name>Middletown Public Schools</name>
      <description><![CDATA[<b>Name:</b> Middletown High School<br><b>Address:</b> , <br><b>SSID:</b> eduroam<br><b>Enc:</b> WPA2<br><b>AP:</b> -<br>]]></description>
      <Point>
        <coordinates>-72.6794186,41.576562,0</coordinates>
      </Point>
    </Placemark>
    <Placemark>
      <name>New Haven Public Schools</name>
      <description><![CDATA[<b>Name:</b> 54 Meadow Street<br><b>Address:</b> , <br><b>SSID:</b> eduroam<br><b>Enc:</b> WPA2+WPA<br><b>AP:</b> 20<br>]]></description>
      <Point>
        <coordinates>-72.9261174,41.2998558,0</coordinates>
      </Point>
    </Placemark>
    <Placemark>
      <name>New Haven Public Schools</name>
      <description><![CDATA[<b>Name:</b> Augusta Lewis Troup School<br><b>Address:</b> , <br><b>SSID:</b> eduroam<br><b>Enc:</b> WPA2+WPA<br><b>AP:</b> 52<br>]]></description>
      <Point>
        <coordinates>-72.942179,41.313367,0</coordinates>
      </Point>
    </Placemark>
    <Placemark>
      <name>New Haven Public Schools</name>
      <description><![CDATA[<b>Name:</b> Barack H. Obama Magnet University School<br><b>Address:</b> , <br><b>SSID:</b> eduroam<br><b>Enc:</b> WPA2+WPA<br><b>AP:</b> 55<br>]]></description>
      <Point>
        <coordinates>-72.9525683,41.3308211,0</coordinates>
      </Point>
    </Placemark>
    <Placemark>
      <name>New Haven Public Schools</name>
      <description><![CDATA[<b>Name:</b> Barnard Environmental Magnet School<br><b>Address:</b> , <br><b>SSID:</b> eduroam<br><b>Enc:</b> WPA2+WPA<br><b>AP:</b> 30<br>]]></description>
      <Point>
        <coordinates>-72.9524235,41.3097978,0</coordinates>
      </Point>
    </Placemark>
    <Placemark>
      <name>New Haven Public Schools</name>
      <description><![CDATA[<b>Name:</b> Beecher Museum School of Arts &amp; Sciences<br><b>Address:</b> , <br><b>SSID:</b> eduroam<br><b>Enc:</b> WPA2+WPA<br><b>AP:</b> 50<br>]]></description>
      <Point>
        <coordinates>-72.9536403,41.3261157,0</coordinates>
      </Point>
    </Placemark>
    <Placemark>
      <name>New Haven Public Schools</name>
      <description><![CDATA[<b>Name:</b> Betsy Ross Arts Magnet School<br><b>Address:</b> , <br><b>SSID:</b> eduroam<br><b>Enc:</b> WPA2+WPA<br><b>AP:</b> 57<br>]]></description>
      <Point>
        <coordinates>-72.9337837,41.288218,0</coordinates>
      </Point>
    </Placemark>
    <Placemark>
      <name>New Haven Public Schools</name>
      <description><![CDATA[<b>Name:</b> Brennan Rogers School of Communication and Media<br><b>Address:</b> , <br><b>SSID:</b> eduroam<br><b>Enc:</b> WPA2+WPA<br><b>AP:</b> 65<br>]]></description>
      <Point>
        <coordinates>-72.9585593,41.3444451,0</coordinates>
      </Point>
    </Placemark>
    <Placemark>
      <name>New Haven Public Schools</name>
      <description><![CDATA[<b>Name:</b> Columbus Family Academy<br><b>Address:</b> , <br><b>SSID:</b> eduroam<br><b>Enc:</b> WPA2+WPA<br><b>AP:</b> 48<br>]]></description>
      <Point>
        <coordinates>-72.8986039,41.3092757,0</coordinates>
      </Point>
    </Placemark>
    <Placemark>
      <name>New Haven Public Schools</name>
      <description><![CDATA[<b>Name:</b> Conte/West Hills Magnet School<br><b>Address:</b> , <br><b>SSID:</b> eduroam<br><b>Enc:</b> WPA2+WPA<br><b>AP:</b> 42<br>]]></description>
      <Point>
        <coordinates>-72.9155944,41.3041004,0</coordinates>
      </Point>
    </Placemark>
    <Placemark>
      <name>New Haven Public Schools</name>
      <description><![CDATA[<b>Name:</b> Cooperative Arts &amp; Humanities High School<br><b>Address:</b> , <br><b>SSID:</b> eduroam<br><b>Enc:</b> WPA2+WPA<br><b>AP:</b> 56<br>]]></description>
      <Point>
        <coordinates>-72.929631,41.3054918,0</coordinates>
      </Point>
    </Placemark>
    <Placemark>
      <name>New Haven Public Schools</name>
      <description><![CDATA[<b>Name:</b> Davis Academy for Arts &amp; Design Innovation Magnet School<br><b>Address:</b> , <br><b>SSID:</b> eduroam<br><b>Enc:</b> WPA2+WPA<br><b>AP:</b> 40<br>]]></description>
      <Point>
        <coordinates>-72.9732763,41.3285059,0</coordinates>
      </Point>
    </Placemark>
    <Placemark>
      <name>New Haven Public Schools</name>
      <description><![CDATA[<b>Name:</b> Dr. Reginald Mayo Early Learning Center<br><b>Address:</b> , <br><b>SSID:</b> eduroam<br><b>Enc:</b> WPA2+WPA<br><b>AP:</b> 47<br>]]></description>
      <Point>
        <coordinates>-72.9361829,41.31723,0</coordinates>
      </Point>
    </Placemark>
    <Placemark>
      <name>New Haven Public Schools</name>
      <description><![CDATA[<b>Name:</b> Elm City Montessori<br><b>Address:</b> , <br><b>SSID:</b> eduroam<br><b>Enc:</b> WPA2+WPA<br><b>AP:</b> 19<br>]]></description>
      <Point>
        <coordinates>-72.9596393,41.3284056,0</coordinates>
      </Point>
    </Placemark>
    <Placemark>
      <name>New Haven Public Schools</name>
      <description><![CDATA[<b>Name:</b> Engineering - Science University Magnet School<br><b>Address:</b> , <br><b>SSID:</b> eduroam<br><b>Enc:</b> WPA2+WPA<br><b>AP:</b> 59<br>]]></description>
      <Point>
        <coordinates>-72.9661733,41.2902012,0</coordinates>
      </Point>
    </Placemark>
    <Placemark>
      <name>New Haven Public Schools</name>
      <description><![CDATA[<b>Name:</b> Hill Central Music Academy<br><b>Address:</b> , <br><b>SSID:</b> eduroam<br><b>Enc:</b> WPA2+WPA<br><b>AP:</b> 6<br>]]></description>
      <Point>
        <coordinates>-72.9359061,41.2951707,0</coordinates>
      </Point>
    </Placemark>
    <Placemark>
      <name>New Haven Public Schools</name>
      <description><![CDATA[<b>Name:</b> Hill Regional Career High School<br><b>Address:</b> , <br><b>SSID:</b> eduroam<br><b>Enc:</b> WPA2+WPA<br><b>AP:</b> 71<br>]]></description>
      <Point>
        <coordinates>-72.9407046,41.3056536,0</coordinates>
      </Point>
    </Placemark>
    <Placemark>
      <name>New Haven Public Schools</name>
      <description><![CDATA[<b>Name:</b> John C. Daniels School of International Communication<br><b>Address:</b> , <br><b>SSID:</b> eduroam<br><b>Enc:</b> WPA2+WPA<br><b>AP:</b> 59<br>]]></description>
      <Point>
        <coordinates>-72.9386862,41.3005947,0</coordinates>
      </Point>
    </Placemark>
    <Placemark>
      <name>New Haven Public Schools</name>
      <description><![CDATA[<b>Name:</b> John S. Martinez Sea and Sky STEM School<br><b>Address:</b> , <br><b>SSID:</b> eduroam<br><b>Enc:</b> WPA2+WPA<br><b>AP:</b> 44<br>]]></description>
      <Point>
        <coordinates>-72.90316,41.30556,0</coordinates>
      </Point>
    </Placemark>
    <Placemark>
      <name>New Haven Public Schools</name>
      <description><![CDATA[<b>Name:</b> King/Robinson Magnet School<br><b>Address:</b> , <br><b>SSID:</b> eduroam<br><b>Enc:</b> WPA2+WPA<br><b>AP:</b> 42<br>]]></description>
      <Point>
        <coordinates>-72.94042,41.333318,0</coordinates>
      </Point>
    </Placemark>
    <Placemark>
      <name>New Haven Public Schools</name>
      <description><![CDATA[<b>Name:</b> Lincoln-Bassett School<br><b>Address:</b> , <br><b>SSID:</b> eduroam<br><b>Enc:</b> WPA2+WPA<br><b>AP:</b> 8<br>]]></description>
      <Point>
        <coordinates>-72.9311075,41.3310037,0</coordinates>
      </Point>
    </Placemark>
    <Placemark>
      <name>New Haven Public Schools</name>
      <description><![CDATA[<b>Name:</b> Metropolitan Business Academy Interdistrict Magnet<br><b>Address:</b> , <br><b>SSID:</b> eduroam<br><b>Enc:</b> WPA2+WPA<br><b>AP:</b> 40<br>]]></description>
      <Point>
        <coordinates>-72.9188338,41.3011808,0</coordinates>
      </Point>
    </Placemark>
    <Placemark>
      <name>New Haven Public Schools</name>
      <description><![CDATA[<b>Name:</b> New Haven Academy<br><b>Address:</b> , <br><b>SSID:</b> eduroam<br><b>Enc:</b> WPA2+WPA<br><b>AP:</b> 46<br>]]></description>
      <Point>
        <coordinates>-72.9190645,41.313214,0</coordinates>
      </Point>
    </Placemark>
    <Placemark>
      <name>New Haven Public Schools</name>
      <description><![CDATA[<b>Name:</b> Riverside Academy<br><b>Address:</b> , <br><b>SSID:</b> eduroam<br><b>Enc:</b> WPA2+WPA<br><b>AP:</b> 14<br>]]></description>
      <Point>
        <coordinates>-72.9289602,41.2858134,0</coordinates>
      </Point>
    </Placemark>
    <Placemark>
      <name>New Haven Public Schools</name>
      <description><![CDATA[<b>Name:</b> Roberto Clemente Leadership Academy for Global Awareness<br><b>Address:</b> , <br><b>SSID:</b> eduroam<br><b>Enc:</b> WPA2+WPA<br><b>AP:</b> 50<br>]]></description>
      <Point>
        <coordinates>-72.9360709,41.2971805,0</coordinates>
      </Point>
    </Placemark>
    <Placemark>
      <name>New Haven Public Schools</name>
      <description><![CDATA[<b>Name:</b> Ross Woodward Classical Studies School<br><b>Address:</b> , <br><b>SSID:</b> eduroam<br><b>Enc:</b> WPA2+WPA<br><b>AP:</b> 39<br>]]></description>
      <Point>
        <coordinates>-72.8780399,41.3234432,0</coordinates>
      </Point>
    </Placemark>
    <Placemark>
      <name>New Haven Public Schools</name>
      <description><![CDATA[<b>Name:</b> Truman School<br><b>Address:</b> , <br><b>SSID:</b> eduroam<br><b>Enc:</b> WPA2+WPA<br><b>AP:</b> 57<br>]]></description>
      <Point>
        <coordinates>-72.9409353,41.2926213,0</coordinates>
      </Point>
    </Placemark>
    <Placemark>
      <name>New Haven Public Schools</name>
      <description><![CDATA[<b>Name:</b> Wilbur Cross High School<br><b>Address:</b> , <br><b>SSID:</b> eduroam<br><b>Enc:</b> WPA2+WPA<br><b>AP:</b> 115<br>]]></description>
      <Point>
        <coordinates>-72.9079652,41.3247275,0</coordinates>
      </Point>
    </Placemark>
    <Placemark>
      <name>New Haven Public Schools</name>
      <description><![CDATA[<b>Name:</b> Worthington Hooker School<br><b>Address:</b> , <br><b>SSID:</b> eduroam<br><b>Enc:</b> WPA2+WPA<br><b>AP:</b> 25<br>]]></description>
      <Point>
        <coordinates>-72.9135273,41.3288965,0</coordinates>
      </Point>
    </Placemark>
    <Placemark>
      <name>New Haven Public Schools</name>
      <description><![CDATA[<b>Name:</b> Worthington Hooker School (K-2)<br><b>Address:</b> , <br><b>SSID:</b> eduroam<br><b>Enc:</b> WPA2+WPA<br><b>AP:</b> 13<br>]]></description>
      <Point>
        <coordinates>-72.914195,41.323717,0</coordinates>
      </Point>
    </Placemark>
    <Placemark>
      <name>New Milford Public Schools</name>
      <description><![CDATA[<b>Name:</b> Hill &amp; Plain Elementary<br><b>Address:</b> , <br><b>SSID:</b> eduroam<br><b>Enc:</b> WPA2<br><b>AP:</b> 5<br>]]></description>
      <Point>
        <coordinates>-73.4309739,41.5351135,0</coordinates>
      </Point>
    </Placemark>
    <Placemark>
      <name>New Milford Public Schools</name>
      <description><![CDATA[<b>Name:</b> New Milford High School<br><b>Address:</b> , <br><b>SSID:</b> eduroam<br><b>Enc:</b> WPA2<br><b>AP:</b> 15<br>]]></description>
      <Point>
        <coordinates>-73.4248708,41.5269637,0</coordinates>
      </Point>
    </Placemark>
    <Placemark>
      <name>New Milford Public Schools</name>
      <description><![CDATA[<b>Name:</b> Northville Elementary School<br><b>Address:</b> , <br><b>SSID:</b> eduroam<br><b>Enc:</b> WPA2<br><b>AP:</b> 5<br>]]></description>
      <Point>
        <coordinates>-73.3951049,41.6184111,0</coordinates>
      </Point>
    </Placemark>
    <Placemark>
      <name>New Milford Public Schools</name>
      <description><![CDATA[<b>Name:</b> Sarah Noble Intermediate School<br><b>Address:</b> , <br><b>SSID:</b> eduroam<br><b>Enc:</b> WPA2<br><b>AP:</b> 7<br>]]></description>
      <Point>
        <coordinates>-73.4183894,41.5636738,0</coordinates>
      </Point>
    </Placemark>
    <Placemark>
      <name>New Milford Public Schools</name>
      <description><![CDATA[<b>Name:</b> Schaghticoke Middle School<br><b>Address:</b> , <br><b>SSID:</b> eduroam<br><b>Enc:</b> WPA2<br><b>AP:</b> 10<br>]]></description>
      <Point>
        <coordinates>-73.3923285,41.6203214,0</coordinates>
      </Point>
    </Placemark>
    <Placemark>
      <name>Norwich Public Utilities</name>
      <description><![CDATA[<b>Name:</b> Greenville<br><b>Address:</b> , <br><b>SSID:</b> eduroam<br><b>Enc:</b> WPA2<br><b>AP:</b> 1<br>]]></description>
      <Point>
        <coordinates>-72.0732607,41.529956,0</coordinates>
      </Point>
    </Placemark>
    <Placemark>
      <name>Norwich Public Utilities</name>
      <description><![CDATA[<b>Name:</b> Howard T. Brown Park<br><b>Address:</b> , <br><b>SSID:</b> eduroam<br><b>Enc:</b> WPA2<br><b>AP:</b> 1<br>]]></description>
      <Point>
        <coordinates>-72.0780754,41.5227562,0</coordinates>
      </Point>
    </Placemark>
    <Placemark>
      <name>Norwich Public Utilities</name>
      <description><![CDATA[<b>Name:</b> Oakwood Knoll<br><b>Address:</b> , <br><b>SSID:</b> eduroam<br><b>Enc:</b> WPA2<br><b>AP:</b> 1<br>]]></description>
      <Point>
        <coordinates>-72.0957663,41.5111449,0</coordinates>
      </Point>
    </Placemark>
    <Placemark>
      <name>Norwich Public Utilities</name>
      <description><![CDATA[<b>Name:</b> Otis Library<br><b>Address:</b> , <br><b>SSID:</b> eduroam<br><b>Enc:</b> WPA2<br><b>AP:</b> 2<br>]]></description>
      <Point>
        <coordinates>-72.0735865,41.524446,0</coordinates>
      </Point>
    </Placemark>
    <Placemark>
      <name>Norwich Public Utilities</name>
      <description><![CDATA[<b>Name:</b> Rose City Senior Center<br><b>Address:</b> , <br><b>SSID:</b> eduroam<br><b>Enc:</b> WPA2<br><b>AP:</b> 1<br>]]></description>
      <Point>
        <coordinates>-72.0761596,41.5500654,0</coordinates>
      </Point>
    </Placemark>
    <Placemark>
      <name>Norwich Public Utilities</name>
      <description><![CDATA[<b>Name:</b> Taftville<br><b>Address:</b> , <br><b>SSID:</b> eduroam<br><b>Enc:</b> WPA2<br><b>AP:</b> 1<br>]]></description>
      <Point>
        <coordinates>-72.0542872,41.5690022,0</coordinates>
      </Point>
    </Placemark>
    <Placemark>
      <name>Oakdale Fire Department</name>
      <description><![CDATA[<b>Name:</b> Oakdale Fire Department<br><b>Address:</b> , <br><b>SSID:</b> eduroam<br><b>Enc:</b> WPA2<br><b>AP:</b> 10<br>]]></description>
      <Point>
        <coordinates>-72.2049973,41.4710075,0</coordinates>
      </Point>
    </Placemark>
    <Placemark>
      <name>Public Library of New London</name>
      <description><![CDATA[<b>Name:</b> Public Library of New London<br><b>Address:</b> , <br><b>SSID:</b> eduroam<br><b>Enc:</b> WPA2<br><b>AP:</b> 4<br>]]></description>
      <Point>
        <coordinates>-72.0993595,41.3549599,0</coordinates>
      </Point>
    </Placemark>
    <Placemark>
      <name>Quinnipiac University</name>
      <description><![CDATA[<b>Name:</b> Quinnipiac University<br><b>Address:</b> , <br><b>SSID:</b> eduroam<br><b>Enc:</b> WPA2<br><b>AP:</b> 1<br>]]></description>
      <Point>
        <coordinates>-72.8940708,41.4188295,0</coordinates>
      </Point>
    </Placemark>
    <Placemark>
      <name>Russell Library</name>
      <description><![CDATA[<b>Name:</b> Russell Library<br><b>Address:</b> , <br><b>SSID:</b> eduroam<br><b>Enc:</b> WPA2<br><b>AP:</b> 27<br>]]></description>
      <Point>
        <coordinates>-72.6523896,41.5599861,0</coordinates>
      </Point>
    </Placemark>
    <Placemark>
      <name>Sacred Heart University</name>
      <description><![CDATA[<b>Name:</b> Sacred Heart Univeristy<br><b>Address:</b> , <br><b>SSID:</b> eduroam<br><b>Enc:</b> WPA2+WPA<br><b>AP:</b> 2000<br>]]></description>
      <Point>
        <coordinates>-73.2409931,41.2222395,0</coordinates>
      </Point>
    </Placemark>
    <Placemark>
      <name>Southern Connecticut State University</name>
      <description><![CDATA[<b>Name:</b> Southern Connecticut State University<br><b>Address:</b> , <br><b>SSID:</b> eduroam<br><b>Enc:</b> WPA2 + WPA3<br><b>AP:</b> 769<br>]]></description>
      <Point>
        <coordinates>-72.9513984,41.3433856,0</coordinates>
      </Point>
    </Placemark>
    <Placemark>
      <name>Stonington Free Library</name>
      <description><![CDATA[<b>Name:</b> Stonington Free Library<br><b>Address:</b> , <br><b>SSID:</b> eduroam<br><b>Enc:</b> WPA2 + WPA3<br><b>AP:</b> 1<br>]]></description>
      <Point>
        <coordinates>-71.9065134,41.3364224,0</coordinates>
      </Point>
    </Placemark>
    <Placemark>
      <name>Stratford Library</name>
      <description><![CDATA[<b>Name:</b> Stratford Library<br><b>Address:</b> , <br><b>SSID:</b> eduroam<br><b>Enc:</b> WPA2<br><b>AP:</b> 13<br>]]></description>
      <Point>
        <coordinates>-73.131141,41.1906062,0</coordinates>
      </Point>
    </Placemark>
    <Placemark>
      <name>Suffield Academy</name>
      <description><![CDATA[<b>Name:</b> Suffield Academy<br><b>Address:</b> , <br><b>SSID:</b> eduroam<br><b>Enc:</b> WPA2<br><b>AP:</b> 450<br>]]></description>
      <Point>
        <coordinates>-72.650892,41.9852744,0</coordinates>
      </Point>
    </Placemark>
    <Placemark>
      <name>Terryville Library</name>
      <description><![CDATA[<b>Name:</b> Terryville Public Library<br><b>Address:</b> , <br><b>SSID:</b> eduroam<br><b>Enc:</b> WPA2<br><b>AP:</b> 4<br>]]></description>
      <Point>
        <coordinates>-73.0130852,41.6793825,0</coordinates>
      </Point>
    </Placemark>
    <Placemark>
      <name>The Brookfield Library</name>
      <description><![CDATA[<b>Name:</b> Brookfield LIbrary<br><b>Address:</b> , <br><b>SSID:</b> eduroam<br><b>Enc:</b> WPA2<br><b>AP:</b> 7<br>]]></description>
      <Point>
        <coordinates>-73.3899527,41.4697353,0</coordinates>
      </Point>
    </Placemark>
    <Placemark>
      <name>The Jackson Laboratory</name>
      <description><![CDATA[<b>Name:</b> Farmington<br><b>Address:</b> , <br><b>SSID:</b> eduroam<br><b>Enc:</b> WPA2<br><b>AP:</b> 130<br>]]></description>
      <Point>
        <coordinates>-72.7940168,41.7325571,0</coordinates>
      </Point>
    </Placemark>
    <Placemark>
      <name>Town of Brookfield</name>
      <description><![CDATA[<b>Name:</b> Brookfield Municipal Campus<br><b>Address:</b> , <br><b>SSID:</b> eduroam<br><b>Enc:</b> WPA2<br><b>AP:</b> 7<br>]]></description>
      <Point>
        <coordinates>-73.3996038,41.4657182,0</coordinates>
      </Point>
    </Placemark>
    <Placemark>
      <name>Town of Colchester</name>
      <description><![CDATA[<b>Name:</b> Colchester Fire Department<br><b>Address:</b> , <br><b>SSID:</b> eduroam<br><b>Enc:</b> WPA2<br><b>AP:</b> 1<br>]]></description>
      <Point>
        <coordinates>-72.3400624,41.5797153,0</coordinates>
      </Point>
    </Placemark>
    <Placemark>
      <name>Town of Colchester</name>
      <description><![CDATA[<b>Name:</b> Colchester Fleet Garage Commuter Parking<br><b>Address:</b> , <br><b>SSID:</b> eduroam<br><b>Enc:</b> WPA2<br><b>AP:</b> 4<br>]]></description>
      <Point>
        <coordinates>-72.3487143,41.5810063,0</coordinates>
      </Point>
    </Placemark>
    <Placemark>
      <name>Town of Colchester</name>
      <description><![CDATA[<b>Name:</b> Colchester Rec Plex<br><b>Address:</b> , <br><b>SSID:</b> eduroam<br><b>Enc:</b> WPA2<br><b>AP:</b> 2<br>]]></description>
      <Point>
        <coordinates>-72.3487822,41.5856502,0</coordinates>
      </Point>
    </Placemark>
    <Placemark>
      <name>Town of Colchester</name>
      <description><![CDATA[<b>Name:</b> Colchester Town Hall<br><b>Address:</b> , <br><b>SSID:</b> eduroam<br><b>Enc:</b> WPA2<br><b>AP:</b> 8<br>]]></description>
      <Point>
        <coordinates>-72.3288196,41.5759855,0</coordinates>
      </Point>
    </Placemark>
    <Placemark>
      <name>Town of Colchester</name>
      <description><![CDATA[<b>Name:</b> Cragin Memorial Library of Colchester<br><b>Address:</b> , <br><b>SSID:</b> eduroam<br><b>Enc:</b> WPA2<br><b>AP:</b> 1<br>]]></description>
      <Point>
        <coordinates>-72.3333714,41.5745842,0</coordinates>
      </Point>
    </Placemark>
    <Placemark>
      <name>Town of Groton</name>
      <description><![CDATA[<b>Name:</b> Groton Community Center<br><b>Address:</b> , <br><b>SSID:</b> eduroam<br><b>Enc:</b> WPA2<br><b>AP:</b> 19<br>]]></description>
      <Point>
        <coordinates>-72.0324163,41.3451393,0</coordinates>
      </Point>
    </Placemark>
    <Placemark>
      <name>Town of Groton</name>
      <description><![CDATA[<b>Name:</b> Groton Human Services<br><b>Address:</b> , <br><b>SSID:</b> eduroam<br><b>Enc:</b> WPA2<br><b>AP:</b> 4<br>]]></description>
      <Point>
        <coordinates>-72.0373097,41.3474437,0</coordinates>
      </Point>
    </Placemark>
    <Placemark>
      <name>Town of Groton</name>
      <description><![CDATA[<b>Name:</b> Groton Town Hall<br><b>Address:</b> , <br><b>SSID:</b> eduroam<br><b>Enc:</b> WPA2<br><b>AP:</b> 12<br>]]></description>
      <Point>
        <coordinates>-72.0334266,41.3454261,0</coordinates>
      </Point>
    </Placemark>
    <Placemark>
      <name>Town of Groton</name>
      <description><![CDATA[<b>Name:</b> Groton Town Hall Annex<br><b>Address:</b> , <br><b>SSID:</b> eduroam<br><b>Enc:</b> WPA2<br><b>AP:</b> 5<br>]]></description>
      <Point>
        <coordinates>-72.0091925,41.3415329,0</coordinates>
      </Point>
    </Placemark>
    <Placemark>
      <name>Town of Groton</name>
      <description><![CDATA[<b>Name:</b> Thrive 55+ (Senior Center)<br><b>Address:</b> , <br><b>SSID:</b> eduroam<br><b>Enc:</b> WPA2<br><b>AP:</b> 15<br>]]></description>
      <Point>
        <coordinates>-72.0302142,41.3494396,0</coordinates>
      </Point>
    </Placemark>
    <Placemark>
      <name>Town of New Milford</name>
      <description><![CDATA[<b>Name:</b> Clatter Valley Park<br><b>Address:</b> , <br><b>SSID:</b> eduroam<br><b>Enc:</b> WPA2<br><b>AP:</b> 2<br>]]></description>
      <Point>
        <coordinates>-73.393083,41.5511443,0</coordinates>
      </Point>
    </Placemark>
    <Placemark>
      <name>Town of New Milford</name>
      <description><![CDATA[<b>Name:</b> John Pettibone Community Center<br><b>Address:</b> , <br><b>SSID:</b> eduroam<br><b>Enc:</b> WPA2<br><b>AP:</b> 24<br>]]></description>
      <Point>
        <coordinates>-73.4134598,41.5635386,0</coordinates>
      </Point>
    </Placemark>
    <Placemark>
      <name>Town of New Milford</name>
      <description><![CDATA[<b>Name:</b> Young's Field Park<br><b>Address:</b> , <br><b>SSID:</b> eduroam<br><b>Enc:</b> WPA2<br><b>AP:</b> 4<br>]]></description>
      <Point>
        <coordinates>-73.4143483,41.5756458,0</coordinates>
      </Point>
    </Placemark>
    <Placemark>
      <name>Town of Newington</name>
      <description><![CDATA[<b>Name:</b> Lucy Robbins Welles Library<br><b>Address:</b> , <br><b>SSID:</b> eduroam<br><b>Enc:</b> WPA2<br><b>AP:</b> 1<br>]]></description>
      <Point>
        <coordinates>-72.7282584,41.6970895,0</coordinates>
      </Point>
    </Placemark>
    <Placemark>
      <name>Town of Newington</name>
      <description><![CDATA[<b>Name:</b> Mill Pond Park<br><b>Address:</b> , <br><b>SSID:</b> eduroam<br><b>Enc:</b> WPA2<br><b>AP:</b> 4<br>]]></description>
      <Point>
        <coordinates>-72.7296661,41.6933053,0</coordinates>
      </Point>
    </Placemark>
    <Placemark>
      <name>Town of Newington</name>
      <description><![CDATA[<b>Name:</b> Newington Town Hall<br><b>Address:</b> , <br><b>SSID:</b> eduroam<br><b>Enc:</b> WPA2<br><b>AP:</b> 1<br>]]></description>
      <Point>
        <coordinates>-72.7293371,41.6970269,0</coordinates>
      </Point>
    </Placemark>
    <Placemark>
      <name>Town of Newington</name>
      <description><![CDATA[<b>Name:</b> Senior and Disabled Center<br><b>Address:</b> , <br><b>SSID:</b> eduroam<br><b>Enc:</b> WPA2<br><b>AP:</b> 1<br>]]></description>
      <Point>
        <coordinates>-72.7296921,41.6980337,0</coordinates>
      </Point>
    </Placemark>
    <Placemark>
      <name>Town of Windsor Locks</name>
      <description><![CDATA[<b>Name:</b> Windsor Locks Town Hall<br><b>Address:</b> , <br><b>SSID:</b> eduroam<br><b>Enc:</b> WPA2<br><b>AP:</b> 14<br>]]></description>
      <Point>
        <coordinates>-72.6303855,41.9290576,0</coordinates>
      </Point>
    </Placemark>
    <Placemark>
      <name>Trinity College</name>
      <description><![CDATA[<b>Name:</b> Trinity College<br><b>Address:</b> , <br><b>SSID:</b> eduroam<br><b>Enc:</b> WPA2+WPA<br><b>AP:</b> 1300<br>]]></description>
      <Point>
        <coordinates>-72.6906837,41.7473799,0</coordinates>
      </Point>
    </Placemark>
    <Placemark>
      <name>UConn Health</name>
      <description><![CDATA[<b>Name:</b> UConn Health<br><b>Address:</b> , <br><b>SSID:</b> eduroam<br><b>Enc:</b> WPA2<br><b>AP:</b> -<br>]]></description>
      <Point>
        <coordinates>-72.7905178,41.7307464,0</coordinates>
      </Point>
    </Placemark>
    <Placemark>
      <name>University of Connecticut</name>
      <description><![CDATA[<b>Name:</b> Main Campus<br><b>Address:</b> , <br><b>SSID:</b> eduroam<br><b>Enc:</b> WPA2+WPA<br><b>AP:</b> -<br>]]></description>
      <Point>
        <coordinates>-72.2528448,41.808527,0</coordinates>
      </Point>
    </Placemark>
    <Placemark>
      <name>University of Connecticut</name>
      <description><![CDATA[<b>Name:</b> UConn Health Center<br><b>Address:</b> , <br><b>SSID:</b> eduroam<br><b>Enc:</b> WPA2+WPA<br><b>AP:</b> -<br>]]></description>
      <Point>
        <coordinates>-72.7956006,41.7344559,0</coordinates>
      </Point>
    </Placemark>
    <Placemark>
      <name>Waterbury Public Schools</name>
      <description><![CDATA[<b>Name:</b> Waterbury Public Schools<br><b>Address:</b> , <br><b>SSID:</b> eduroam<br><b>Enc:</b> WPA2<br><b>AP:</b> -<br>]]></description>
      <Point>
        <coordinates>-73.043053,41.55474,0</coordinates>
      </Point>
    </Placemark>
    <Placemark>
      <name>Wesleyan University</name>
      <description><![CDATA[<b>Name:</b> Main Campus<br><b>Address:</b> , <br><b>SSID:</b> eduroam<br><b>Enc:</b> WPA2+WPA<br><b>AP:</b> 1100<br>]]></description>
      <Point>
        <coordinates>-72.6567891,41.5567408,0</coordinates>
      </Point>
    </Placemark>
    <Placemark>
      <name>West Hartford Public Library</name>
      <description><![CDATA[<b>Name:</b> Bishops Corner Library<br><b>Address:</b> , <br><b>SSID:</b> eduroam<br><b>Enc:</b> WPA2<br><b>AP:</b> 2<br>]]></description>
      <Point>
        <coordinates>-72.7453713,41.7873878,0</coordinates>
      </Point>
    </Placemark>
    <Placemark>
      <name>West Hartford Public Library</name>
      <description><![CDATA[<b>Name:</b> Foxon Branch Library<br><b>Address:</b> , <br><b>SSID:</b> eduroam<br><b>Enc:</b> WPA2<br><b>AP:</b> 2<br>]]></description>
      <Point>
        <coordinates>-72.7280703,41.7306531,0</coordinates>
      </Point>
    </Placemark>
    <Placemark>
      <name>West Hartford Public Library</name>
      <description><![CDATA[<b>Name:</b> Noah Webster Library<br><b>Address:</b> , <br><b>SSID:</b> eduroam<br><b>Enc:</b> WPA2<br><b>AP:</b> 11<br>]]></description>
      <Point>
        <coordinates>-72.741485,41.7606651,0</coordinates>
      </Point>
    </Placemark>
    <Placemark>
      <name>West Haven Public Library</name>
      <description><![CDATA[<b>Name:</b> West Haven Public Library - Main Branch<br><b>Address:</b> , <br><b>SSID:</b> eduroam<br><b>Enc:</b> WPA2<br><b>AP:</b> 1<br>]]></description>
      <Point>
        <coordinates>-72.9519642,41.2755831,0</coordinates>
      </Point>
    </Placemark>
    <Placemark>
      <name>Western Connecticut State University</name>
      <description><![CDATA[<b>Name:</b> WCSU<br><b>Address:</b> , <br><b>SSID:</b> eduroam<br><b>Enc:</b> WPA2<br><b>AP:</b> 1000<br>]]></description>
      <Point>
        <coordinates>-73.4422587,41.3983761,0</coordinates>
      </Point>
    </Placemark>
    <Placemark>
      <name>Wilton Public Schools</name>
      <description><![CDATA[<b>Name:</b> Wilton High School<br><b>Address:</b> , <br><b>SSID:</b> eduroam<br><b>Enc:</b> WPA2<br><b>AP:</b> 135<br>]]></description>
      <Point>
        <coordinates>-73.4334904,41.2120429,0</coordinates>
      </Point>
    </Placemark>
    <Placemark>
      <name>Windsor Locks Public Library</name>
      <description><![CDATA[<b>Name:</b> Windsor Locks Public Library<br><b>Address:</b> , <br><b>SSID:</b> eduroam<br><b>Enc:</b> WPA2<br><b>AP:</b> 3<br>]]></description>
      <Point>
        <coordinates>-72.6287492,41.9282251,0</coordinates>
      </Point>
    </Placemark>
    <Placemark>
      <name>Yale University</name>
      <description><![CDATA[<b>Name:</b> Yale University<br><b>Address:</b> , <br><b>SSID:</b> eduroam<br><b>Enc:</b> WPA2<br><b>AP:</b> -<br>]]></description>
      <Point>
        <coordinates>-72.9301898,41.3088069,0</coordinates>
      </Point>
    </Placemark>
  </Document>
</kml>
