<?xml version="1.0" encoding="UTF-8"?>
<kml xmlns="http://www.opengis.net/kml/2.2">
  <Document>
    <name>eduroam — Tennessee</name>
    <description><![CDATA[43 eduroam service locations in Tennessee.<br><br>Published by <a href="https://scs.nevada.edu/eduroam">NSHE System Computing Services</a>. Learn more about eduroam Support Organizations from <a href="https://incommon.org/eduroam">Internet2</a>, the eduroam National Roaming Operator for the United States.<br>These maps are derived from data published by GÉANT (<a href="https://monitor.eduroam.org/kml/us.kml">monitor.eduroam.org</a>). This is not an official GÉANT or eduroam publication.<br>eduroam is a registered trademark of the GÉANT Association.<br>Region boundaries are derived from US Census Bureau cartographic boundary files, which as works of the US federal government are in the public domain.<br>Maps generated by eduroam-us-regional-maps, which is BSD 3-Clause licensed.]]></description>
    <open>1</open>
    <Placemark>
      <name>ANYROAM - Philippe</name>
      <description><![CDATA[<b>Name:</b> Bikezoo<br><b>Address:</b> , <br><b>SSID:</b> eduroam<br><b>Enc:</b> WPA2+WPA<br><b>AP:</b> 1<br>]]></description>
      <Point>
        <coordinates>-83.9873615,35.9383358,0</coordinates>
      </Point>
    </Placemark>
    <Placemark>
      <name>ANYROAM - Philippe</name>
      <description><![CDATA[<b>Name:</b> Vogelzang<br><b>Address:</b> , <br><b>SSID:</b> eduroam<br><b>Enc:</b> WPA3+WPA2+WPA<br><b>AP:</b> 2<br>]]></description>
      <Point>
        <coordinates>-83.9599367,35.9456362,0</coordinates>
      </Point>
    </Placemark>
    <Placemark>
      <name>Department of Veterans Affairs</name>
      <description><![CDATA[<b>Name:</b> Memphis VA Medical Center<br><b>Address:</b> , <br><b>SSID:</b> eduroam<br><b>Enc:</b> WPA2<br><b>AP:</b> -<br>]]></description>
      <Point>
        <coordinates>-90.02581,35.14342,0</coordinates>
      </Point>
    </Placemark>
    <Placemark>
      <name>Department of Veterans Affairs</name>
      <description><![CDATA[<b>Name:</b> Murfreesboro VA Medical Center<br><b>Address:</b> , <br><b>SSID:</b> eduroam<br><b>Enc:</b> WPA2<br><b>AP:</b> -<br>]]></description>
      <Point>
        <coordinates>-86.38049,35.9145,0</coordinates>
      </Point>
    </Placemark>
    <Placemark>
      <name>Department of Veterans Affairs</name>
      <description><![CDATA[<b>Name:</b> Nashville VA Medical Center<br><b>Address:</b> , <br><b>SSID:</b> eduroam<br><b>Enc:</b> WPA2<br><b>AP:</b> -<br>]]></description>
      <Point>
        <coordinates>-86.80375,36.14195,0</coordinates>
      </Point>
    </Placemark>
    <Placemark>
      <name>East Tennessee State University</name>
      <description><![CDATA[<b>Name:</b> ETSU Campus Recreation Field Complex<br><b>Address:</b> , <br><b>SSID:</b> eduroam<br><b>Enc:</b> WPA2<br><b>AP:</b> 1<br>]]></description>
      <Point>
        <coordinates>-82.3778536,36.2946182,0</coordinates>
      </Point>
    </Placemark>
    <Placemark>
      <name>East Tennessee State University</name>
      <description><![CDATA[<b>Name:</b> ETSU Child Study Center<br><b>Address:</b> , <br><b>SSID:</b> eduroam<br><b>Enc:</b> WPA2<br><b>AP:</b> 3<br>]]></description>
      <Point>
        <coordinates>-82.3831985,36.2974794,0</coordinates>
      </Point>
    </Placemark>
    <Placemark>
      <name>East Tennessee State University</name>
      <description><![CDATA[<b>Name:</b> ETSU Gray Fossil Site<br><b>Address:</b> , <br><b>SSID:</b> eduroam<br><b>Enc:</b> WPA2<br><b>AP:</b> 4<br>]]></description>
      <Point>
        <coordinates>-82.4983711,36.3864621,0</coordinates>
      </Point>
    </Placemark>
    <Placemark>
      <name>East Tennessee State University</name>
      <description><![CDATA[<b>Name:</b> ETSU Keystone Community Center<br><b>Address:</b> , <br><b>SSID:</b> eduroam<br><b>Enc:</b> WPA2<br><b>AP:</b> 2<br>]]></description>
      <Point>
        <coordinates>-82.3378136,36.3203808,0</coordinates>
      </Point>
    </Placemark>
    <Placemark>
      <name>East Tennessee State University</name>
      <description><![CDATA[<b>Name:</b> ETSU Kingsport<br><b>Address:</b> , <br><b>SSID:</b> eduroam<br><b>Enc:</b> WPA2<br><b>AP:</b> 26<br>]]></description>
      <Point>
        <coordinates>-82.6402352,36.5606645,0</coordinates>
      </Point>
    </Placemark>
    <Placemark>
      <name>East Tennessee State University</name>
      <description><![CDATA[<b>Name:</b> ETSU Main Campus<br><b>Address:</b> , <br><b>SSID:</b> eduroam<br><b>Enc:</b> WPA2<br><b>AP:</b> 1853<br>]]></description>
      <Point>
        <coordinates>-82.3667992,36.3041913,0</coordinates>
      </Point>
    </Placemark>
    <Placemark>
      <name>East Tennessee State University</name>
      <description><![CDATA[<b>Name:</b> ETSU Nave Paramedical Center<br><b>Address:</b> , <br><b>SSID:</b> eduroam<br><b>Enc:</b> WPA2<br><b>AP:</b> 13<br>]]></description>
      <Point>
        <coordinates>-82.2407562,36.3442401,0</coordinates>
      </Point>
    </Placemark>
    <Placemark>
      <name>East Tennessee State University</name>
      <description><![CDATA[<b>Name:</b> ETSU Observatory<br><b>Address:</b> , <br><b>SSID:</b> eduroam<br><b>Enc:</b> WPA2<br><b>AP:</b> 1<br>]]></description>
      <Point>
        <coordinates>-82.3717446,36.2951162,0</coordinates>
      </Point>
    </Placemark>
    <Placemark>
      <name>East Tennessee State University</name>
      <description><![CDATA[<b>Name:</b> ETSU Sevierville Campus<br><b>Address:</b> , <br><b>SSID:</b> eduroam<br><b>Enc:</b> WPA2<br><b>AP:</b> 18<br>]]></description>
      <Point>
        <coordinates>-83.4873943,35.840745,0</coordinates>
      </Point>
    </Placemark>
    <Placemark>
      <name>East Tennessee State University</name>
      <description><![CDATA[<b>Name:</b> ETSU Valleybrook Campus<br><b>Address:</b> , <br><b>SSID:</b> eduroam<br><b>Enc:</b> WPA2<br><b>AP:</b> 17<br>]]></description>
      <Point>
        <coordinates>-82.5405373,36.4252751,0</coordinates>
      </Point>
    </Placemark>
    <Placemark>
      <name>Sewanee-The University of the South</name>
      <description><![CDATA[<b>Name:</b> The University of the South<br><b>Address:</b> , <br><b>SSID:</b> eduroam<br><b>Enc:</b> WPA2<br><b>AP:</b> 1000<br>]]></description>
      <Point>
        <coordinates>-85.920703,35.204046,0</coordinates>
      </Point>
    </Placemark>
    <Placemark>
      <name>Tennessee Technological University</name>
      <description><![CDATA[<b>Name:</b> Tennessee Technological University<br><b>Address:</b> , <br><b>SSID:</b> eduroam<br><b>Enc:</b> WPA2<br><b>AP:</b> 1<br>]]></description>
      <Point>
        <coordinates>-85.5040285,36.1746834,0</coordinates>
      </Point>
    </Placemark>
    <Placemark>
      <name>The University of Memphis</name>
      <description><![CDATA[<b>Name:</b> University of Memphis - Collierville<br><b>Address:</b> , <br><b>SSID:</b> eduroam<br><b>Enc:</b> WPA2<br><b>AP:</b> 20<br>]]></description>
      <Point>
        <coordinates>-89.6693288,35.0449536,0</coordinates>
      </Point>
    </Placemark>
    <Placemark>
      <name>The University of Memphis</name>
      <description><![CDATA[<b>Name:</b> University of Memphis - Cordova<br><b>Address:</b> , <br><b>SSID:</b> eduroam<br><b>Enc:</b> WPA2<br><b>AP:</b> 25<br>]]></description>
      <Point>
        <coordinates>-89.7972786,35.1593017,0</coordinates>
      </Point>
    </Placemark>
    <Placemark>
      <name>The University of Memphis</name>
      <description><![CDATA[<b>Name:</b> University of Memphis - Lambuth Campus<br><b>Address:</b> , <br><b>SSID:</b> eduroam<br><b>Enc:</b> WPA2<br><b>AP:</b> 300<br>]]></description>
      <Point>
        <coordinates>-88.8292966,35.623582,0</coordinates>
      </Point>
    </Placemark>
    <Placemark>
      <name>The University of Memphis</name>
      <description><![CDATA[<b>Name:</b> University of Memphis - Law School<br><b>Address:</b> , <br><b>SSID:</b> eduroam<br><b>Enc:</b> WPA2<br><b>AP:</b> 200<br>]]></description>
      <Point>
        <coordinates>-90.0545575,35.1457038,0</coordinates>
      </Point>
    </Placemark>
    <Placemark>
      <name>The University of Memphis</name>
      <description><![CDATA[<b>Name:</b> University of Memphis - Main Campus<br><b>Address:</b> , <br><b>SSID:</b> eduroam<br><b>Enc:</b> WPA2<br><b>AP:</b> 2500<br>]]></description>
      <Point>
        <coordinates>-89.9382073,35.1189038,0</coordinates>
      </Point>
    </Placemark>
    <Placemark>
      <name>The University of Memphis</name>
      <description><![CDATA[<b>Name:</b> University of Memphis - Millington<br><b>Address:</b> , <br><b>SSID:</b> eduroam<br><b>Enc:</b> WPA2<br><b>AP:</b> 35<br>]]></description>
      <Point>
        <coordinates>-89.8462369,35.3391524,0</coordinates>
      </Point>
    </Placemark>
    <Placemark>
      <name>The University of Tennessee</name>
      <description><![CDATA[<b>Name:</b> Ag Campus<br><b>Address:</b> , <br><b>SSID:</b> eduroam<br><b>Enc:</b> WPA2+WPA<br><b>AP:</b> 300<br>]]></description>
      <Point>
        <coordinates>-83.9400687,35.9474927,0</coordinates>
      </Point>
    </Placemark>
    <Placemark>
      <name>The University of Tennessee</name>
      <description><![CDATA[<b>Name:</b> Alcoa Ag Extension<br><b>Address:</b> , <br><b>SSID:</b> eduroam<br><b>Enc:</b> WPA2+WPA<br><b>AP:</b> 4<br>]]></description>
      <Point>
        <coordinates>-83.954337,35.9025089,0</coordinates>
      </Point>
    </Placemark>
    <Placemark>
      <name>The University of Tennessee</name>
      <description><![CDATA[<b>Name:</b> Architecture Studio<br><b>Address:</b> , <br><b>SSID:</b> eduroam<br><b>Enc:</b> WPA2+WPA<br><b>AP:</b> 2<br>]]></description>
      <Point>
        <coordinates>-83.9181983,35.9652553,0</coordinates>
      </Point>
    </Placemark>
    <Placemark>
      <name>The University of Tennessee</name>
      <description><![CDATA[<b>Name:</b> Burlington Bldg.<br><b>Address:</b> , <br><b>SSID:</b> eduroam<br><b>Enc:</b> WPA2+WPA<br><b>AP:</b> 7<br>]]></description>
      <Point>
        <coordinates>-83.859502,36.004148,0</coordinates>
      </Point>
    </Placemark>
    <Placemark>
      <name>The University of Tennessee</name>
      <description><![CDATA[<b>Name:</b> Capitol Blvd Bldg.<br><b>Address:</b> , <br><b>SSID:</b> eduroam<br><b>Enc:</b> WPA2+WPA<br><b>AP:</b> 8<br>]]></description>
      <Point>
        <coordinates>-86.7826751,36.1634275,0</coordinates>
      </Point>
    </Placemark>
    <Placemark>
      <name>The University of Tennessee</name>
      <description><![CDATA[<b>Name:</b> Glazer Bldg.<br><b>Address:</b> , <br><b>SSID:</b> eduroam<br><b>Enc:</b> WPA2+WPA<br><b>AP:</b> 8<br>]]></description>
      <Point>
        <coordinates>-84.249522,36.016294,0</coordinates>
      </Point>
    </Placemark>
    <Placemark>
      <name>The University of Tennessee</name>
      <description><![CDATA[<b>Name:</b> Main Campus<br><b>Address:</b> , <br><b>SSID:</b> eduroam<br><b>Enc:</b> WPA2+WPA<br><b>AP:</b> 10500<br>]]></description>
      <Point>
        <coordinates>-83.9298913,35.9533952,0</coordinates>
      </Point>
    </Placemark>
    <Placemark>
      <name>The University of Tennessee</name>
      <description><![CDATA[<b>Name:</b> Middlebrook Bldg.<br><b>Address:</b> , <br><b>SSID:</b> eduroam<br><b>Enc:</b> WPA2+WPA<br><b>AP:</b> 20<br>]]></description>
      <Point>
        <coordinates>-84.00934,35.9551919,0</coordinates>
      </Point>
    </Placemark>
    <Placemark>
      <name>The University of Tennessee</name>
      <description><![CDATA[<b>Name:</b> Polk Ave Bldg.<br><b>Address:</b> , <br><b>SSID:</b> eduroam<br><b>Enc:</b> WPA2+WPA<br><b>AP:</b> 16<br>]]></description>
      <Point>
        <coordinates>-86.7485788,36.135299,0</coordinates>
      </Point>
    </Placemark>
    <Placemark>
      <name>The University of Tennessee</name>
      <description><![CDATA[<b>Name:</b> Space Institute<br><b>Address:</b> , <br><b>SSID:</b> eduroam<br><b>Enc:</b> WPA2+WPA<br><b>AP:</b> 50<br>]]></description>
      <Point>
        <coordinates>-86.1016209,35.3202999,0</coordinates>
      </Point>
    </Placemark>
    <Placemark>
      <name>The University of Tennessee at Chattanooga</name>
      <description><![CDATA[<b>Name:</b> Main Campus<br><b>Address:</b> , <br><b>SSID:</b> eduroam<br><b>Enc:</b> WPA2+WPA<br><b>AP:</b> 2650<br>]]></description>
      <Point>
        <coordinates>-85.2990183,35.0461839,0</coordinates>
      </Point>
    </Placemark>
    <Placemark>
      <name>The University Of Tennessee Southern</name>
      <description><![CDATA[<b>Name:</b> Universoity of Tennessee Southern Campus<br><b>Address:</b> , <br><b>SSID:</b> eduroam<br><b>Enc:</b> WPA2+WPA<br><b>AP:</b> 289<br>]]></description>
      <Point>
        <coordinates>-87.036387,35.2002256,0</coordinates>
      </Point>
    </Placemark>
    <Placemark>
      <name>The University of Tennessee-Martin</name>
      <description><![CDATA[<b>Name:</b> University of Tennessee at Martin Jackson Center<br><b>Address:</b> , <br><b>SSID:</b> eduroam<br><b>Enc:</b> WPA2+WPA<br><b>AP:</b> 7<br>]]></description>
      <Point>
        <coordinates>-88.7820003,35.6425949,0</coordinates>
      </Point>
    </Placemark>
    <Placemark>
      <name>The University of Tennessee-Martin</name>
      <description><![CDATA[<b>Name:</b> UT Martin Main Campus<br><b>Address:</b> , <br><b>SSID:</b> eduroam<br><b>Enc:</b> WPA2+WPA<br><b>AP:</b> 1365<br>]]></description>
      <Point>
        <coordinates>-88.8634931,36.3416262,0</coordinates>
      </Point>
    </Placemark>
    <Placemark>
      <name>The University of Tennessee-Martin</name>
      <description><![CDATA[<b>Name:</b> UT Martin Parsons Center<br><b>Address:</b> , <br><b>SSID:</b> eduroam<br><b>Enc:</b> WPA2+WPA<br><b>AP:</b> 16<br>]]></description>
      <Point>
        <coordinates>-88.1255543,35.6642881,0</coordinates>
      </Point>
    </Placemark>
    <Placemark>
      <name>The University of Tennessee-Martin</name>
      <description><![CDATA[<b>Name:</b> UT Martin Ripley Center<br><b>Address:</b> , <br><b>SSID:</b> eduroam<br><b>Enc:</b> WPA2+WPA<br><b>AP:</b> 24<br>]]></description>
      <Point>
        <coordinates>-89.5412128,35.7385353,0</coordinates>
      </Point>
    </Placemark>
    <Placemark>
      <name>The University of Tennessee-Martin</name>
      <description><![CDATA[<b>Name:</b> UT Martin Selmer Center<br><b>Address:</b> , <br><b>SSID:</b> eduroam<br><b>Enc:</b> WPA2+WPA<br><b>AP:</b> 12<br>]]></description>
      <Point>
        <coordinates>-88.6181788,35.1964358,0</coordinates>
      </Point>
    </Placemark>
    <Placemark>
      <name>The University of Tennessee-Martin</name>
      <description><![CDATA[<b>Name:</b> UT Martin Somerville Center<br><b>Address:</b> , <br><b>SSID:</b> eduroam<br><b>Enc:</b> WPA2+WPA<br><b>AP:</b> 22<br>]]></description>
      <Point>
        <coordinates>-89.363416,35.24698,0</coordinates>
      </Point>
    </Placemark>
    <Placemark>
      <name>University of Tennessee-Health Science Center</name>
      <description><![CDATA[<b>Name:</b> University of Tennessee Health Science Center<br><b>Address:</b> , <br><b>SSID:</b> eduroam<br><b>Enc:</b> WPA2<br><b>AP:</b> -<br>]]></description>
      <Point>
        <coordinates>-90.0301665,35.1407351,0</coordinates>
      </Point>
    </Placemark>
    <Placemark>
      <name>Vanderbilt University</name>
      <description><![CDATA[<b>Name:</b> Vanderbilt University<br><b>Address:</b> , <br><b>SSID:</b> eduroam<br><b>Enc:</b> WPA2+WPA<br><b>AP:</b> -<br>]]></description>
      <Point>
        <coordinates>-86.7969139,36.1417395,0</coordinates>
      </Point>
    </Placemark>
  </Document>
</kml>
